,Name,address,latitude,longitude
0,Königsbäcker,"Пролетарская ул., 55А",54.717189993112,20.512620005995
1,Königsbäcker,"Житомирская ул., 6",54.712199994695,20.506389988822
2,Königsbäcker,"Краснооктябрьская ул., 1",54.702569984227,20.505809961122
3,Штолле,"Барнаульская ул., 2Б, этаж 1",54.714759995562,20.503000011902
4,Königsbäcker,"Московский просп., 40, павильон 101, этаж 1",54.709370012725,20.502689965303
5,Три Пирога,"Флотская ул., 9, этаж 1, помещение 26",54.746469992561,20.444679986893
6,Ремесленная пекарня,"ул. Горького, 12",54.724199988285,20.509579973533
7,Königsbäcker,"ул. Черняховского, 6А",54.718910001553,20.503580039602
8,Königsbäcker,"ул. Александра Невского, 30",54.726870001632,20.528170028947
9,Königsbäcker,"ул. 9 Апреля, 1",54.716968282876,20.523714513894
10,Königsbäcker,"Театральная ул., 21, этаж 1",54.716560009269,20.500379996607
11,Пекарня,"Пролетарская ул., 87",54.720170011148,20.513690039755
12,Konigsbacker,"Вагоностроительная ул., 26",54.712614888866,20.458066812662
13,Пекарня,"ул. Космонавта Леонова, 55, корп. 2, этаж 1",54.731070005675,20.480069974661
14,Пекарня,"Правая наб., 2",54.705919979469,20.487240022275
15,Königsbäcker,"ул. 9 Апреля, 96",54.719220006242,20.526719959698
16,Голландская пекарня,"просп. Победы, 2Б",54.719999984242,20.475120041741
17,Русский хлеб,"ул. Багратиона, 104",54.699349992303,20.504949977857
18,Raut,"Красносельская ул., 85Б, Калининград",54.72045940507,20.443361090498
19,Вы достойны настоящего хлеба,"ул. Профессора Баранова, 41",54.720674618185,20.506070554458
20,Мамина пекарня,"Ленинский просп., 67",54.713089985174,20.507779959826
21,Königsbäcker,"Советский просп., 8, Калининград",54.722810017282,20.496630016946
22,Königsbäcker,"Октябрьская ул., 12, Калининград",54.700929981051,20.516609959545
23,Круассан,"ул. Генерала Раевского, 10Г, Калининград, этаж 1",54.74822998268,20.531780030826
24,Konigsbacker,"Автомобильная ул., 22, Калининград",54.67441001659,20.490170000349
25,Русский хлеб,"ул. Генерала Галицкого, 16, корп. 1, Калининград",54.714460007248,20.497250026323
26,Вы Достойны Настоящего Хлеба,"ул. Петра Панина, 2А, Ленинградский район, микрорайон Сельма, Калининград",54.746374611273,20.495284654887
27,Крендель,"Киевская ул., 77, Калининград",54.681179995966,20.479279980287
28,Königsbäcker,"Краснооктябрьская ул., 9, Калининград",54.702410015605,20.507140001518
29,Пироговая,"ул. Павлика Морозова, 20, Калининград",54.679309993367,20.471710032072
30,Königsbäcker,"ул. Сергеева, 59А, Калининград",54.719689979553,20.516209975125
31,Мельница,"ул. Каштановая Аллея, 157, Калининград",54.735780006617,20.463110031776
32,Русский хлеб,"ул. Карла Маркса, 82Б, Калининград",54.725629982876,20.469740033368
33,Пекарня,"ул. Горького, 19, Калининград",54.725219982083,20.508880000798
34,Пышка,"Уральская ул., 18, Калининград, этаж 1",54.724629979918,20.502070039745
35,Königsbäcker,"ул. Липовая Аллея, 2, Калининград",54.668260004683,20.493629966161
36,Königsbäcker,"Московский просп., 231, Калининград",54.708780010561,20.573289981379
37,Магазин-пекарня,"площадь Победы, 4А, Калининград",54.721149981358,20.501139983768
38,Русский хлеб,"ул. Нансена, 68, Калининград",54.694700005788,20.476580001636
39,Konigsbacker,"ул. Олега Кошевого, 37А, Калининград",54.668919995739,20.512929968775
40,Königsbäcker,"Нарвская ул., 112, Калининград, этаж 1",54.743200980355,20.499180091776
41,Königsbäcker,"Советский просп., 24, Калининград",54.724800006824,20.497880010166
42,Круассан,"Октябрьская ул., 2/3",54.705229981199,20.514420019702
43,Пекарня,"ул. Чкалова, 2А, Калининград",54.723311946268,20.459739158409
44,Русский хлеб,"ул. Юрия Гагарина, 55А",54.722760019229,20.544149959713
45,Königsbäcker,"Советский просп., 234",54.749300016439,20.458369981711
46,Königsbacker,"ул. Багратиона, 91",54.698950007883,20.505109988388
47,Русский хлеб,"ул. Согласия, 1",54.740520014772,20.493240040025
48,Königsbäcker,"ул. 9 Апреля, 58",54.715119998304,20.525750005863
49,Вы достойны настоящего хлеба,"ул. Куйбышева, 91Б",54.725850007835,20.537330024195
50,Amalienau bakery,"Университетская ул., 1Б",54.713255056745,20.508563727307
51,Русский хлеб,"ул. Дзержинского, 160А",54.674159984418,20.54177997659
52,Königsbäcker,"Вагоностроительная ул., 49, корп. 1",54.709030000823,20.45994997046
53,Круассан,"ул. Фрунзе, 73А",54.713055024225,20.529033632761
54,Русский хлеб,"Киевская ул., 80",54.681800005344,20.47455996297
55,Булочная,"Артиллерийская ул., 63А",54.731756881166,20.549081775299
56,Пекарня,"ул. Горького, 162А/4",54.74482001492,20.501020038734
57,Русский хлеб,"Красная ул., 63А",54.730089993556,20.473049963113
58,Русский хлеб,"ул. Карла Маркса, 84",54.725620008412,20.469169980134
59,Königsbäcker,"ул. Черняховского, 15А, Вход с ул. Баранова. Вход в пекарню с улицы, этаж 1",54.720159994774,20.508389994739
60,Русский хлеб,"Артиллерийская ул., 56, этаж 1",54.731020007623,20.550490031275
61,Русский хлеб,"ул. Юрия Маточкина, 2А, Ленинградский район, микрорайон Сельма",54.740950006405,20.488560004387
62,Русский хлеб,"Московский просп., 50А",54.709509990508,20.505579961699
63,Русский хлеб,"Нарвская ул., 10А",54.728529995647,20.496219974242
64,Русский хлеб,"Столярная ул., 29",54.729460009713,20.439399974625
65,Бон Маман,"ул. Генерала Галицкого, 16",54.715660002416,20.498500019544
66,Любимая,"1-я Энергостроительная ул., 6",54.765960012919,20.506380014357
67,Хлебное ремесло,"Интернациональная ул., 48",54.669010017379,20.504069961842
68,Русский хлеб,"Аэропортная ул., 12",54.73073902561,20.554245552233
69,Русский хлеб,"Коммунистическая ул., 21",54.67945001306,20.483890027033
70,Булочки ранней пташки,"пер. Дзержинского, 36А",54.693289710132,20.52598454587
71,Русский хлеб,"ул. Чайковского, 30",54.72458999824,20.490579959234
72,Русский хлеб,"площадь Маршала Василевского, 3А",54.721769990736,20.524419965467
73,Крендель,"ул. Генерал-Лейтенанта Захарова, 2",54.735120015561,20.472200038131
74,Königsbäcker,"просп. Калинина, 20",54.695375726331,20.520983993272
75,Русский хлеб,"Краснопрудная ул., 45",54.709420010778,20.573319988592
76,Жар Свежар,"просп. Мира, 23",54.719769984819,20.486250035691
77,Пекарня,"ул. Александра Невского, 30",54.726870001632,20.528170028947
78,Первый хлебозавод,"ул. Олега Кошевого, 30, этаж цокольный",54.673699985572,20.508919982477
79,Chef baker,"Батальная ул., 75Б",54.674929987953,20.510880006715
80,Русский хлеб,"ул. 9 Апреля, 22, павильон 4",54.712490008544,20.522809969505
81,Königsbäcker,"просп. Мира, 84, этаж 1",54.720650000833,20.475769974513
82,Русский хлеб,"Житомирская ул., 10",54.711689997796,20.506510017676
83,Русский хлеб,"Ленинский просп., 23",54.716350000685,20.503350040178
84,Русский хлеб,"площадь Калинина, 26А",54.694863571716,20.501264141288
85,Артос,"ул. Виктора Денисова, 16, корп. 1",54.713679987338,20.584719963644
86,Русский хлеб,"ул. Дзержинского, 61Б",54.689437802057,20.531799037601
87,Русский хлеб,"площадь Победы, 4Б",54.721190004945,20.499769961694
88,Русский хлеб,"ул. Нансена, 68",54.694700005788,20.476580001636
89,Булочная,"ул. Багратиона, 96Б",54.699252552591,20.506039113749
90,Русский хлеб,"Артиллерийская ул., 79, этаж 1",54.735639986925,20.551489992324
91,Русский хлеб,"Серпуховская ул., 32А",54.698891492674,20.500494030366
92,Русский хлеб,"Крымская ул., 8",54.667730016945,20.494669992707
93,Круассан,"ул. Чкалова, 1А, этаж 1",54.7230253,20.459557515917
94,Круассан,"бул. Любови Шевцовой, 2А",54.671260013558,20.50091995881
95,Хлеб Алло,"ул. Пугачёва, 38/2",54.725590001198,20.473120035824
96,Русский хлеб,"ул. Генерала Толстикова, 18Б",54.674239989684,20.49364999891
97,Русский хлеб,"Мариупольская ул., 2Б",54.709079998876,20.499680023873
98,Круассан,"ул. Аксакова, 129",54.711659990582,20.581039972874
99,Вы Достойны Настоящего Хлеба,"Артиллерийская ул., 22",54.732100015847,20.539899999527
100,Opera,"ул. Фрунзе, 17",54.713280002919,20.520620029662
101,Вы Достойны Настоящего Хлеба,"ул. Маршала Жукова, 3",54.750184691976,20.491586263793
102,Трдельник,"Интернациональная ул., 59А",54.669789995379,20.508710015802
103,Сдобушка,"ул. 9 Апреля, 1",54.716968282876,20.523714513894
104,Königsbäcker,"Ленинский просп., 80А",54.699545828035,20.503033426075
105,Майбах,"Ленинский просп., 30, этаж 3",54.71121000811,20.508229984207
106,Русский хлеб,"ул. 9 Апреля, 22, павильон 12",54.712490008544,20.522809969505
107,Русский хлеб,"ул. Космонавта Леонова, 34Б",54.729250001129,20.482480023281
108,Русский хлеб,"ул. Генерала Челнокова, 21, Внутри, ТЦ Green Market",54.73932,20.48595
109,Салон вкуса,"Московский просп., 171А, этаж 1",54.710589998733,20.542910024777
110,Пекарня,"ул. Согласия, 44Ж",54.749539990327,20.487600025017
111,Königsbäcker,"ул. Дзержинского, 79, корп. 5",54.685060020855,20.534210028376
112,Майбах,"просп. Мира, 61А, ТЦ Спутник",54.72068,20.47391
