,Name,address,latitude,longitude
0,Дредноут,"ул. Генделя, 5, этаж цокольный",54.721810014323,20.496100029208
1,Matsu izakaya & Roku bar,"ул. Сергеева, 2Б",54.715006327692,20.514364689624
2,Моррисон,"ул. Чайковского, 10А, этаж 1",54.724030003289,20.495150024302
3,Паб Лондон,"просп. Мира, 33",54.720350012519,20.484580025303
4,Раковарня Ивана Раковара,"ул. Брамса, 35, этаж 1",54.72613000531,20.493619991696
5,Редюит,"ул. Литовский Вал, 27",54.712720007968,20.53714000645
6,Cult Bar & Kitchen,"Советский просп., 8",54.722549487048,20.499263322136
7,Сэр Френсис Дрейк,"Советский просп., 19А, этаж 1",54.725969994779,20.495310034834
8,КПЗ,"Нарвская ул., 51А",54.735040010295,20.496530020841
9,Мандарин,"ул. Профессора Баранова, 1, Калининград, этаж 1",54.721635198699,20.512596672719
10,Паб Лондон,"просп. Мира, 33",54.720350012519,20.484580025303
11,У Гашека,"Ленинский просп., 1",54.719200015403,20.500059975544
12,Место Силы,"ул. Генерала Галицкого, 18",54.714989994986,20.497410036855
13,Рюмочная,"ул. Профессора Баранова, 2Б, этаж 1",54.721930001267,20.512459995464
14,Ельцин,"Гаражная ул., 2А",54.724479985761,20.505349962276
15,Old brick,"просп. Мира, 19",54.719450005665,20.487479996163
16,Гарри Джонсон,"Гвардейский просп., 3",54.715892059867,20.49416874524
17,Брецель,"ул. Александра Невского, 10, этаж 1",54.723099989222,20.528359962873
18,Эль Барритос,"ул. Багратиона, 49В, этаж цокольный",54.699014080829,20.509425608318
19,Мне как обычно,"ул. Горького, 104Б",54.735949991614,20.508610019697
20,Zotler,"Ленинский просп., 3",54.718450002707,20.502150003101
21,Пират Хауз,"Эпроновская ул., 13, Калининград",54.700870008534,20.512910019845
22,Бруклин,"ул. Шевченко, 11А",54.71170001417,20.511100031673
23,Краны и стаканы,"ул. Брамса, 40",54.726249992254,20.494230026609
24,Zotler,"ул. Горького, 120, Калининград, подъезд 1",54.7372799901,20.507490029795
25,Другое место,"Пролетарская ул., 84, этаж 1",54.719610016197,20.514199994744
26,Mirage Bar,"Ленинский просп., 18, корп. 1",54.713649980125,20.504429964584
27,Мне как обычно,"Московский просп., 133В, этаж 1",54.710119983512,20.53015997658
28,Классик,"ул. Фрунзе, 6В, этаж -1",54.711909980845,20.521529969071
29,Хофбург,"Октябрьская ул., 6А, этаж 1",54.702970010556,20.515609998496
30,Tangiers Lounge,"ул. Профессора Баранова, 2Б, этаж 3",54.721930001267,20.512459995464
31,Пивной двор,"ул. Литовский Вал, 2, этаж 1",54.719669057583,20.52859332773
32,Виллеманн,"Ленинский просп., 8Б",54.715180012731,20.503339981895
33,Старый пират,"Ленинский просп., 42Б, РК Атлантика",54.70214,20.50372
34,Beer zone,"ул. Фрунзе, 17",54.713280002919,20.520620029662
35,Пивной двор,"Мариупольская ул., 14",54.708439998659,20.498860022285
36,Фишбон,"Ленинский просп., 16, этаж 3",54.714080013667,20.504740011182
37,Галерея,"ул. Александра Невского, 53, Калининград",54.731740013106,20.530760037029
38,Точка доступа,"Ленинский просп., 18, Калининград",54.71219,20.50964
39,Кафе Июль,"ул. Черняховского, 19",54.721070018001,20.518409973252
40,Форма,"Гаражная ул., 2, этаж 1",54.720890016631,20.502819968622
41,Present Bar,"Ленинский просп., 30, этаж 3",54.71121000811,20.508229984207
42,Пивной двор,"ул. Александра Невского, 34А",54.727410005744,20.528540006154
43,Патиссон Markt,"площадь Победы, 4, этаж 1",54.720830002204,20.499880016083
44,The bar,"площадь Победы, 10, Гостиница Radisson, этаж 1",54.71938,20.50465
45,Пивной двор,"ул. Согласия, 1",54.740520014772,20.493240040025
46,Эхо войны,"Ленинский просп., 8Б, этаж цокольный",54.715180012731,20.503339981895
47,Пивной двор,"Октябрьская ул., 5В",54.704460019574,20.516139986234
48,Citrus bar,"Ленинский просп., 30, этаж 2",54.71121000811,20.508229984207
49,Пивовар,"ул. Александра Невского, 137Б",54.741820006045,20.531759998077
50,Джентлмены,"Октябрьская ул., 12",54.700929981051,20.516609959545
51,Bad Habit,"ул. 9 Апреля, 88А",54.719140000976,20.525719998649
52,Ponarth,"ул. Куйбышева, 68, этаж 1",54.724249986338,20.540680019437
53,Пивной Двор,"ул. 9 Апреля, 22",54.712490008544,20.522809969505
54,Дикий ДЮК,"ул. Черняховского, 26, этаж цокольный",54.719560018144,20.507349968193
55,Пивной Двор,"ул. Гайдара, 155",54.742199999626,20.509089967473
56,Пивной двор,"Советский просп., 8",54.722549487048,20.499263322136
57,Пивной двор,"ул. Липовая Аллея, 2",54.668260004683,20.493629966161
58,Пивной двор,"ул. Островского, 15А",54.743025964462,20.5243189483
59,Папаша Беппе,"ул. Багратиона, 99, Калининград, этаж 1",54.69852001625,20.502319988097
60,Skazka,"просп. Мира, 31",54.71974999398,20.48481999919
61,Beer лога,"ул. Багратиона, 26",54.699700020579,20.514429994167
62,Хмель,"ул. Аллея Смелых, 8А",54.692231778689,20.523766564258
63,Строганина,"площадь Победы, 10, ТРЦ Кловер",54.719599999822,20.503890002381
64,Пивной мир,"Ленинский просп., 85А",54.703719981342,20.507579967616
65,Пивной Двор,"Ленинский просп., 34",54.704079984084,20.505030025032
66,Дом техники,"ул. Профессора Баранова, 30, этаж 1",54.721619996578,20.509179989113
67,Пивной Двор,"ул. Багратиона, 91",54.698950007883,20.505109988388
68,Ibis kitchen,"Московский просп., 52, этаж 1",54.709099989715,20.506859962133
69,Bo-Bo,"Эпроновская ул., 6",54.700000008894,20.513990028069
70,Табаско,"ул. Горького, 154А",54.741410005252,20.50458000065
71,Сокол,"Больничная ул., 30",54.712210011069,20.50342002907
72,Пивной двор,"ул. Профессора Баранова, 30, подъезд 2, этаж 1",54.721619996578,20.509179989113
73,Avo Kitchen & Bar,"ул. Профессора Баранова, 40",54.718599996864,20.499109970638
74,Фанат,"Клиническая ул., 19А, этаж 1",54.712278840994,20.518124953515
75,Linch,"ул. Сержанта Колоскова, 1А",54.719630007036,20.485549979138
76,БарБоссы,"ул. Горького, 40",54.728189983744,20.588549990481
77,NEкрасOFF,"ул. Некрасова, 21, этаж цокольный",54.735400013037,20.526549974702
78,RuNika project,"Партизанская ул., 2",54.721609980204,20.510819992288
79,Пивной Двор,"ул. Горького, 14",54.724409996869,20.509600006281
80,Am Pm,"ул. Фрунзе, 6В, этаж 1",54.711909980845,20.521529969071
81,Brasserie de Verres EN Vers,"площадь Победы, 10, этаж 1",54.719599999822,20.503890002381
82,Пить хочу!,"ул. Генерал-Лейтенанта Озерова, 17, корп. 1",54.725709988142,20.50254998752
83,Пивной двор,"ул. Куйбышева, 79",54.726360004733,20.535860006016
84,Пивной Двор,"Пехотная ул., 2А",54.744940001864,20.545329964042
85,Пивной Двор,"ул. Юрия Маточкина, 2А, Ленинградский район, микрорайон Сельма, этаж 1",54.740950006405,20.488560004387
86,РыбМясХолл,"ул. Профессора Баранова, 1, этаж 1",54.721635198699,20.512596672719
87,Пивной Двор,"ул. Юрия Гагарина, 13",54.717089997007,20.540229995055
88,Пенная гильдия,"ул. Горького, 12",54.724199988285,20.509579973533
89,Beer fest,"Артиллерийская ул., 54",54.731230016207,20.549299968662
90,Папаша Беппе,"ул. Куйбышева, 42, этаж 1",54.724930010142,20.538759976876
91,Табаско Европа,"Театральная ул., 30, этаж 2",54.717749988063,20.498990025604
92,Mr. Begemot,"ул. Генерал-Лейтенанта Озерова, 17, корп. 1",54.725709988142,20.50254998752
93,BeerZelis,"ул. Багратиона, 47",54.699230005359,20.510770036145
94,Beer Point Kaliningrad,"Театральная ул., 27",54.717180018647,20.499109970638
95,Пивной двор,"ул. Горького, 162Б",54.743449992846,20.502960030224
96,Пивной Двор,"ул. Виктора Гакуна, 5, этаж цокольный",54.747569991624,20.528019992881
97,Папаша Беппе,"Ленинский просп., 20, этаж цокольный",54.713499985968,20.505880033833
98,Пивной двор,"ул. Горького, 104Б",54.735949991614,20.508610019697
99,The Enclave,"Ленинский просп., 18, корп. 1",54.713649980125,20.504429964584
100,Критика чистого,"Октябрьская ул., 12",54.700929981051,20.516609959545
101,Гараж,"Звёздная ул., 9",54.700230008317,20.588940000436
102,Shuba music center,"ул. Мусоргского, 10, корп. 2, этаж цокольный",54.726659993048,20.503390021857
103,Лобби-бар,"ул. Виктора Гюго, 1",54.708119633931,20.505508681121
104,Пивной мир,"Ольштынская ул., 1",54.696099993166,20.503660002958
105,Папаша Беппе,"Театральная ул., 30, этаж 3",54.717749988063,20.498990025604
106,Пивной двор,"ул. Горького, 170, этаж цокольный",54.749179987586,20.501650022576
107,Кран,"ул. Генерала Соммера, 29",54.716809999532,20.511449976131
108,Калининград-Ташкент,"Театральная ул., 21, ТЦ Маяк",54.71656,20.50038
109,Пивной двор,"Аэропортная ул., 12, Калининград",54.73073902561,20.554245552233
110,Бар безалкогольных напитков Пить хочу,"ул. Горького, 2, подъезд 1, этаж 3",54.721559982152,20.509249978005
111,Ужин в темноте,"Советский просп., 16",54.723989979701,20.498830015072
112,Магазин разливного пива Vincent,"ул. Нансена, 13",54.696069985952,20.487700021121
113,Пивной Двор,"ул. Дзержинского, 98",54.68884000773,20.531639969224
114,Пивной Двор,"Колхозная ул., 26",54.747229979721,20.525829969219
115,АльтштаDт,"площадь Калинина, 26А",54.694863571716,20.501264141288
116,Пивной мир,"ул. Генерала Буткова, 16А",54.709819995197,20.494669992707
117,Закусочная в Маяке,"Театральная ул., 21",54.716560009269,20.500379996607
118,Премьер-Министр,"площадь Калинина, 26А",54.694863571716,20.501264141288
119,Фидель,"Пражская ул., 36",54.724470011296,20.536429975432
120,Папаша Беппе,"Балтийская ул., 12, Цоколь",54.737630018377,20.509639987959
121,Kaiser Bar,"Театральная ул., 30",54.717749988063,20.498990025604
122,Солод,"Мирная ул., 4",54.749350014492,20.493129985637
123,Пивной сокол,"ул. Горького, 12",54.724199988285,20.509579973533
124,Кёнигбрау,"Мариупольская ул., 14Б",54.708359993393,20.498179998481
125,Чайка у озера,"Верхнеозёрная ул., 16А",54.730310018514,20.522030033414
126,Kirin,"Октябрьская ул., 12",54.700929981051,20.516609959545
127,Пивная кружка,"ул. Согласия, 50",54.752379988671,20.485519971925
128,Пивной Двор,"Эпроновская ул., 2Д",54.700297118356,20.513868150677
129,Пивная бухта,"ул. Александра Невского, 108",54.74164997914,20.532579999665
130,Морека,"ул. Сергеева, 2, 1",54.714840000828,20.51465999359
131,Пивной Двор,"ул. Брамса, 39",54.726470017213,20.493719987801
132,Пивной Двор,"ул. Генерала Соммера, 46",54.716410015112,20.511509990558
133,Разливное пиво,"Артиллерийская ул., 69",54.733860005966,20.553209958856
134,Буксини,"ул. Согласия, 44",54.749840020551,20.488250041608
135,Тепло,"ул. Еловая Аллея, 26",54.694591726628,20.403813582718
136,Ещё,"пр. Дзержинского, 2",54.693370007301,20.525310039765
137,Папаша Беппе,"ул. Генерала Челнокова, 18Б, этаж 2",54.737689990894,20.489990040888
138,Пивной двор,"ул. Юрия Гагарина, 74",54.727039986629,20.556089980787
139,Пивной Двор,"ул. Согласия, 44",54.749840020551,20.488250041608
140,Пивной Двор,"Малая Лесная ул., 9",54.75549998449,20.516090030091
141,Пивкоff,"Космическая ул., 8",54.715410012154,20.501230005408
142,Время пить,"Эльблонгская ул., 9А",54.700479998579,20.498300027334
143,Заправка,"Ольштынская ул., 44",54.695869993742,20.508979996903
144,Британника,"ул. Юрия Маточкина, 2А, Ленинградский район, микрорайон Сельма, КАФЕ ПИЦЦЕРИЯ ""ПЕПЕРОНЧИНО""",54.740950006405,20.488560004387
