,Name,address,latitude,longitude
0,World Class,"—É–ª. –î–º–∏—Ç—Ä–∏—è –î–æ–Ω—Å–∫–æ–≥–æ, 19",54.715080016626,20.486490009579
1,West Kings,"—É–ª. –ú—É—Å–æ—Ä–≥—Å–∫–æ–≥–æ, 10, –∫–æ—Ä–ø. 5",54.726540006104,20.503880027916
2,–í–ò–í–ê,"—É–ª. –û–ª–µ–≥–∞ –ö–æ—à–µ–≤–æ–≥–æ, 33",54.670789998337,20.513379993156
3,Re-—Ñ–æ—Ä–º–∞,"—É–ª. –£–ª—å—è–Ω—ã –ì—Ä–æ–º–æ–≤–æ–π, 66, –£–ª—å—è–Ω—ã –ì—Ä–æ–º–æ–≤–æ–π, 66 (–≤—Ö–æ–¥ —Å–ª–µ–≤–∞ —Å —Ç–æ—Ä—Ü–∞, ), —ç—Ç–∞–∂ 2",54.666210000713,20.499439966166
4,–ì–µ—Ä–∫—É–ª–µ—Å Max,"—É–ª. –ê–∫—Å–∞–∫–æ–≤–∞, 137, —ç—Ç–∞–∂ —Ü–æ–∫–æ–ª—å–Ω—ã–π",54.711559994478,20.585699975763
5,NEWFitness,"—É–ª. –ì–µ–Ω–µ—Ä–∞–ª–∞ –ß–µ–ª–Ω–æ–∫–æ–≤–∞, 25, —ç—Ç–∞–∂ 3",54.739720978712,20.48585383158
6,Xfit,"–ë–∞—Å—Å–µ–π–Ω–∞—è —É–ª., 46",54.720318229483,20.453037558813
7,–¢–∏—Ç–∞–Ω,"–ú–æ—Å–∫–æ–≤—Å–∫–∏–π –ø—Ä–æ—Å–ø., 48–ê, —ç—Ç–∞–∂ 6",54.709190011355,20.503720017385
8,–ü–æ–±–µ–¥–∞ 33,"–ø—Ä–æ—Å–ø. –ü–æ–±–µ–¥—ã, 33",54.715890001839,20.467949994126
9,Egoiste,"—É–ª. 9 –ê–ø—Ä–µ–ª—è, 88–ê, —ç—Ç–∞–∂ 2",54.719140000976,20.525719998649
10,State of Fitness,"–ê—Ä—Ç–∏–ª–ª–µ—Ä–∏–π—Å–∫–∞—è —É–ª., 34",54.730310018514,20.542299989863
11,Grif,"—É–ª. 1812 –≥–æ–¥–∞, 126, —ç—Ç–∞–∂ —Ü–æ–∫–æ–ª—å–Ω—ã–π",54.711149993684,20.536749996495
12,–ê–ª—å–±–∞—Ç—Ä–æ—Å –í–æ—Å—Ç–æ–∫,"–ú–æ—Å–∫–æ–≤—Å–∫–∏–π –ø—Ä–æ—Å–ø., 273",54.705998367377,20.58956447931
13,Ufit,"—É–ª. –§—Ä—É–Ω–∑–µ, 51, —ç—Ç–∞–∂ 2",54.712839994911,20.526430029667
14,–ê—Ç–ª–µ—Ç–∏–∫–∞,"—É–ª. –î–∑–µ—Ä–∂–∏–Ω—Å–∫–æ–≥–æ, 168–ï",54.670520017236,20.544869965196
15,–ß–µ–º–ø–∏–æ–Ω,"—É–ª. –Æ—Ä–∏—è –ì–∞–≥–∞—Ä–∏–Ω–∞, 1, —ç—Ç–∞–∂ 2",54.715260017996,20.536670033139
16,Profitness,"—É–ª. –ü—Ä–æ—Ñ–µ—Å—Å–æ—Ä–∞ –ë–∞—Ä–∞–Ω–æ–≤–∞, 36, —ç—Ç–∞–∂ 1, 2",54.720780004152,20.504700029504
17,–°–∏—Ä–∏—É—Å,"—É–ª. –õ–∏—Ç–æ–≤—Å–∫–∏–π –í–∞–ª, 36",54.718209986909,20.530170034864
18,Oberteich,"—É–ª. –ì–æ–≥–æ–ª—è, 17",54.732020010581,20.52260000283
19,Lift Gym,"–ù–∞—Ä–≤—Å–∫–∞—è —É–ª., 54, –∫–æ—Ä–ø. 5, —ç—Ç–∞–∂ 3",54.731380010364,20.500500025461
20,–ê–ª—å–±–∞—Ç—Ä–æ—Å-–°–µ–≤–µ—Ä,"—É–ª. –ì–∞–π–¥–∞—Ä–∞, 136",54.743820011962,20.50953001739
21,–û–∞–∑–∏—Å,"–ú–∞–ª—ã–π –ø–µ—Ä., 15",54.702159983433,20.511979963869
22,Profitness,"—É–ª. –°–æ–≥–ª–∞—Å–∏—è, 44–ê, —ç—Ç–∞–∂ 2",54.74948001781,20.488529997174
23,–ê–¥—Ä–µ–Ω–∞–ª–∏–Ω,"—É–ª. –Æ—Ä–∏—è –ì–∞–≥–∞—Ä–∏–Ω–∞, 55–ê",54.722760019229,20.544149959713
24,–ß–µ–º–ø–∏–æ–Ω,"—É–ª. –ê–ª–µ–∫—Å–∞–Ω–¥—Ä–∞ –°—É–≤–æ—Ä–æ–≤–∞, 46–ê",54.692949990133,20.469459993983
25,Profitness,"—É–ª. –ú–µ–Ω–¥–µ–ª–µ–µ–≤–∞, 61–ê, —ç—Ç–∞–∂ 1",54.72284999896,20.437880000303
26,Plachinta Gym,"—É–ª. –ê–ª–ª–µ—è –°–º–µ–ª—ã—Ö, 20–í",54.691295515701,20.523591444934
27,–ê–ª—å–±–∞—Ç—Ä–æ—Å-–ó–∞–ø–∞–¥,"—É–ª. –ß–µ–∫–∏—Å—Ç–æ–≤, 81–ê",54.731350003151,20.46699998922
28,–ê–ª—å–±–∞—Ç—Ä–æ—Å-–Æ–≥,"–¢–æ–≤–∞—Ä–Ω—ã–π –ø–µ—Ä., 5",54.681129997913,20.498890029499
29,Non Stop,"—É–ª. –§—Ä—É–Ω–∑–µ, 6, —ç—Ç–∞–∂ 2",54.711559994478,20.521659972389
30,Kalina Fit,"–õ–µ–Ω–∏–Ω—Å–∫–∏–π –ø—Ä–æ—Å–ø., 155–ê, —ç—Ç–∞–∂ —Ü–æ–∫–æ–ª—å–Ω—ã–π",54.696060011487,20.50254998752
31,–ò–Ω—Ñ–∏–Ω–∏—Ç–∏,"–õ–µ–Ω–∏–Ω—Å–∫–∏–π –ø—Ä–æ—Å–ø., 67–ë, –¢–¶ –ú–µ—Ä–∫—É—Ä–∏–π, —ç—Ç–∞–∂ 3, –æ—Ñ–∏—Å 301",54.712909983803,20.507939970357
32,Art Jungle,"—É–ª. –ú–æ–ª–æ—á–∏–Ω—Å–∫–æ–≥–æ, 4",54.734569995075,20.479439990818
33,Profitness Plus - –ê—Ä—Ç–∏–ª–ª–µ—Ä–∏–π—Å–∫–∞—è,"–ê—Ä—Ç–∏–ª–ª–µ—Ä–∏–π—Å–∫–∞—è —É–ª., 22",54.732100015847,20.539899999527
34,Ufit,"—É–ª. –°–æ–≥–ª–∞—Å–∏—è, 15–ê",54.743096095937,20.492087070568
35,Rock Gym,"—É–ª. –ü–µ—Ç—Ä–∞ –ü–∞–Ω–∏–Ω–∞, 8, –õ–µ–Ω–∏–Ω–≥—Ä–∞–¥—Å–∫–∏–π —Ä–∞–π–æ–Ω, –º–∏–∫—Ä–æ—Ä–∞–π–æ–Ω –°–µ–ª—å–º–∞, —ç—Ç–∞–∂ -1",54.746749990036,20.493819983906
36,Women Zone,"—É–ª. –ü–∞—Ä—Ç–∏–∑–∞–Ω–∞ –ñ–µ–ª–µ–∑–Ω—è–∫–∞, 3–ê, —ç—Ç–∞–∂ 2",54.728796929799,20.539435844301
37,My gym,"–ø–ª–æ—â–∞–¥—å –ü–æ–±–µ–¥—ã, 10, —ç—Ç–∞–∂ 8",54.719599999822,20.503890002381
38,Rock Gym,"–°–æ–≤–µ—Ç—Å–∫–∏–π –ø—Ä–æ—Å–ø., 81, –∫–æ—Ä–ø. 4",54.734109996229,20.482729971634
39,–≠—Ä–∞ –≤–æ–¥–æ–ª–µ—è,"–ö—Ä–∞—Å–Ω–æ–æ–∫—Ç—è–±—Ä—å—Å–∫–∞—è —É–ª., 17, –î–¶ –ü–∞—Ä—É—Å, —ç—Ç–∞–∂ 2",54.702009989276,20.50865997584
40,Energy,"–ö–∏—Ä–ø–∏—á–Ω–∞—è —É–ª., 9, —ç—Ç–∞–∂ 1",54.71141000032,20.524019981047
41,Hipness club,"–ì–∞—Ä–∞–∂–Ω–∞—è —É–ª., 2–ê, –æ—Ñ–∏—Å 205 –ë, —ç—Ç–∞–∂ 2",54.724479985761,20.505349962276
42,–õ–∞–ª–∞—Ñ–∏—Ç,"—É–ª. –ì–µ–Ω–µ—Ä–∞–ª–∞ –ß–µ–ª–Ω–æ–∫–æ–≤–∞, 48",54.746059991767,20.482520004959
43,Evolution,"–ù–∞—Ä–≤—Å–∫–∞—è —É–ª., 54, –∫–æ—Ä–ø. 5, —ç—Ç–∞–∂ 3",54.731380010364,20.500500025461
44,Carrot Fitness,"—É–ª. –ì–æ—Ä—å–∫–æ–≥–æ, 98, —ç—Ç–∞–∂ 2",54.732760006903,20.511029958963
45,–≠—Ñ—Ñ–µ–∫—Ç –±–∞–±–æ—á–∫–∏,"–ú–æ—Å–∫–æ–≤—Å–∫–∏–π –ø—Ä–æ—Å–ø., 40, –∫–æ–º–Ω–∞—Ç–∞ 620, —ç—Ç–∞–∂ 6",54.709370012725,20.502689965303
46,–ì–∞—Ä–º–æ–Ω–∏—è,"—É–ª. –ü—Ä–æ—Ñ–µ—Å—Å–æ—Ä–∞ –ë–∞—Ä–∞–Ω–æ–≤–∞, 6, –†–∞–π–æ–Ω –õ–µ–Ω–∏–Ω–≥—Ä–∞–¥—Å–∫–∏–π, –ø–æ–º–µ—â–µ–Ω–∏–µ 311, —ç—Ç–∞–∂ 3",54.721450855887,20.511667429428
47,–¢–æ–Ω—É—Å,"–ù–∞—Ä–≤—Å–∫–∞—è —É–ª., 112, —ç—Ç–∞–∂ —Ü–æ–∫–æ–ª—å–Ω—ã–π",54.743200980355,20.499180091776
48,–Ø—Å—Ç—Ä–æ–π–Ω–∞–Ø,"–°–æ–≤–µ—Ç—Å–∫–∏–π –ø—Ä–æ—Å–ø., 81, –∫–æ—Ä–ø. 4, –æ—Ñ–∏—Å 15–ë, —ç—Ç–∞–∂ 2",54.734109996229,20.482729971634
49,Delta Fit,"–ò—Ä—Ç—ã—à—Å–∫–∏–π –ø–µ—Ä., 2, –†–æ—Å—Å–∏—è, –ö–∞–ª–∏–Ω–∏–Ω–≥—Ä–∞–¥, –õ–µ—Ç–Ω—è—è —É–ª–∏—Ü–∞, 63",54.672108812256,20.486986398172
50,Total Body,"—É–ª. –ö–∏—Ä–æ–≤–∞, 1, —ç—Ç–∞–∂ 3",54.724359998817,20.496990019687
51,–§–∏—Ç–Ω–µ—Å-—Å—Ç—É–¥–∏—è –Æ—Ä–∏—è –ú–∏—Ö–∞–π–ª–æ–≤–∞,"–ö—Ä–∞—Å–Ω–æ—Å–µ–ª—å—Å–∫–∞—è —É–ª., 82, –∫–æ—Ä–ø. 1, —ç—Ç–∞–∂ —Ü–æ–∫–æ–ª—å–Ω—ã–π",54.719129984602,20.447409972757
52,Ellementa,"–¢–µ–∞—Ç—Ä–∞–ª—å–Ω–∞—è —É–ª., 35, —ç—Ç–∞–∂ 3, –æ—Ñ–∏—Å 311",54.717749988063,20.497260000788
53,–¢–æ–Ω—É—Å,"—É–ª. 1812 –≥–æ–¥–∞, 126, —ç—Ç–∞–∂ 2",54.711149993684,20.536749996495
54,ZeusGYM,"—É–ª. –ß–µ–∫–∏—Å—Ç–æ–≤, 109",54.731979986994,20.467369966427
55,–§–∏—Ç–Ω–µ—Å —Å—Ç—É–¥–∏—è EMS —Ç—Ä–µ–Ω–∏—Ä–æ–≤–æ–∫,"–ú–∞–π—Å–∫–∞—è —É–ª., 4",54.675870018395,20.553499972706
56,Zal,"—É–ª. –ë–∞–≥—Ä–∞—Ç–∏–æ–Ω–∞, 49, —ç—Ç–∞–∂ 3",54.69892000067,20.509500010176
57,–û–∑–¥–æ—Ä–æ–≤–∏—Ç–µ–ª—å–Ω—ã–π —Ñ–∏—Ç–Ω–µ—Å,"—É–ª. –ì–æ—Ä—å–∫–æ–≥–æ, 176–ì, –∫–æ—Ä–ø. 2, —ç—Ç–∞–∂ —Ü–æ–∫–æ–ª—å–Ω—ã–π",54.751860017307,20.50110000209
58,Spotfitness,"–û–∫—Ç—è–±—Ä—å—Å–∫–∞—è —É–ª., 6, –°–ø–∞-—Å–∞–ª–æ–Ω –ê–º–±–µ—Ä –°–ü–ê, —ç—Ç–∞–∂ 2",54.70354,20.51586
59,–§–∏—Ç–Ω–µ—Å–∞—Ä–º–∏—è,"–°–æ–≤–µ—Ç—Å–∫–∏–π –ø—Ä–æ—Å–ø., 12, —ç—Ç–∞–∂ 7, –ø–æ–º–µ—â–µ–Ω–∏–µ 702",54.723459991963,20.499539962271
60,Vumlife,"—É–ª. –Æ—Ä–∏—è –ì–∞–≥–∞—Ä–∏–Ω–∞, 99, –æ—Ñ–∏—Å 5, —ç—Ç–∞–∂ 2",54.724939984607,20.549649996939
61,–ü–ª–∞–Ω–µ—Ç–∞ —Ñ–∏—Ç–Ω–µ—Å,"—É–ª. –ì–æ—Ä—å–∫–æ–≥–æ, 170–í, –í—Ö–æ–¥ —Å —Ç–æ—Ä—Ü–∞ üòé",54.750869988813,20.50313001522
62,–ö—Ä–æ—Å—Å—Ñ–∏—Ç –∫–ª—É–± Axon,"—É–ª. –ì–µ–Ω–µ—Ä–∞–ª–∞ –ß–µ–ª–Ω–æ–∫–æ–≤–∞, 1, —ç—Ç–∞–∂ 1",54.735910009935,20.496400017522
63,–°—Ç—Ä–µ–π—á —Ö–∞—É—Å,"–ø—Ä–æ—Å–ø. –ú–∏—Ä–∞, 136, —ç—Ç–∞–∂ 1",54.721619996578,20.451260032342
64,BodyWise,"—É–ª. –ì–µ–Ω–µ—Ä–∞–ª-–õ–µ–π—Ç–µ–Ω–∞–Ω—Ç–∞ –û–∑–µ—Ä–æ–≤–∞, 19, –∫–æ–º–Ω–∞—Ç–∞ 8, —ç—Ç–∞–∂ 5-–π",54.725290012884,20.502979979153
65,–ê–∫—Ç–∏–≤–õ–µ–¥–∏,"—É–ª. –§—Ä—É–Ω–∑–µ, 6–í, –∫–æ–º–Ω–∞—Ç–∞ 806, —ç—Ç–∞–∂ 8",54.711909980845,20.521529969071
66,Diamond,"—É–ª. –ö–∏—Ä–æ–≤–∞, 1, –∫–æ–º–Ω–∞—Ç–∞ 17, —ç—Ç–∞–∂ 4",54.724359998817,20.496990019687
67,Okfit,"–¢–∏—Ö–∞—è —É–ª., 1, —Ü–æ–∫–æ–ª—å —Å–æ —Å—Ç–æ—Ä–æ–Ω—ã —É–ª. –ö–∞–ª—è–∑–∏–Ω—Å–∫–æ–π, –æ—Ñ–∏—Å 19",54.727900011804,20.507650040326
68,–í–∞–º —Å—é–¥–∞!,"–¢–µ–∞—Ç—Ä–∞–ª—å–Ω–∞—è —É–ª., 35, —ç—Ç–∞–∂ 4, –æ—Ñ–∏—Å 418",54.717749988063,20.497260000788
69,–ì–∞—Ä–º–æ–Ω–∏—è,"—É–ª. –ì–æ—Ä—å–∫–æ–≥–æ, 168",54.750290003023,20.503729991849
70,33 –®–ø–∞–≥–∞—Ç–∞,"—É–ª. –ö–∞—Ä–ª–∞ –ú–∞—Ä–∫—Å–∞, 18, –æ—Ñ–∏—Å 425, —ç—Ç–∞–∂ 4",54.729219993916,20.480840020106
71,MamaDance,"—É–ª. –ë–µ–ª–∏–Ω—Å–∫–æ–≥–æ, 40, —ç—Ç–∞–∂ 2",54.716000014318,20.442249989343
72,–ú–∏—Ä–∏–¥–∞–Ω—Å,"–ö—Ä–∞—Å–Ω–∞—è —É–ª., 63–ê",54.730089993556,20.473049963113
73,BlagFit,"—É–ª. –Æ—Ä–∏—è –ì–∞–≥–∞—Ä–∏–Ω–∞, 1, —ç—Ç–∞–∂ 2",54.715260017996,20.536670033139
74,–§–∏—Ç–Ω–µ—Å —Å—Ç—É–¥–∏—è Alice,"—É–ª. –ì–æ—Ä—å–∫–æ–≥–æ, 170–í",54.750869988813,20.50313001522
75,–ú–æ—Ä–æ—à–∫–∞,"—É–ª. –Æ—Ä–∏—è –ì–∞–≥–∞—Ä–∏–Ω–∞, 99, –î–° –°–æ–∑–≤–µ–∑–¥–∏–µ",54.72494,20.54965
76,Fitness Academy,"—É–ª. –ì–æ—Ä—å–∫–æ–≥–æ, 83/1",54.73069998656,20.509609980746
77,Rage,"—É–ª. –ë–∞–≥—Ä–∞—Ç–∏–æ–Ω–∞, 49–í, —ç—Ç–∞–∂ 2",54.699014080829,20.509425608318
78,–ö—Ä–µ–π–∑–∏ –¥–∂–∞–º–ø–∏–Ω–≥,"–°–æ–≤–µ—Ç—Å–∫–∏–π –ø—Ä–æ—Å–ø., 230, —ç—Ç–∞–∂ 1",54.748380018747,20.459890039852
79,EMS-–§–∏—Ç–Ω–µ—Å,"—É–ª. –í–∏–∫—Ç–æ—Ä–∞ –ì–∞–∫—É–Ω–∞, 9",54.748480014852,20.530860033133
80,–ö–≤–∞–¥—Ä–∞—Ç,"–ë–∞—Ç–∞–ª—å–Ω–∞—è —É–ª., 18, —ç—Ç–∞–∂ 2",54.678179987091,20.495440038152
81,Sport DeLux,"—É–ª. –§—Ä—É–Ω–∑–µ, 28, —ç—Ç–∞–∂ 3, –æ—Ñ–∏—Å 23",54.712341591475,20.523994855899
82,Step Up,"—É–ª. –ö–∞—Ä–ª–∞ –ú–∞—Ä–∫—Å–∞, 6, —ç—Ç–∞–∂ 2",54.729189986703,20.485530030208
83,–ó—É–º–±–∞ –î–æ–º,"–Ø—Ä–æ—Å–ª–∞–≤—Å–∫–∞—è —É–ª., 2–í, —ç—Ç–∞–∂ –¶–æ–∫–æ–ª—å–Ω—ã–π",54.713230004866,20.524660023174
84,–ü–ª–∞–Ω–µ—Ç–∞ –§–∏—Ç–Ω–µ—Å,"—É–ª. –î–∑–µ—Ä–∂–∏–Ω—Å–∫–æ–≥–æ, 168–ï",54.670520017236,20.544869965196
85,–§–µ–Ω–∏–∫—Å,"—É–ª. –ö–∞—Ä–ª–∞ –ú–∞—Ä–∫—Å–∞, 6, –∫–æ–º–Ω–∞—Ç–∞ 34, —ç—Ç–∞–∂ 3",54.729189986703,20.485530030208
86,Projumping,"—É–ª. –°–µ—Ä–≥–µ–µ–≤–∞, 4, –æ—Ç–µ–ª—å Crystal House Suite HotelSPA, —ç—Ç–∞–∂ 1",54.715100007465,20.515740001814
87,–°—Ç—Ä–æ–π–Ω–æ—Ñ—Ñ,"–ö–ª–∏–Ω–∏—á–µ—Å–∫–∞—è —É–ª., 14–ê",54.713646573889,20.519617258528
88,–¶–µ–Ω—Ç—Ä –∂–µ–Ω—Å–∫–æ–≥–æ –∑–¥–æ—Ä–æ–≤—å—è –û–ª—å–≥–∏ –ï—Ä–æ—Ö–∏–Ω–æ–π,"—É–ª. –ú—É—Å–æ—Ä–≥—Å–∫–æ–≥–æ, 10, –∫–æ—Ä–ø. 16–ê, —ç—Ç–∞–∂ 4",54.726900008846,20.501959985356
89,Morion,"–ù–∞—Ä–≤—Å–∫–∞—è —É–ª., 54, –∫–æ—Ä–ø. 5, —ç—Ç–∞–∂ 3",54.731380010364,20.500500025461
90,–í–∏–Ω—Å,"—É–ª. –ì–µ–Ω–µ—Ä–∞–ª-–õ–µ–π—Ç–µ–Ω–∞–Ω—Ç–∞ –û–∑–µ—Ä–æ–≤–∞, 17–í, —ç—Ç–∞–∂ 2",54.725299987348,20.502600027482
91,Zotovcycling one,"–ê—Ä—Ç–∏–ª–ª–µ—Ä–∏–π—Å–∫–∞—è —É–ª., 22",54.732100015847,20.539899999527
92,–ì—Ä–∞–≤–∏—Ç–∞—Ü–∏—è,"–°–æ–≤–µ—Ç—Å–∫–∏–π –ø—Ä–æ—Å–ø., 105–ë",54.736769993201,20.480220010728
93,Step to,"—É–ª. –ì–æ—Ä—å–∫–æ–≥–æ, 83, —Å—Ç–∞–¥–∏–æ–Ω –¢—Ä—É–¥–æ–≤—ã—Ö –†–µ–∑–µ—Ä–≤–æ–≤",54.73049999435,20.507850032536
94,Pro Fitness,"–°—É–¥–æ—Å—Ç—Ä–æ–∏—Ç–µ–ª—å–Ω–∞—è —É–ª., 17–ì, —Ü–æ–∫–æ–ª—å",54.680919989329,20.49431996443
95,–£–º–Ω—ã–π —Ñ–∏—Ç–Ω–µ—Å,"–ü–æ–ª–æ—Ü–∫–∞—è —É–ª., 28, —ç—Ç–∞–∂ —Ü–æ–∫–æ–ª—å–Ω—ã–π",54.703649992451,20.500089982757
96,–ë–æ–¥–∏—Ñ–ª–µ–∫—Å,"–ø—Ä–æ—Å–ø. –ö–∞–ª–∏–Ω–∏–Ω–∞, 2, –∫–æ–º–Ω–∞—Ç–∞ 40, —ç—Ç–∞–∂ 2",54.694359993885,20.504800025609
97,–¢–µ—Ä—Ä–∏—Ç–æ—Ä–∏—è –ó—É–º–±–∞,"–ö–ª–∏–Ω–∏—á–µ—Å–∫–∞—è —É–ª., 77, —ç—Ç–∞–∂ 1",54.717344153505,20.521384277469
98,–¢—Ä–∞–Ω—Å—Ñ–æ—Ä–º–∞—Ü–∏—è,"—É–ª. –ö–∞—Ä–ª–∞ –ú–∞—Ä–∫—Å–∞, 18, –∫–æ–º–Ω–∞—Ç–∞ 424, —ç—Ç–∞–∂ 4",54.729219993916,20.480840020106
99,Lady Stretch,"–ö—Ä–∞—Å–Ω–∞—è —É–ª., 115, —ç—Ç–∞–∂ 3, –∫–æ–º–Ω–∞—Ç–∞ 307",54.735470001928,20.473079970327
100,–°—Ç—Ä–µ–π—á –•–∞—É—Å,"–ê—Ä—Ç–∏–ª–ª–µ—Ä–∏–π—Å–∫–∞—è —É–ª., 22",54.732100015847,20.539899999527
101,Jumping 39,"–ë–∞—Ç–∞–ª—å–Ω–∞—è —É–ª., 18",54.678179987091,20.495440038152
102,–ë–∞–ª–∞–Ω—Å,"–ø—Ä–æ—Å–ø. –ö–∞–ª–∏–Ω–∏–Ω–∞, 2, –∫–æ–º–Ω–∞—Ç–∞ 25, —ç—Ç–∞–∂ 1",54.694359993885,20.504800025609
103,–ú–∏—Ä–Ω—ã–π –≤–æ–∏–Ω,"—É–ª. –°–µ—Ä–∂–∞–Ω—Ç–∞ –ö–æ–ª–æ—Å–∫–æ–≤–∞, 2–ê",54.718929992392,20.48472997755
104,–¢–µ—Ä—Ä–∏—Ç–æ—Ä–∏—è –ó—É–º–±–∞,"—É–ª. –õ–∏—Ç–æ–≤—Å–∫–∏–π –í–∞–ª, 36",54.718209986909,20.530170034864
105,Jumping 39,"—É–ª. –ú–µ–Ω–¥–µ–ª–µ–µ–≤–∞, 61–ê, —ç—Ç–∞–∂ 2",54.72284999896,20.437880000303
106,–°–ø–∞-—Ü–µ–Ω—Ç—Ä,"—É–ª. –°–æ–≥–ª–∞—Å–∏—è, 39, –ó–∞–ª ¬´–ò–≥—Ä–∞¬ª",54.749309990904,20.48531000525
107,–°–ø–æ—Ä—Ç–∏–≤–Ω—ã–π –∑–∞–ª,"–Æ–±–∏–ª–µ–π–Ω–∞—è —É–ª., 10, –æ—Ñ–∏—Å 313, —ç—Ç–∞–∂ 3",54.718940008766,20.539809977887
108,–®–∫–æ–ª–∞ —Å–∞–º–±–æ –∏ –¥–∑—é–¥–æ,"—É–ª. –û–ª–µ–≥–∞ –ö–æ—à–µ–≤–æ–≥–æ, 34–ê",54.673330008366,20.508919982477
