,Name,address,latitude,longitude
0,Хмель,"площадь Победы, 10, этаж 2",54.719599999822,20.503890002381
1,Kavkaz,"площадь Победы, 1",54.719250013455,20.500440011034
2,Мушкино,"ул. Сергеева, 14",54.719660014249,20.518910037595
3,Моряна,"ул. Виктора Гюго, 1",54.708119633931,20.505508681121
4,Dolce Vita,"площадь Маршала Василевского, 2",54.719849990085,20.523610022163
5,Геркулес,"просп. Мира, 105, этаж 1",54.720730006099,20.455700010273
6,Ветви,"ул. Профессора Баранова, 1, Калининград, этаж 1",54.721635198699,20.512596672719
7,Мандарин,"Ленинский просп., 81, этаж 1",54.71219002023,20.509639987959
8,Sushi&more,"ул. Сергеева, 2Б",54.715006327692,20.514364689624
9,Matsu izakaya & Roku bar,"Житомирская ул., 22",54.710620005946,20.50661001378
10,Штайндамм 99,"Ленинский просп., 3",54.718450002707,20.502150003101
11,Zotler,"Октябрьская ул., 8, этаж 1",54.702200007021,20.515790041776
12,Да,"ул. Профессора Баранова, 30, Калининград, АНГЛИЙСКИЙ ПАБ ""БРИТАННИКА"", этаж 1",54.721619996578,20.509179989113
13,Британника,"Октябрьская ул., 2А, этаж 1, 2, 3",54.705090003416,20.514469975845
14,Мадам Буше,"Ленинский просп., 93",54.703899982713,20.506180022148
15,Асадо,"ул. Горького, 162",54.745139994074,20.502170035849
16,Чеснок,"просп. Мира, 19, Калининград",54.719450005665,20.487479996163
17,Угли,"ул. Виктора Гюго, 1, Калининград, этаж цокольный",55.91417,37.82556
18,Lastadie,"ул. Космонавта Леонова, 55, корп. 2",54.731070005675,20.480069974661
19,Соль,"Ленинский просп., 1",54.719200015403,20.500059975544
20,У Гашека,"Гостиная ул., 3, этаж цокольный",54.719100019298,20.488450033818
21,Пармезан,"Гвардейский просп., 3, Калининград",54.715892059867,20.49416874524
22,Шпрот,"ул. Литовский Вал, 27",54.712720007968,20.53714000645
23,Редюит,"ул. Карла Маркса, 18",54.729219993916,20.480840020106
24,Британника,"Советский просп., 8, Калининград",54.722810017282,20.496630016946
25,Stories,"ул. Литовский Вал, 2, Калининград, ТЦ Spar",54.719669057583,20.52859332773
26,Базилик,"Театральная ул., 30, Калининград, этаж 2",54.717749988063,20.498990025604
27,Брикас,"площадь Победы, 10, Калининград, ТЦ Кловер, этаж 1",54.719599999822,20.503890002381
28,Борщ и сало,"Театральная ул., 30, Калининград, этаж 1, 2",54.717749988063,20.498990025604
29,Сачмэли,"ул. Чайковского, 43, Калининград",54.725939987565,20.483100032659
30,Чайковский,"ул. Тельмана, 3, Калининград",54.728970003654,20.515990033986
31,"Эй, Джованни!","просп. Мира, 74, Калининград",54.720899991095,20.479869982451
32,Seasons,"ул. Шевченко, 11А, Калининград, Район Ленинградский",54.71170001417,20.511100031673
33,Тётка Фишер,"Гвардейский просп., 3, Калининград",54.715892059867,20.49416874524
34,Kaiser Wurst,"Озёрный пр., 2, Калининград",54.721500009634,20.516560003402
35,Torro Grill,"ул. Грекова, 3, Калининград, район Центральный, этаж 1, помещение 1",54.720289998092,20.491210026895
36,Trip,"Ленинский просп., 11, Калининград, этаж цокольный",54.717220000325,20.502890041332
37,Либерти,"Октябрьская ул., 6А, Калининград, этаж 1",54.702970010556,20.515609998496
38,Хофбург,"ул. Пушкина, 15, Калининград",54.716899979262,20.473629990813
39,Villa Toscana,"ул. Карла Маркса, 18, Калининград, Траттория ""Пармезан""",54.72922,20.48084
40,Пармезан,"площадь Победы, 4, Калининград, этаж 1",54.720830002204,20.499880016083
41,Патиссон Markt,"просп. Мира, 41-43, Калининград, Кинотеатр Заря",54.72061999362,20.483140014337
42,Copper,"Московский просп., 40, Калининград, этаж цокольный",54.709370012725,20.502689965303
43,Чинар,"Октябрьская ул., 2, Калининград, этаж 1",54.705229981199,20.514420019702
44,Феррум,"ул. Сергеева, 4, Калининград, отель Crystal House Suite HotelSPA, этаж 1",54.715100007465,20.515740001814
45,Hoffmann,"ул. Юрия Маточкина, 2А, Ленинградский район, микрорайон Сельма, Калининград",54.740950006405,20.488560004387
46,Пеперончино,"ул. Чекистов, 14, Калининград",54.732109990312,20.480989972353
47,Наутилус,"Октябрьская ул., 4А, Калининград, этаж 1",54.704740017049,20.515050003545
48,Рыбный клуб,"ул. Елены Ковальчук, 3, Калининград, этаж 1",54.720090005882,20.473810034093
49,Пеперончино,"ул. Профессора Баранова, 2Б, Калининград, этаж 3",54.721930001267,20.512459995464
50,Балкон,"ул. Карла Маркса, 18",54.729219993916,20.480840020106
51,Эль Греко,"просп. Мира, 26",54.722040013746,20.486290017369
52,Патиссон Markt,"ул. Космонавта Леонова, 55, корп. 2",54.731070005675,20.480069974661
53,Тресковия,"ул. Александра Невского, 10, Развлекательный комплекс Резиденция Королей, этаж 2",54.72314,20.52855
54,Резиденция королей,"Эпроновская ул., 13",54.700870008534,20.512910019845
55,Пират Хауз,"просп. Мира, 33",54.720350012519,20.484580025303
56,Паб Лондон,"ул. Горького, 160А, АНГЛИЙСКИЙ ПАБ ""БРИТАННИКА""",54.74201,20.50401
57,Британника,"Театральная ул., 30, этаж 2",54.717749988063,20.498990025604
58,Табаско Европа,"просп. Мира, 19",54.719450005665,20.487479996163
59,Old brick,"ул. Горького, 120, подъезд 1",54.7372799901,20.507490029795
60,Zotler,"Советский просп., 28",54.725069987925,20.497439960249
61,China Town,"площадь Маршала Василевского, 3",54.721749999897,20.524019981047
62,Солнечный камень,"ул. Грига, 26",54.712529990223,20.530979978168
63,Асадо,"просп. Мира, 31",54.71974999398,20.48481999919
64,Skazka,"Театральная ул., 23",54.71702998258,20.499610034982
65,Бранч & Боул,"площадь Победы, 10, этаж 1",54.719599999822,20.503890002381
66,Fat Cat,"площадь Победы, 10, ТРЦ Кловер",54.719599999822,20.503890002381
67,Строганина,"Ленинский просп., 20, этаж цокольный",54.713499985968,20.505880033833
68,Папаша Беппе,"ул. Александра Невского, 53",54.731740013106,20.530760037029
69,Галерея,"Октябрьская ул., 12, Калининград",54.700929981051,20.516609959545
70,Пармезан,"Озёрная ул., 1А, Калининград",54.735839979134,20.508889975263
71,Мамин сибиряк,"ул. Профессора Баранова, 30, этаж 1",54.721619996578,20.509179989113
72,Дом техники,"Правая наб., 9, корп. 2",54.706409985529,20.472180005383
73,Bravo Italia,"Озёрный пр., 2, этаж 1",54.721500009634,20.516560003402
74,Si. m. patio,"Советский просп., 8, этаж 2",54.722549487048,20.499263322136
75,Про печь,"Октябрьская ул., 12",54.700929981051,20.516609959545
76,Качели,"ул. Багратиона, 99, этаж 1",54.69852001625,20.502319988097
77,Папаша Беппе,"Пролетарская ул., 84, этаж 1",54.719610016197,20.514199994744
78,Другое место,"площадь Калинина, 1Б, этаж 2",54.696680020865,20.497659985208
79,Встреча,"просп. Мира, 13, Калининград",54.719090002924,20.49034995981
80,Napoli,"ул. Горького, 154А",54.741410005252,20.50458000065
81,Табаско,"ул. Александра Невского, 137Б",54.741820006045,20.531759998077
82,Пивовар,"ул. Генерал-Лейтенанта Озерова, 17, корп. 1",54.725709988142,20.50254998752
83,Mr. Begemot,"Ленинский просп., 81",54.71219002023,20.509639987959
84,Поварёшка,"ул. Александра Невского, 10, этаж 1",54.723099989222,20.528359962873
85,Брецель,"ул. Горького, 150А",54.740210010084,20.505509972808
86,Музей мундира,"площадь Победы, 10, этаж 1",54.719599999822,20.503890002381
87,Brasserie de Verres EN Vers,"Театральная ул., 30, этаж 3",54.717749988063,20.498990025604
88,Папаша Беппе,"ул. Профессора Баранова, 2Б, этаж 3",54.721930001267,20.512459995464
89,Tangiers Lounge,"Гвардейский просп., 3, этаж 3",54.715892059867,20.49416874524
90,Кукси Moon,"Типографская ул., 9",54.685380000009,20.528589962296
91,Арарат,"Театральная ул., 30, этаж 1",54.717749988063,20.498990025604
92,Greco Grill,"ул. Канта, 1А",54.706027517721,20.512034050332
93,Кухня Де Прусс,"ул. Карла Маркса, 18, Калининград",54.729219993916,20.480840020106
94,Фиш диллерс,"Верхнеозёрная ул., 26",54.732469993053,20.526869995765
95,Гламур,"Октябрьская ул., 12",54.700929981051,20.516609959545
96,Kirin,"Ленинский просп., 30, этаж 3",54.71121000811,20.508229984207
97,Italian Bistro,"ул. Генерала Челнокова, 18Б, этаж 2",54.737689990894,20.489990040888
98,Папаша Беппе,"Московский просп., 40, павильон 112, этаж 1",54.709370012725,20.502689965303
99,Авеню,"площадь Победы, 10, 2",54.719599999822,20.503890002381
100,Табаско,"ул. Генерала Буткова, 19",54.709170020516,20.495670037575
101,Бухта,"ул. Космонавта Леонова, 66А, этаж цокольный",54.734140003442,20.481620040015
102,Папаша Беппе,"Октябрьская ул., 12, Калининград",54.700929981051,20.516609959545
103,Джентлмены,"ул. Чайковского, 10А, этаж 1",54.724030003289,20.495150024302
104,Моррисон,"площадь Победы, 10, этаж 1",54.719599999822,20.503890002381
105,Циндао,"ул. Сергеева, 2",54.714679990297,20.514439968632
106,Ribs,"Московский просп., 52, этаж 1",54.709099989715,20.506859962133
107,Ibis kitchen,"Ленинский просп., 42Б",54.702139992594,20.503720017385
108,Атлантика,"ул. Чайковского, 10А",54.724030003289,20.495150024302
109,Квартирник,"ул. Сергеева, 4, отеля Crystal House Suite HotelSPA, этаж 2",54.715100007465,20.515740001814
110,Терраса The View,"просп. Мира, 13",54.719090002924,20.49034995981
111,Остановка театр,"Ленинский просп., 18, этаж 1",54.713740001765,20.505400002238
112,Дело в Рыбе,"ул. Черняховского, 6А, Port-o-Coffee",54.71917,20.50344
113,Port-o-Coffee,"ул. Черняховского, 7",54.72012998756,20.507230023158
114,Фламинго,"просп. Мира, 31, этаж 4",54.71974999398,20.48481999919
115,Double U,"ул. Черняховского, 26, этаж цокольный",54.719560018144,20.507349968193
116,Дикий ДЮК,"Советский просп., 16",54.723989979701,20.498830015072
117,Ужин в темноте,"ул. Генерала Челнокова, 39/1",54.745380009872,20.481349975095
118,Территория Мяса,"ул. Профессора Баранова, 1, этаж 1",54.721635198699,20.512596672719
119,Кунжут,"Гвардейский просп., 3, этаж 3",54.715892059867,20.49416874524
120,Kaiser Wurst,"Киевская ул., 17Б, этаж цокольный",54.689560013213,20.497810021275
121,Берлин,"ул. Сержанта Колоскова, 1Б",54.719530010931,20.48570998967
122,Дядя Бен,"Ленинский просп., 16, этаж 3",54.714080013667,20.504740011182
123,Фишбон,"ул. Фрунзе, 6В, ТОЦ Ванда",54.711909980845,20.521529969071
124,Караоке-клуб Эйфория,"Ленинский просп., 1",54.719200015403,20.500059975544
125,Ростерхит,"ул. Маршала Жукова, 4",54.750237174153,20.491762765518
126,Точка Вкуса,"ул. Черняховского, 15, лит.Б",54.721700001844,20.513440007583
127,Soul Garden,"Солнечный бул., 1",54.704580006518,20.517649986091
128,Ресторан,"просп. Мира, 56А",54.721220012159,20.482929963843
129,Tastylab,"ул. Аллея Смелых, 8",54.692129988546,20.523169972246
130,Янтарь,"ул. Карла Маркса, 18, Port-o-coffee",54.729219993916,20.480840020106
131,Лепим и Варим,"ул. Горького, 55А",54.728019998748,20.509160040184
132,Хоровац,"ул. Профессора Баранова, 34, этаж 2",54.721149981358,20.506389988822
133,Port-o-coffee,"ул. Грига, 26",54.712529990223,20.530979978168
134,Шёпот,"Октябрьская ул., 2А, Калининград, этаж 6",54.705090003416,20.514469975845
135,Тунец,"ул. Литовский Вал, 36",54.718209986909,20.530170034864
136,Steak & Wine,"ул. Генерала Челнокова, 21",54.739491653146,20.485866119023
137,Свидание на Маяке,"ул. Маршала Борзова, 48А",54.736570000991,20.474050007981
138,The Weekend,"Октябрьская ул., 4А",54.704740017049,20.515050003545
139,Ресторанный дворик,"ул. Дзержинского, 17А, Калининград",54.697570011345,20.519810002539
140,Мархамат,"пер. Чернышевского, 2",54.726650018583,20.468219975228
141,Рыбный клуб,"ул. Согласия, 1В",54.739969994286,20.494309989966
142,Нора,"Озёрная ул., 1А",54.735839979134,20.508889975263
143,Пиросмани,"Театральная ул., 30",54.717749988063,20.498990025604
144,Ростерхит,"ул. Горького, 152",54.740820003087,20.505290031668
145,Ростерхит,"Ленинский просп., 28",54.712060016911,20.507539985938
146,Gelateria Italiana,"Юбилейная ул., 18",54.718463529374,20.537880136995
147,Ростерхит,"ул. Профессора Баранова, 1",54.721635198699,20.512596672719
148,Ростерхит,"ул. Дмитрия Донского, 1",54.717760004437,20.493919980011
149,Тридевятое королевство,"ул. Профессора Баранова, 1, этаж 1",54.721635198699,20.512596672719
150,Пышка,"ул. Профессора Баранова, 1, этаж 1",54.721635198699,20.512596672719
151,Рыба зовёт!,"ул. Согласия, 44",54.749840020551,20.488250041608
152,Сквер,"наб. Генерала Карбышева, 14",54.705170008682,20.52096997412
153,Sweet & Salty,"ул. Черняховского, 4А",54.718769981861,20.502660041909
154,Зеленка,"ул. Черняховского, 15, лит.Б, Калининград",54.721700001844,20.513440007583
155,Ростерхит,"ул. Александра Невского, 137Б",54.741820006045,20.531759998077
156,Ростерхит,"ул. Профессора Баранова, 1, подъезд 2, этаж 1",54.721635198699,20.512596672719
157,Ростерхит,"просп. Мира, 58",54.721079992466,20.482740029917
158,Шаверма,"ул. Новый Вал, 31А",54.699649980618,20.509860012918
159,Перекусъ,"ул. Генерала Челнокова, 39Б",54.744621720371,20.482513668527
160,Ростерхит,"ул. Александра Невского, 28",54.72672998194,20.528010018416
161,Блин да Кофе,"Красная ул., 139А",54.73844000359,20.471250033226
162,Суши Мастер,"ул. Петра Панина, 2А, корп. 1, Ленинградский район, микрорайон Сельма",54.746374611273,20.495284654887
163,Ростерхит,"Калязинская ул., 1А",54.725540003146,20.506150014934
164,Mattiburger,"ул. Александра Невского, 10",54.723099989222,20.528359962873
165,Пекарня Konigsbacker,"ул. Генерала Челнокова, 11",54.738030002796,20.486049959662
166,Black White,"ул. Александра Невского, 53",54.731740013106,20.530760037029
167,Ростерхит,"ул. Горького, 160, Траттория ""Пармезан""",54.742009981881,20.504010031234
168,Буфет,"Театральная ул., 30, этаж 2",54.717749988063,20.498990025604
169,Бонапарт,"Юбилейная ул., 18, этаж 2",54.718463529374,20.537880136995
170,Кинобар Киносфера,"ул. Юрия Маточкина, 2А, Ленинградский район, микрорайон Сельма, КАФЕ ПИЦЦЕРИЯ ""ПЕПЕРОНЧИНО""",54.740950006405,20.488560004387
