,Name,address,latitude,longitude
0,"Radisson Blu Hotel, Kaliningrad","площадь Победы, 10",54.719599999822,20.503890002381
1,Европа,"Театральная ул., 30, Калининград",54.717749988063,20.498990025604
2,Гостиница Калининград,"Ленинский просп., 81",54.71219002023,20.509639987959
3,Чайковский,"ул. Чайковского, 43",54.725939987565,20.483100032659
4,Вилла Тоскана,"ул. Пушкина, 15",54.716899979262,20.473629990813
5,Китай-город,"Московский просп., 175",54.710700011212,20.547480006026
6,Мартон Пелас,"Большевистский пер., 3",54.696850005862,20.50497998507
7,Тихая Гавань,"Малоярославская ул., 18А",54.720179985613,20.548839969816
8,Апартаменты Европа Парк,"ул. Александра Невского, 218А",54.758062906792,20.544049868112
9,Турист,"ул. Генерал-Лейтенанта Озерова, 40",54.72555001952,20.513240015373
10,Ibis,"Московский просп., 52",54.709099989715,20.506859962133
11,Holiday Inn Kaliningrad,"ул. Виктора Гюго, 1",54.708119633931,20.505508681121
12,Кайзерхоф,"Октябрьская ул., 6А",54.702970010556,20.515609998496
13,Mercure,"Озёрный пр., 2",54.721500009634,20.516560003402
14,Гостиница Москва,"просп. Мира, 21",54.719489987343,20.486989990104
15,Берлин,"Киевская ул., 17Б",54.689560013213,20.497810021275
16,Турист,"ул. Александра Невского, 53",54.731740013106,20.530760037029
17,Витязь,"наб. Петра Великого, 1",54.706630010487,20.500570014352
18,Маяк,"Солдатская ул., 2",54.738140015275,20.481030037851
19,Шкиперская,"Октябрьская ул., 4А, Калининград",54.704740017049,20.515050003545
20,Параисо,"ул. Тургенева, 32А, Калининград",54.736479979351,20.522249974554
21,Чайка,"Зоологический тупик, 10, Калининград",54.723880009131,20.489949975391
22,Черепаха,"ул. Подполковника Иванникова, 8, Район Ленинградский",54.717890007756,20.506329974395
23,Орион,"ул. Коперника, 2",54.710500019002,20.506310025466
24,Коперник,"ул. Сергеева, 4",54.715100007465,20.515740001814
25,Crystal House Suite Hotel&SPA,"Октябрьская ул., 2",54.705229981199,20.514420019702
26,У Медового моста,"Верхнеозёрная ул., 11",54.730319992979,20.519640017543
27,Обертайх,"ул. Богдана Хмельницкого, 53, этаж 1",54.697349986386,20.508499965308
28,Риверсайд,"площадь Маршала Василевского, 2",54.719849990085,20.523610022163
29,Золотая бухта,"ул. Карла Маркса, 10, этаж 2",54.728820009496,20.483539998756
30,Дона,"Стрелецкая ул., 7, Калининград",54.718250010497,20.544769969091
31,Бриз,"ул. Чкалова, 31А",54.726579987782,20.459099961659
32,Стрелецкий,"Монетная ул., 3, Калининград",54.750359991915,20.497610029065
33,Фридрихсхофф,"ул. Генделя, 10",54.722120019012,20.496419966452
34,Shtenvald,"ул. Верещагина, 5",54.738703518324,20.507229745805
35,Quokka,"Коломенская ул., 27",54.713210014027,20.472410004806
36,Vanva Apartments,"ул. Каштановая Аллея, 1В",54.752321407369,20.450535725999
37,Smile,"ул. Гоголя, 17",54.732020010581,20.52260000283
38,На Каштановой,"ул. Генерал-Лейтенанта Озерова, 24А",54.724520009348,20.508020017533
39,Обертайх Люкс,"Верхнеозёрная ул., 26",54.732469993053,20.526869995765
40,Шерлок,"Советский просп., 230, этаж 4",54.748380018747,20.459890039852
41,Гламур,"ул. 1812 года, 126, подъезд 1",54.711149993684,20.536749996495
42,Maziiz,"ул. Тенистая Аллея, 21А, Калининград",55.91417,37.82556
43,Crown39,"Северная ул., 12",54.670180005333,20.557829980067
44,Салвэ,"Советский просп., 285, Калининград",54.760829994809,20.440619960632
45,Константа,"просп. Победы, 189Б, Калининград",54.70919998582,20.434349961781
46,Навигатор,"ул. Павлова, 21, Ленинградский район, микрорайон Северная Гора",54.724216964332,20.587523563741
47,Friday Center,"Римская ул., 33, корп. 2",54.723750005813,20.538310036314
48,Клавдия,"ул. Чайковского, 17, подъезд 1",54.723750005813,20.494739981599
49,Longin,"Комсомольская ул., 17",54.723179994488,20.478459978699
50,Ганза,"ул. Тургенева, 12",54.733439988798,20.517359972241
51,Sofa - boutique apartment's,"Коммунистическая ул., 4А, этаж 2",54.680079996903,20.48278998606
52,Вилла Татьяна,"Артиллерийская ул., 62лит1",54.732890010221,20.554200029259
53,Пруссия,"ул. Виктора Гюго, 1, этаж 8",54.709422728373,20.506148150136
54,Академическая,"ул. Демьяна Бедного, 2Б",54.743100006479,20.513589959831
55,Ластадие,"Колхозная ул., 6",54.744979983543,20.527550019569
56,Votre Maison,"Озёрная ул., 25А",54.739411375628,20.349990223028
57,Котбус,"ул. Достоевского, 22А",54.73804001917,20.530970003703
58,Патриот,"Советский просп., 63",54.731840009211,20.487270029489
59,Робинзон,"ул. Лескова, 36А",54.737090014264,20.528319981195
60,Старый Дворик,"Физкультурная ул., 5",54.711670006957,20.543870004147
61,Вилла Надежда,"Ялтинская ул., 61А",54.705844446999,20.549474662365
62,Алина,"Линейная ул., 11А",54.726349988359,20.523910010477
63,Золотая ночь,"Арсенальная ул., 3",54.745159984913,20.543779982507
64,Вилла Татьяна,"ул. Пугачёва, 13",54.723240008915,20.472530033659
65,Апартаменты на Арсенальной,"ул. Белинского, 3",54.717109987846,20.452670036095
66,Чайка,"ул. Тенистая Аллея, 71",54.725146554907,20.409967566982
67,Ратсхоф,"Уральская ул., 20, этаж 1",54.723939981649,20.501690004255
68,Villa Art Deco Анна,"Верхнеозёрная ул., 16А",54.730310018514,20.522030033414
69,Отель в центре города на Уральской,"ул. Аллея Смелых, 187",54.668401579107,20.517536333327
70,Вилла Татьяна,"Ленинский просп., 81",54.71219002023,20.509639987959
71,Парк Отель,"ул. Щорса, 16А",54.730679995721,20.473339976963
72,Калининград,"ул. 9 Апреля, 88А",54.719140000976,20.525719998649
73,Бэсэдэр,"Московский просп., 175",54.710700011212,20.547480006026
74,Асгард,"Красная ул., 136",54.735240002505,20.474250000191
75,Marton Olimpic,"Луговая ул., 9",54.716280011794,20.569029962909
76,Гладиатор,"Физкультурная ул., 22, подъезд 1",54.712959981855,20.544450031847
77,Статус,"ул. Аллея Смелых, 145, этаж 2",54.672299998194,20.521269962434
78,Сударь,"Железнодорожная ул., 15",54.694559986095,20.498570008436
79,Калина,"ул. Сергея Тюленина, 8",54.710310001257,20.5205699897
80,Smart Hotel Kdo Калининград,"Арсенальная ул., 9",54.745779994291,20.544850016267
81,Azimut Inn,"ул. Генерал-Фельдмаршала Румянцева, 3, корп. 1",54.713139983226,20.486840037856
82,Комфорт,"ул. Сурикова, 17А",54.737099988729,20.554749965926
83,Феникс,"Красносельская ул., 60",54.717430008909,20.443550022525
84,Вилла Татьяна,"Московский просп., 184",54.709019984449,20.550739979628
85,Островок,"Таганрогская ул., 13",54.752689993359,20.548720024782
86,КенигАвто,"ул. Ивана Сусанина, 46",54.754279998482,20.491289990252
87,Анатолия,"ул. Тельмана, 14Б",54.732120006686,20.520439986382
88,Эрмитаж,"ул. 9 Апреля, 88А",54.719140000976,20.525719998649
89,Ника,"ул. Памяти Павших в Афганистане, 24",54.731895024973,20.4955968357
90,Гросс Хаус,"ул. Горького, 164",54.746020010089,20.501840040321
91,Crown39 - Strela,"ул. 9 Апреля, 88А",54.719140000976,20.525719998649
92,Apart39,"ул. Сержанта Мишина, 56В",54.721839979627,20.433400040694
93,Apartments Parkgarten,"ул. Радистов, 52А",54.719960002564,20.440019984003
94,Максим,"Портовая ул., 55",54.698280000453,20.476749986632
95,У Каштана,"ул. Радистов, 52",54.720109996721,20.439540036227
96,Порт 55,"Транспортная ул., 6",54.693470003406,20.447330009401
97,Душевное пространство,"ул. Тельмана, 5",54.731339986777,20.517530041056
98,Янтарь,"ул. Достоевского, 19",54.737489998684,20.530229965472
99,Верхнее Озеро,"ул. Профессора Севастьянова, 8",54.714840000828,20.509170014648
100,Пушкин Холл,"Совхозная ул., 4, посёлок Шоссейное",54.738231866809,20.563280213273
101,Wanderlust Inn,"Приозёрная ул., 9Б, посёлок Дорожное",54.643237437399,20.513912321056
102,Зеркальный карп,"4-я Большая Окружная ул., 35",54.748908167713,20.559637143779
103,Галкин Двор,"ул. 9 Апреля, 86А",54.713054200888,20.522501688184
104,Центр отдыха Баньки,"Земельная ул., 8-8А",54.731679998679,20.512650013209
105,Поделам,"ул. Партизана Железняка, 1",54.728460006755,20.538910012943
106,Апарт-отель Калининград,"Мариупольская ул., 16",54.707940018134,20.499280039454
107,Светлана,"ул. Генерала Буткова, 20",54.708290808202,20.49459631033
108,Гросс Хаус,"Октябрьская ул., 37",54.701859995118,20.517349997776
109,Апарт-отель Калининград,"ул. Генерала Галицкого, 6",54.716260020955,20.499020032817
110,Апартаменты на Октябрьской и Верхнем озере,"ул. Д. Бедного, 2Б",54.70907,20.50928
111,Апартаменты Калининград,"ул. Гайдара, 116",54.742740003738,20.500770006562
112,Без звёзд,"ул. Генерала Челнокова, 38",54.742399991836,20.487150000635
113,Crown39 - Gaidara,"ул. Горького, 96, 7",54.732089999473,20.512220021576
114,Мини-отель Vorderhof Rest,"Шахматная ул., 2",54.733990009285,20.554119982083
115,Elegant,"Университетская ул., 11",54.76962001285,20.514000002534
116,Апартаменты на Шахматной,"ул. Олега Кошевого, 34",54.673317769841,20.511581681515
117,Весна 1,"Тупиковая ул., 14",54.750969984918,20.443899966983
118,Гостиница Университетская 11,"ул. 9 Апреля, 62, этаж 5",54.716430005951,20.525840027503
119,Янтарь,"ул. Космонавта Леонова, 55к2",54.725459176793,20.481796725908
120,Уют,"Старопрегольская наб., 14",54.704450003199,20.511240009457
121,Апартаменты на 9 Апреля,"Ленинский просп., 67",54.713089985174,20.507779959826
122,Апартаменты Leon,"Первомайская ул., 5",54.733543868148,20.511127114831
123,Апартаменты на Старо-Прегольской Набережной 14,"Транспортный тупик, 2Г",54.694739987466,20.448580002621
124,Апартаменты Калининград,"Гостиная ул., 22",54.716790008692,20.487789958943
125,KenigDeluxe,"ул. Терешковой, 10, Калининград, СНТ Колосок",54.719437541631,20.594817294323
126,Янтарь,"ул. Александра Невского, 59",54.733059995218,20.531239984804
127,Апартаменты на Гостиной,"Ереванская ул., 57, СНТ Ветерок-2",54.747204050034,20.454497217702
128,Визит,"Пролетарская ул., 13",54.712640002702,20.5127200021
129,Апартаменты Imperial,"Красная ул., 139А",54.73844000359,20.471250033226
130,Ветерок,"Эпроновская ул., 33",54.703510014668,20.512410039321
131,Апартаменты в центре города Калининград,"ул. Генерала Галицкого, 24",54.711784590558,20.494317668585
132,Апартаменты Classic Red,"ул. Генерал-Лейтенанта Озерова, 16А",54.725099995139,20.50080998824
133,Апартаменты у Кафедрального Собора,"Ленинский просп., 22",54.713360008185,20.506039960546
134,Апартаменты Astro,"Ленинский просп., 82",54.699520019209,20.502730030801
135,Апартаменты Просторные в центре Калининграда,"Ленинский просп., 71",54.712540006597,20.508610019697
136,"Апартаменты центр Города, три комнаты","Московский просп., 76",54.708439998659,20.524660023174
137,Сутки39.рф,"Клиническая ул., 19А",54.712278840994,20.518124953515
138,Апартаменты у Южного жд вокзала,"ул. Генерала Галицкого, 24",54.711784590558,20.494317668585
139,Апартаменты 2х комнатные в центре на Ленинском проспекте 71 Kenig Holidays,"Орудийная ул., 32Б",54.732070008634,20.561309978627
140,Квартира с видом на Кафедральный собор,"ул. Дмитрия Донского, 20",54.715549989937,20.481270011739
141,Апартаменты Bellevue,"Нарвская ул., 83",54.738099991688,20.496089970924
142,Апартаменты двухкомнатные в центре Калининграда,"Ленинский просп., 56",54.701219994901,20.503680035706
143,Neuhof Rest,"Казанская ул., 28",54.69998999252,20.509010004117
144,Апартаменты Luisenwahl Apartments,"ул. Радистов, 12",54.715560006311,20.438930001314
145,Апартаменты на Нарвской,"Московский просп., 175",54.710700011212,20.547480006026
146,Kenig Holidays,"Лесопильная ул., 64",54.707509984592,20.533049972976
147,Апартаменты на Казанской,"ул. Генерала Буткова, 6",54.709240009407,20.492490027329
148,Апартаменты Квартира на Радистов,"Ленинский просп., 25",54.716169999315,20.503460010748
149,Olympic Kaliningrad,"ул. Литовский Вал, 41",54.711529987264,20.537500009191
150,Апартаменты на Лесопильной,"ул. Ватутина, 30",54.717000017276,20.446440018921
151,Апартаменты у Музея Мирового Океана,"ул. Радищева, 89",54.712160013016,20.456130001906
152,Апартаменты King в центре Города,"Нарвская ул., 28",54.729540014979,20.496920030795
153,Апартаменты у Королевских Ворот,"ул. Маршала Баграмяна, 4",54.706979996854,20.501829982038
154,Апартаменты Райский Уголок,"Суздальская ул., 11Б",54.714981945903,20.555960967767
155,LovelyHome 39 на улице Радищева,"ул. Фрунзе, 103",54.713540009555,20.532440021882
156,Трехкомнатные апартаменты в Историческом центре Калининграда,"ул. Черняховского, 70",54.719970018938,20.515410006286
157,Апартаменты С Видом на Набережную у Музея Мирового Океана,"Клинской пер., 2",54.676469995024,20.523220012208
158,Апартаменты Жильё Apartment 39 Kaliningrad,"ул. Салтыкова-Щедрина, 1",54.711770003062,20.505760004979
159,Апартаменты Трехкомнатные Апартаменты в центре,"Комсомольская ул., 17",54.723179994488,20.478459978699
160,Апартаменты в сердце Калининграда,"ул. Литовский Вал, 105",54.706869984375,20.53800996418
161,Дом для отпуска,"Красноярская ул., 4",54.708060005078,20.502380002524
162,Апартаменты Kopernik,"Ленинский просп., 26",54.713130008761,20.506240036574
163,Гостевой Дом Art House Tolstoy,"ул. Сергеева, 19",54.716460013164,20.515470020713
164,Комфорт,"Малый пер., 3",54.702649989493,20.510629974543
165,Апартаменты Квартира в Живописном центре Города,"Ленинградская ул., 5",54.730829989878,20.520349964742
166,Апартаменты на Ленинском Проспекте 26,"Житомирская ул., 2",54.712690000754,20.506410021571
167,Апартаменты Сергеева 19,"Тихорецкая ул., 22",54.684269984571,20.481639988945
168,Апартаменты Однокомнатные в Рыбной деревне Букинг 39,"Барнаульская ул., 3",54.714399992821,20.50362002128
169,Апартаменты Ленинградская 5-2,"ул. Подполковника Иванникова, 12",54.718799989074,20.505790012193
170,Апартаменты Lux Plaza,"Херсонская ул., 2, Центральный район, посёлок Лермонтовский, Калининград",54.698640003194,20.50556001277
171,Апартаменты на Тихорецкой Калининград,"Житомирская ул., 14",54.711329995054,20.506529966605
172,"Апартаменты Люкс, в центре, Барнаульская 3, Колибри 3","Советский просп., 43",54.729460009713,20.490209982027
173,Апартаменты на Иванникова,"ул. Черняховского, 24",54.719009997658,20.506979990987
174,Kenig Hotel,"Ленинский просп., 31",54.715540015472,20.504189990696
175,Апартаменты Двухкомнатные в центре Калининграда,"ул. Юрия Гагарина, 7",54.716039995996,20.537130031985
176,Апартаменты в самом центре Калининграда,"ул. Генерала Павлова, 22",54.702729994758,20.521110035722
177,Апартаменты на Черняховского,"ул. Рокоссовского, 22",54.719300011508,20.509010004117
178,Morskaya Kvartira V Tsentre Kaliningrada,"Октябрьская ул., 57",54.700200001104,20.520040001962
179,Апартаменты Уютные в центре Калининграда,"ул. Багратиона, 130",54.698659994033,20.499239973956
180,Апартаменты на улица Генерала Павлова 22,"Серпуховская ул., 35А",54.69979000031,20.501199998195
181,Апартаменты Уютная минидвушка в самом сердце Калининграда,"Ярославская ул., 9",54.713089985174,20.524140009901
182,Апартаменты Pavlov,"Серпуховская ул., 11",54.70251001171,20.50274997973
183,Апартаменты у южного вокзала,"ул. Багратиона, 144А",54.698859986243,20.497080041327
184,Апартаменты Южный вокзал,"ул. 1812 года, 29",54.710290010418,20.525650009758
185,У набережной,"ул. Юрия Гагарина, 2А",54.71403999008,20.537530016404
186,Апартаменты рядом с Островом Канта,"ул. Литовский Вал, 33",54.712110014964,20.537189962593
187,Апартаменты на улице Багратиона,"ул. Генерала Галицкого, 11",54.715269992461,20.49886999675
188,Апартаменты Design Bauhaus,"просп. Мира, 84",54.720650000833,20.475769974513
189,Апартаменты у Королевских Ворот,"ул. Маршала Баграмяна, 36",54.706937664334,20.490867124318
190,LovelyHome 39 на улице Литовский Вал,"ул. Черняховского, 60",54.719920020886,20.514390012489
191,Апартаменты Zentrum,"Майский пер., 2",54.728540012021,20.532529959703
192,Апартаменты Луизенпарк,"ул. Нансена, 66",54.694308126343,20.476207086542
193,Апартаменты Wonder Loft,"ул. Юрия Гагарина, 1",54.715260017996,20.536670033139
194,Двухкомнатная квартира рядом с Верхним Озером,"Совхозная ул., 9Б, посёлок Шоссейное",54.738537838817,20.5609932716
195,Поделам в Калининград на переулке Майский,"Ленинский просп., 62",54.700970004639,20.503000011902
196,LovelyHome 39 на улице Нансена,"Советский просп., 27",54.727829981003,20.492939967892
197,Апартаменты у Резиденции Королей,"ул. Черняховского, 16",54.719450005665,20.506140040469
198,Grand Tour,"Московский просп., 36",54.709570004935,20.501620015363
199,Апартаменты в центре Калининграда,"Московский просп., 76",54.708439998659,20.524660023174
200,Апартаменты на Советском,"Дачная ул., 8",54.748439991264,20.448840009258
201,"Апартаменты центр, Черняховского 16, Колибри 16","Московский просп., 14",54.709919991302,20.497689992421
202,Апартаменты на Проспекте,"наб. Генерала Карбышева, 4",54.706240000532,20.519020008165
203,Апартаменты в центре на набережной,"Ленинский просп., 21А",54.716729994266,20.503989998486
204,Апартаменты на Дачной Калининград,"Гостиная ул., 14",54.717710006385,20.487789958943
205,Апартаменты на Московском Проспекте,"Мариупольская ул., 11",54.707789982067,20.500289974967
206,Видовые Апартаменты Сердце Königsberga о. Канта,"Московский просп., 119",54.710040020156,20.527720004566
207,Апартаменты Самый центр,"ул. Юрия Гагарина, 1",54.715260017996,20.536670033139
208,Апартаменты Уютная квартира возле Кёнигсбергского Зоопарка,"Краснооктябрьская ул., 5",54.702480004496,20.506319999931
209,Апартаменты Museum в центре города,"Комсомольская ул., 17",54.723179994488,20.478459978699
210,Апартаменты с видом на новый стадион в Калининграде,"ул. Черняховского, 12",54.719100019298,20.504670022291
211,Апартаменты Шикарный 4-комнатный Лофт в центре Калининграда,"Ольштынская ул., 7",54.696210005645,20.507040005413
212,Апартаменты в центре Калининграда,"Ленинский просп., 95",54.703769979395,20.506069967759
213,Апартаменты Комсомольская 17,"Московский просп., 12",54.710129999886,20.496179992564
214,Апартаменты Калининград на Черняховского 12,"Эпроновская ул., 1",54.700000008894,20.513200033695
215,Апартаменты Luxe c Джакузи,"Эпроновская ул., 20",54.704369997934,20.513479989261
216,Апартаменты на Ленинском проспекте 95,"Ленинский просп., 10, 1",54.714779986401,20.504029980164
217,Апартаменты в Высотке на Московском 12,"ул. Сергеева, 61",54.720170011148,20.518090036008
218,Апартаменты с видом на Рыбную деревню,"ул. Марата, 7",54.713900012297,20.468720039571
219,Апартаменты In the heart of König,"Офицерская ул., 3",54.721860012376,20.471060015481
220,Cozy Home,"Ярославская ул., 9",54.713089985174,20.524140009901
221,Апартаменты Stella на Сергеева,"ул. Черняховского, 16",54.719450005665,20.506140040469
222,Апартаменты Прусь Амалиенау,"Серпуховская ул., 11",54.70251001171,20.50274997973
223,Апартаменты Утро на Офицерской,"ул. Багратиона, 144А",54.698859986243,20.497080041327
224,У набережной,"ул. 1812 года, 29",54.710290010418,20.525650009758
225,"Апартаменты центр, Черняховского 16, Колибри 16","ул. Юрия Гагарина, 2А",54.71403999008,20.537530016404
226,Апартаменты рядом с Островом Канта,"ул. Маршала Баграмяна, 14",54.707110000172,20.500540007139
227,Апартаменты на улице Багратиона,"наб. Генерала Карбышева, 4",54.706240000532,20.519020008165
228,Апартаменты Design Bauhaus,"ул. Литовский Вал, 33",54.712110014964,20.537189962593
229,Апартаменты у Королевских Ворот,"ул. Генерала Галицкого, 11",54.715269992461,20.49886999675
230,Апартаменты возле Кафедрального Собора,"просп. Мира, 84",54.720650000833,20.475769974513
231,Видовые Апартаменты Сердце Königsberga о. Канта,"ул. Маршала Баграмяна, 36",54.706937664334,20.490867124318
232,LovelyHome 39 на улице Литовский Вал,"ул. Юрия Гагарина, 1",54.715260017996,20.536670033139
233,Апартаменты Zentrum,"ул. Черняховского, 60",54.719920020886,20.514390012489
234,Апартаменты Луизенпарк,"ул. Чайковского, 5",54.723620002495,20.497169979148
235,Апартаменты Wonder Loft,"Комсомольская ул., 17",54.723179994488,20.478459978699
236,Апартаменты Шикарный 4-комнатный Лофт в центре Калининграда,"Майский пер., 2",54.728540012021,20.532529959703
237,Двухкомнатная квартира рядом с Верхним Озером,"ул. Нансена, 66",54.694308126343,20.476207086542
238,Уютная квартира на Чайковского,"ул. Юрия Гагарина, 1",54.715260017996,20.536670033139
239,Апартаменты Комсомольская 17,"Совхозная ул., 9Б, посёлок Шоссейное",54.738537838817,20.5609932716
240,Поделам в Калининград на переулке Майский,"Эпроновская ул., 1",54.700000008894,20.513200033695
241,LovelyHome 39 на улице Нансена,"Эпроновская ул., 20",54.704369997934,20.513479989261
242,Апартаменты у Резиденции Королей,"Ленинский просп., 10, 1",54.714779986401,20.504029980164
243,Grand Tour,"ул. Сергеева, 61",54.720170011148,20.518090036008
244,Апартаменты с видом на Рыбную деревню,"ул. Марата, 7",54.713900012297,20.468720039571
245,Апартаменты In the heart of König,"Житомирская ул., 2",54.712690000754,20.506410021571
246,Cozy Home,"Тихорецкая ул., 22",54.684269984571,20.481639988945
247,Апартаменты Stella на Сергеева,"Барнаульская ул., 3",54.714399992821,20.50362002128
248,Апартаменты Прусь Амалиенау,"ул. Подполковника Иванникова, 12",54.718799989074,20.505790012193
249,Апартаменты Lux Plaza,"ул. Багратиона, 130",54.698659994033,20.499239973956
250,Апартаменты на Тихорецкой Калининград,"Серпуховская ул., 35А",54.69979000031,20.501199998195
251,"Апартаменты Люкс, в центре, Барнаульская 3, Колибри 3","Кронштадтская ул., 2",54.721509984099,20.493280021703
252,Апартаменты на Иванникова,"Ярославская ул., 9",54.713089985174,20.524140009901
253,Апартаменты у южного вокзала,"ул. Черняховского, 16",54.719450005665,20.506140040469
254,Апартаменты Южный вокзал,"Серпуховская ул., 11",54.70251001171,20.50274997973
255,Апартаменты Дворянское гнездо,"ул. Багратиона, 144А",54.698859986243,20.497080041327
256,У набережной,"ул. 1812 года, 29",54.710290010418,20.525650009758
257,"Апартаменты центр, Черняховского 16, Колибри 16","ул. Юрия Гагарина, 2А",54.71403999008,20.537530016404
258,Апартаменты рядом с Островом Канта,"ул. Маршала Баграмяна, 14",54.707110000172,20.500540007139
259,Апартаменты на улице Багратиона,"наб. Генерала Карбышева, 4",54.706240000532,20.519020008165
260,Апартаменты Design Bauhaus,"ул. Литовский Вал, 33",54.712110014964,20.537189962593
261,Апартаменты у Королевских Ворот,"ул. Генерала Галицкого, 11",54.715269992461,20.49886999675
262,Апартаменты возле Кафедрального Собора,"просп. Мира, 84",54.720650000833,20.475769974513
263,Видовые Апартаменты Сердце Königsberga о. Канта,"ул. Маршала Баграмяна, 36",54.706937664334,20.490867124318
264,LovelyHome 39 на улице Литовский Вал,"ул. Юрия Гагарина, 1",54.715260017996,20.536670033139
265,Апартаменты Zentrum,"ул. Черняховского, 60",54.719920020886,20.514390012489
266,Апартаменты Луизенпарк,"ул. Чайковского, 5",54.723620002495,20.497169979148
267,Апартаменты Wonder Loft,"Комсомольская ул., 17",54.723179994488,20.478459978699
268,Апартаменты Шикарный 4-комнатный Лофт в центре Калининграда,"Майский пер., 2",54.728540012021,20.532529959703
269,Двухкомнатная квартира рядом с Верхним Озером,"ул. Нансена, 66",54.694308126343,20.476207086542
270,Уютная квартира на Чайковского,"Краснооктябрьская ул., 11",54.702469988122,20.508640026911
271,Апартаменты Комсомольская 17,"ул. Литовский Вал, 105",54.706869984375,20.53800996418
272,Поделам в Калининград на переулке Майский,"Красноярская ул., 4",54.708060005078,20.502380002524
273,LovelyHome 39 на улице Нансена,"Ленинский просп., 26",54.713130008761,20.506240036574
274,Апартаменты Клёвое Место рядом с Рыбной Деревней,"ул. Сергеева, 19",54.716460013164,20.515470020713
275,Комфорт,"Малый пер., 3",54.702649989493,20.510629974543
276,Апартаменты Квартира в Живописном центре Города,"ул. Черняховского, 24",54.719009997658,20.506979990987
277,Апартаменты на Ленинском Проспекте 26,"Ленинградская ул., 5",54.730829989878,20.520349964742
278,Апартаменты Сергеева 19,"Житомирская ул., 2",54.712690000754,20.506410021571
279,Апартаменты Однокомнатные в Рыбной деревне Букинг 39,"Тихорецкая ул., 22",54.684269984571,20.481639988945
280,Апартаменты на Черняховского,"Барнаульская ул., 3",54.714399992821,20.50362002128
281,Апартаменты Ленинградская 5-2,"ул. Подполковника Иванникова, 12",54.718799989074,20.505790012193
282,Апартаменты Lux Plaza,"ул. Багратиона, 130",54.698659994033,20.499239973956
283,Апартаменты на Тихорецкой Калининград,"Серпуховская ул., 35А",54.69979000031,20.501199998195
284,"Апартаменты Люкс, в центре, Барнаульская 3, Колибри 3","Кронштадтская ул., 2",54.721509984099,20.493280021703
285,Апартаменты на Иванникова,"Ярославская ул., 9",54.713089985174,20.524140009901
286,Апартаменты у южного вокзала,"ул. Черняховского, 16",54.719450005665,20.506140040469
287,Апартаменты Южный вокзал,"Серпуховская ул., 11",54.70251001171,20.50274997973
288,Апартаменты Дворянское гнездо,"ул. Багратиона, 144А",54.698859986243,20.497080041327
289,У набережной,"ул. 1812 года, 29",54.710290010418,20.525650009758
290,"Апартаменты центр, Черняховского 16, Колибри 16","ул. Юрия Гагарина, 2А",54.71403999008,20.537530016404
291,Апартаменты рядом с Островом Канта,"ул. Маршала Баграмяна, 14",54.707110000172,20.500540007139
292,Апартаменты на улице Багратиона,"наб. Генерала Карбышева, 4",54.706240000532,20.519020008165
293,Апартаменты Design Bauhaus,"ул. Литовский Вал, 33",54.712110014964,20.537189962593
294,Апартаменты у Королевских Ворот,"ул. Генерала Галицкого, 11",54.715269992461,20.49886999675
295,Апартаменты возле Кафедрального Собора,"Октябрьская ул., 57",54.700200001104,20.520040001962
296,Видовые Апартаменты Сердце Königsberga о. Канта,"Пролетарская ул., 81",54.71974999398,20.513530029223
297,LovelyHome 39 на улице Литовский Вал,"Клинской пер., 2",54.676469995024,20.523220012208
298,Апартаменты Zentrum,"ул. Репина, 52",54.727789999325,20.488230008859
299,Апартаменты Pavlov,"Красноармейская ул., 13",54.697830017981,20.510559985652
300,Апартаменты Zoya Apart в Самом центре Города,"ул. Салтыкова-Щедрина, 1",54.711770003062,20.505760004979
301,Дом для отпуска,"Комсомольская ул., 17",54.723179994488,20.478459978699
302,"Апартаменты Zoya Apart в Историческом центре Хуфен, Амалиенау","Звёздная ул., 19",54.699440013943,20.588789964369
303,Апартаменты с Шикарным Видом на Калининградскую Филармонию,"Краснооктябрьская ул., 11",54.702469988122,20.508640026911
304,Апартаменты Kopernik,"ул. Литовский Вал, 105",54.706869984375,20.53800996418
305,Гостевой Дом Art House Tolstoy,"Красноярская ул., 4",54.708060005078,20.502380002524
306,Апартаменты Суперсовременные апартаменты в самом центре,"Ленинский просп., 26",54.713130008761,20.506240036574
307,Апартаменты Клёвое Место рядом с Рыбной Деревней,"ул. Сергеева, 19",54.716460013164,20.515470020713
308,Комфорт,"Малый пер., 3",54.702649989493,20.510629974543
309,Апартаменты Квартира в Живописном центре Города,"ул. Черняховского, 24",54.719009997658,20.506979990987
310,Апартаменты на Ленинском Проспекте 26,"Ленинградская ул., 5",54.730829989878,20.520349964742
311,Апартаменты Сергеева 19,"Житомирская ул., 2",54.712690000754,20.506410021571
312,Апартаменты Однокомнатные в Рыбной деревне Букинг 39,"Тихорецкая ул., 22",54.684269984571,20.481639988945
313,Апартаменты на Черняховского,"Барнаульская ул., 3",54.714399992821,20.50362002128
314,Апартаменты Ленинградская 5-2,"ул. Подполковника Иванникова, 12",54.718799989074,20.505790012193
315,Апартаменты Lux Plaza,"ул. Багратиона, 130",54.698659994033,20.499239973956
316,Апартаменты на Тихорецкой Калининград,"Серпуховская ул., 35А",54.69979000031,20.501199998195
317,"Апартаменты Люкс, в центре, Барнаульская 3, Колибри 3","Кронштадтская ул., 2",54.721509984099,20.493280021703
318,Апартаменты на Иванникова,"Ярославская ул., 9",54.713089985174,20.524140009901
319,Апартаменты у южного вокзала,"ул. Черняховского, 16",54.719450005665,20.506140040469
320,Апартаменты Южный вокзал,"Космическая ул., 36",54.713299993758,20.499229999492
321,Апартаменты Дворянское гнездо,"Суздальская ул., 11Б",54.714981945903,20.555960967767
322,У набережной,"Серпуховская ул., 22",54.70338001135,20.502329962562
323,"Апартаменты центр, Черняховского 16, Колибри 16","ул. Генерала Галицкого, 4Б",54.716399998738,20.499150036135
324,Апартаменты на улице Космическая 36,"Пролетарская ул., 52",54.715909992678,20.513749970362
325,Апартаменты Жильё Apartment 39 Kaliningrad,"ул. Кирова, 77",54.727130008269,20.485530030208
326,Апартаменты Студия на пересечении туристических троп) в самом центре Калининграда,"ул. Фрунзе, 103",54.713540009555,20.532440021882
327,Апартаменты Медуза,"ул. Черняховского, 70",54.719970018938,20.515410006286
328,Апартаменты в центре на Пролетарской,"ул. Багратиона, 128",54.698739999299,20.499590002233
329,Апартаменты Tor в центре города,"Октябрьская ул., 57",54.700200001104,20.520040001962
330,Апартаменты Трехкомнатные Апартаменты в центре,"Пролетарская ул., 81",54.71974999398,20.513530029223
331,Апартаменты в сердце Калининграда,"Клинской пер., 2",54.676469995024,20.523220012208
332,Апартаменты Ella,"ул. Репина, 52",54.727789999325,20.488230008859
333,Апартаменты Pavlov,"Красноармейская ул., 13",54.697830017981,20.510559985652
334,Апартаменты Zoya Apart в Самом центре Города,"ул. Салтыкова-Щедрина, 1",54.711770003062,20.505760004979
335,Дом для отпуска,"Комсомольская ул., 17",54.723179994488,20.478459978699
336,"Апартаменты Zoya Apart в Историческом центре Хуфен, Амалиенау","Звёздная ул., 19",54.699440013943,20.588789964369
337,Апартаменты с Шикарным Видом на Калининградскую Филармонию,"Краснооктябрьская ул., 11",54.702469988122,20.508640026911
338,Апартаменты Kopernik,"ул. Генерала Галицкого, 23",54.714280005877,20.497959973522
339,Гостевой Дом Art House Tolstoy,"ул. Литовский Вал, 105",54.706869984375,20.53800996418
340,Апартаменты Суперсовременные апартаменты в самом центре,"Красноярская ул., 4",54.708060005078,20.502380002524
341,Апартаменты Клёвое Место рядом с Рыбной Деревней,"Ленинский просп., 26",54.713130008761,20.506240036574
342,Апартаменты на Галицкого 23,"ул. Сергеева, 19",54.716460013164,20.515470020713
343,Комфорт,"Малый пер., 3",54.702649989493,20.510629974543
344,Апартаменты Квартира в Живописном центре Города,"ул. Черняховского, 24",54.719009997658,20.506979990987
345,Апартаменты на Ленинском Проспекте 26,"ул. Багратиона, 104",54.699349992303,20.504949977857
346,Апартаменты Сергеева 19,"Ленинский просп., 83А",54.704519992091,20.508759971945
347,Апартаменты Однокомнатные в Рыбной деревне Букинг 39,"ул. Багратиона, 72",54.699540010048,20.508099980889
348,Апартаменты на Черняховского,"Космическая ул., 36",54.713299993758,20.499229999492
349,Апартаменты в историческом центре у Южного вокзала,"Суздальская ул., 11Б",54.714981945903,20.555960967767
350,Апартаменты Ленинский Проспект 83а,"ул. Багратиона, 58",54.699820007523,20.511389961704
351,Апартаменты в центре возле парка с озером,"Серпуховская ул., 22",54.70338001135,20.502329962562
352,Апартаменты на улице Космическая 36,"ул. Генерала Галицкого, 4Б",54.716399998738,20.499150036135
353,Апартаменты Жильё Apartment 39 Kaliningrad,"Пролетарская ул., 52",54.715909992678,20.513749970362
354,Апартаменты около Рыбной деревни,"ул. Кирова, 77",54.727130008269,20.485530030208
355,Апартаменты Студия на пересечении туристических троп) в самом центре Калининграда,"ул. Фрунзе, 103",54.713540009555,20.532440021882
356,Апартаменты Медуза,"ул. Черняховского, 70",54.719970018938,20.515410006286
357,Апартаменты в центре на Пролетарской,"ул. Багратиона, 128",54.698739999299,20.499590002233
358,Апартаменты Tor в центре города,"Октябрьская ул., 57",54.700200001104,20.520040001962
359,Апартаменты Трехкомнатные Апартаменты в центре,"Пролетарская ул., 81",54.71974999398,20.513530029223
360,Апартаменты в сердце Калининграда,"ул. Профессора Севастьянова, 22А",54.715244928232,20.510936435001
361,Апартаменты Ella,"Клинской пер., 2",54.676469995024,20.523220012208
362,Апартаменты Pavlov,"Майский пер., 2",54.728540012021,20.532529959703
363,Апартаменты Zoya Apart в Самом центре Города,"ул. Репина, 52",54.727789999325,20.488230008859
364,Апартаменты Арка,"Красноармейская ул., 13",54.697830017981,20.510559985652
365,Дом для отпуска,"ул. Салтыкова-Щедрина, 1",54.711770003062,20.505760004979
366,Отель Ljuchija 17,"Комсомольская ул., 17",54.723179994488,20.478459978699
367,"Апартаменты Zoya Apart в Историческом центре Хуфен, Амалиенау","Звёздная ул., 19",54.699440013943,20.588789964369
368,Апартаменты с Шикарным Видом на Калининградскую Филармонию,"Краснооктябрьская ул., 11",54.702469988122,20.508640026911
369,Апартаменты Kopernik,"ул. Генерала Галицкого, 23",54.714280005877,20.497959973522
370,Гостевой Дом Art House Tolstoy,"Космическая ул., 36",54.713299993758,20.499229999492
371,Апартаменты Суперсовременные апартаменты в самом центре,"Суздальская ул., 11Б",54.714981945903,20.555960967767
372,Апартаменты Клёвое Место рядом с Рыбной Деревней,"ул. Багратиона, 58",54.699820007523,20.511389961704
373,Апартаменты на Галицкого 23,"ул. Марата, 1",54.714440016409,20.468999995137
374,Апартаменты на улице Космическая 36,"Серпуховская ул., 22",54.70338001135,20.502329962562
375,Апартаменты Жильё Apartment 39 Kaliningrad,"Эпроновская ул., 20",54.704369997934,20.513479989261
376,Апартаменты около Рыбной деревни,"ул. Генерала Галицкого, 4Б",54.716399998738,20.499150036135
377,Апартменты Apart39 Люкс в Историческом центре Калининграда,"Пролетарская ул., 52",54.715909992678,20.513749970362
378,Апартаменты Студия на пересечении туристических троп) в самом центре Калининграда,"ул. Кирова, 77",54.727130008269,20.485530030208
379,Жилое Помещение Берлога Хомлина,"ул. Фрунзе, 103",54.713540009555,20.532440021882
380,Апартаменты Медуза,"ул. Черняховского, 70",54.719970018938,20.515410006286
381,Апартаменты в центре на Пролетарской,"Серпуховская ул., 32",54.699180007306,20.500149997184
382,Апартаменты Tor в центре города,"ул. Багратиона, 128",54.698739999299,20.499590002233
383,Апартаменты Трехкомнатные Апартаменты в центре,"Пролетарская ул., 81",54.71974999398,20.513530029223
384,Апартаменты в сердце Калининграда,"ул. Профессора Севастьянова, 22А",54.715244928232,20.510936435001
385,Апартаменты Стильные Возле Южного Вокзала,"Клинской пер., 2",54.676469995024,20.523220012208
386,Апартаменты Ella,"Майский пер., 2",54.728540012021,20.532529959703
387,Апартаменты Zoya Apart в Самом центре Города,"ул. Репина, 52",54.727789999325,20.488230008859
388,Апартаменты Арка,"Старопрегольская наб., 10",54.704500001252,20.510550011187
389,Дом для отпуска,"Красноармейская ул., 13",54.697830017981,20.510559985652
390,Отель Ljuchija 17,"ул. Салтыкова-Щедрина, 1",54.711770003062,20.505760004979
391,"Апартаменты Zoya Apart в Историческом центре Хуфен, Амалиенау","Комсомольская ул., 17",54.723179994488,20.478459978699
392,Апартаменты с Видом на Остров Канта,"Звёздная ул., 19",54.699440013943,20.588789964369
393,Апартаменты с Шикарным Видом на Калининградскую Филармонию,"Краснооктябрьская ул., 11",54.702469988122,20.508640026911
394,Апартаменты Kopernik,"ул. Генерала Галицкого, 23",54.714280005877,20.497959973522
395,Гостевой Дом Art House Tolstoy,"Эпроновская ул., 20",54.704369997934,20.513479989261
396,Апартаменты Суперсовременные апартаменты в самом центре,"ул. Генерала Галицкого, 4Б",54.716399998738,20.499150036135
397,Апартаменты Клёвое Место рядом с Рыбной Деревней,"ул. Генерала Соммера, 13",54.716389982363,20.506399963287
398,Апартаменты на Галицкого 23,"Пролетарская ул., 52",54.715909992678,20.513749970362
399,Жилое Помещение Берлога Хомлина,"ул. Елены Ковальчук, 3",54.720090005882,20.473810034093
400,Апартаменты Медуза,"ул. Кирова, 77",54.727130008269,20.485530030208
401,Апартаменты Квартирное Бюро Гала,"ул. Фрунзе, 103",54.713540009555,20.532440021882
402,Апартаменты в центре на Пролетарской,"ул. Черняховского, 70",54.719970018938,20.515410006286
403,Апартаменты на ул. Ковальчук район Амалиенау,"Серпуховская ул., 32",54.699180007306,20.500149997184
404,Апартаменты Tor в центре города,"ул. Багратиона, 128",54.698739999299,20.499590002233
405,Апартаменты Трехкомнатные Апартаменты в центре,"Университетская ул., 7",54.76952999121,20.514490008594
406,Апартаменты в сердце Калининграда,"Пролетарская ул., 81",54.71974999398,20.513530029223
407,Апартаменты Стильные Возле Южного Вокзала,"ул. Генерала Соммера, 56",54.715549989937,20.511720041051
408,Апартаменты Ella,"ул. Профессора Севастьянова, 22А",54.715244928232,20.510936435001
409,Жилое Помещение Двухкомнатная в центре,"Клинской пер., 2",54.676469995024,20.523220012208
410,Апартаменты Zoya Apart в Самом центре Города,"Пролетарская ул., 72",54.718489984385,20.513560036436
411,Апартаменты на Соммера 56,"Больничная ул., 15",54.712659993541,20.503899976846
412,Апартаменты Арка,"Майский пер., 2",54.728540012021,20.532529959703
413,Дом для отпуска,"ул. Репина, 52",54.727789999325,20.488230008859
414,Апартаменты трехкомнатные у площади Победы,"Старопрегольская наб., 10",54.704500001252,20.510550011187
415,"Апартаменты центр, Больничная 15, Колибри 15","Красноармейская ул., 13",54.697830017981,20.510559985652
416,Отель Ljuchija 17,"ул. Салтыкова-Щедрина, 1",54.711770003062,20.505760004979
417,"Апартаменты Zoya Apart в Историческом центре Хуфен, Амалиенау","Комсомольская ул., 17",54.723179994488,20.478459978699
418,Апартаменты с Видом на Остров Канта,"Звёздная ул., 19",54.699440013943,20.588789964369
419,Апартаменты с Шикарным Видом на Калининградскую Филармонию,"Уральская ул., 4",54.723860018292,20.500159971649
420,Апартаменты Kopernik,"ул. Багратиона, 128",54.698739999299,20.499590002233
421,Гостевой Дом Art House Tolstoy,"ул. Пугачёва, 5",54.721819988788,20.472630029764
422,Апартаменты Суперсовременные апартаменты в самом центре,"Университетская ул., 7",54.76952999121,20.514490008594
423,Апартаменты на Уральской 4,"Пролетарская ул., 81",54.71974999398,20.513530029223
424,Апартаменты Ella,"ул. Генерала Соммера, 56",54.715549989937,20.511720041051
425,Апартаменты Artapart,"ул. Профессора Севастьянова, 22А",54.715244928232,20.510936435001
426,Жилое Помещение Двухкомнатная в центре,"Полоцкая ул., 12",54.703460016615,20.501420023153
427,Апартаменты Zoya Apart в Самом центре Города,"Клинской пер., 2",54.676469995024,20.523220012208
428,Апартаменты на Соммера 56,"Пролетарская ул., 72",54.718489984385,20.513560036436
429,Апартаменты Арка,"Больничная ул., 15",54.712659993541,20.503899976846
430,Апартаменты Светлая уютная и комфортная в центре на Полоцкой,"Майский пер., 2",54.728540012021,20.532529959703
431,Дом для отпуска,"ул. Репина, 52",54.727789999325,20.488230008859
432,Апартаменты трехкомнатные у площади Победы,"Старопрегольская наб., 10",54.704500001252,20.510550011187
433,"Апартаменты центр, Больничная 15, Колибри 15","Красноармейская ул., 13",54.697830017981,20.510559985652
434,Отель Ljuchija 17,"ул. Салтыкова-Щедрина, 1",54.711770003062,20.505760004979
435,"Апартаменты Zoya Apart в Историческом центре Хуфен, Амалиенау","Комсомольская ул., 17",54.723179994488,20.478459978699
436,Апартаменты с Видом на Остров Канта,"Звёздная ул., 19",54.699440013943,20.588789964369
437,Апартаменты с Шикарным Видом на Калининградскую Филармонию,"Уральская ул., 4",54.723860018292,20.500159971649
438,Апартаменты Kopernik,"Краснооктябрьская ул., 1",54.702569984227,20.505809961122
439,Гостевой Дом Art House Tolstoy,"Краснооктябрьская ул., 11",54.702469988122,20.508640026911
440,Апартаменты Суперсовременные апартаменты в самом центре,"ул. Генерала Галицкого, 23",54.714280005877,20.497959973522
441,Апартаменты на Уральской 4,"ул. Литовский Вал, 105",54.706869984375,20.53800996418
442,Апартаменты в центре у Фантана,"ул. Генерала Соммера, 33",54.716879988423,20.511839986086
443,Апартаменты Клёвое Место рядом с Рыбной Деревней,"просп. Победы, 5А",54.719111782642,20.473888295412
444,Апартаменты на Галицкого 23,"Красноярская ул., 4",54.708060005078,20.502380002524
445,Комфорт,"Университетская ул., 7",54.76952999121,20.514490008594
446,Апартаменты Генерала Соммера 33 в центре,"Пролетарская ул., 81",54.71974999398,20.513530029223
447,Дизайнерские апартаменты Central Park в историческом центре города,"ул. Генерала Соммера, 56",54.715549989937,20.511720041051
448,Апартаменты Квартира в Живописном центре Города,"ул. Профессора Севастьянова, 22А",54.715244928232,20.510936435001
449,Жилое Помещение Двухкомнатная в центре,"Полоцкая ул., 12",54.703460016615,20.501420023153
450,Апартаменты Zoya Apart в Самом центре Города,"Клинской пер., 2",54.676469995024,20.523220012208
451,Апартаменты на Соммера 56,"Пролетарская ул., 72",54.718489984385,20.513560036436
452,Апартаменты Арка,"Больничная ул., 15",54.712659993541,20.503899976846
453,Апартаменты Светлая уютная и комфортная в центре на Полоцкой,"Майский пер., 2",54.728540012021,20.532529959703
454,Дом для отпуска,"ул. Репина, 52",54.727789999325,20.488230008859
455,Апартаменты трехкомнатные у площади Победы,"Старопрегольская наб., 10",54.704500001252,20.510550011187
456,"Апартаменты центр, Больничная 15, Колибри 15","Красноармейская ул., 13",54.697830017981,20.510559985652
457,Отель Ljuchija 17,"ул. Салтыкова-Щедрина, 1",54.711770003062,20.505760004979
458,"Апартаменты Zoya Apart в Историческом центре Хуфен, Амалиенау","Комсомольская ул., 17",54.723179994488,20.478459978699
459,Апартаменты с Видом на Остров Канта,"Звёздная ул., 19",54.699440013943,20.588789964369
460,Апартаменты с Шикарным Видом на Калининградскую Филармонию,"ул. Кутузова, 31",54.71712000422,20.464579966136
461,Апартаменты Kopernik,"Уральская ул., 4",54.723860018292,20.500159971649
462,Гостевой Дом Art House Tolstoy,"Краснооктябрьская ул., 1",54.702569984227,20.505809961122
463,Апартаменты Суперсовременные апартаменты в самом центре,"Краснооктябрьская ул., 11",54.702469988122,20.508640026911
464,Апартаменты в Амалиенау,"ул. Полковника Сафронова, 3",54.724249986338,20.483240010442
465,Апартаменты на Уральской 4,"ул. Генерала Галицкого, 23",54.714280005877,20.497959973522
466,Апартаменты FreeDom - Apartments CityCentr,"Уральская ул., 8",54.724110008555,20.500410003821
467,Апартаменты Клёвое Место рядом с Рыбной Деревней,"ул. Литовский Вал, 105",54.706869984375,20.53800996418
468,Апартаменты Белая сова,"ул. Генерала Соммера, 33",54.716879988423,20.511839986086
469,Апартаменты на Галицкого 23,"ул. Богдана Хмельницкого, 27",54.697229999442,20.505249966171
470,Апартаменты в центре BalticMonApart Уральская,"Серпуховская ул., 32",54.699180007306,20.500149997184
471,Комфорт,"просп. Мира, 104",54.722029997372,20.469009969602
472,Апартаменты Генерала Соммера 33 в центре,"ул. Багратиона, 128",54.698739999299,20.499590002233
473,"Апартаменты Трёхкомнатный Пентхаус, Южный вокзал, Колибри 27/13","просп. Мира, 69",54.721170014106,20.470779976095
474,Апартаменты Стильные Возле Южного Вокзала,"пер. Кирова, 7",54.725409999828,20.495440038152
475,Апартаменты Уютная квартра в историческом районе Амалиенау,"ул. Пугачёва, 5",54.721819988788,20.472630029764
476,Апартаменты Ella,"ул. Богдана Хмельницкого, 36",54.696550017547,20.510390000655
477,Апартаменты в сердце Амалиенау,"Университетская ул., 7",54.76952999121,20.514490008594
478,Апартаменты Kinfolk,"Пролетарская ул., 81",54.71974999398,20.513530029223
479,Апартаменты Artapart,"ул. Генерала Соммера, 56",54.715549989937,20.511720041051
480,Апартаменты Семейные в центре,"ул. Профессора Севастьянова, 22А",54.715244928232,20.510936435001
481,Жилое Помещение Двухкомнатная в центре,"Зарайская ул., 17",54.71024998683,20.51747002663
482,Апартаменты Zoya Apart в Самом центре Города,"Полоцкая ул., 12",54.703460016615,20.501420023153
483,Апартаменты на Соммера 56,"Клинской пер., 2",54.676469995024,20.523220012208
484,Апартаменты Арка,"Пролетарская ул., 72",54.718489984385,20.513560036436
485,Апартаменты Amore,"Больничная ул., 15",54.712659993541,20.503899976846
486,Апартаменты Светлая уютная и комфортная в центре на Полоцкой,"Майский пер., 2",54.728540012021,20.532529959703
487,Дом для отпуска,"ул. Репина, 52",54.727789999325,20.488230008859
488,Апартаменты трехкомнатные у площади Победы,"Старопрегольская наб., 10",54.704500001252,20.510550011187
489,"Апартаменты центр, Больничная 15, Колибри 15","Красноармейская ул., 13",54.697830017981,20.510559985652
490,Отель Ljuchija 17,"ул. Салтыкова-Щедрина, 1",54.711770003062,20.505760004979
491,"Апартаменты Zoya Apart в Историческом центре Хуфен, Амалиенау","Комсомольская ул., 17",54.723179994488,20.478459978699
492,Апартаменты с Видом на Остров Канта,"Звёздная ул., 19",54.699440013943,20.588789964369
493,Апартаменты с Шикарным Видом на Калининградскую Филармонию,"ул. Кутузова, 31",54.71712000422,20.464579966136
494,Апартаменты Kopernik,"Уральская ул., 4",54.723860018292,20.500159971649
495,Гостевой Дом Art House Tolstoy,"Пролетарская ул., 81",54.71974999398,20.513530029223
496,Апартаменты Суперсовременные апартаменты в самом центре,"ул. Генерала Соммера, 56",54.715549989937,20.511720041051
497,Апартаменты в Амалиенау,"ул. Профессора Севастьянова, 22А",54.715244928232,20.510936435001
498,Апартаменты на Уральской 4,"Зарайская ул., 17",54.71024998683,20.51747002663
499,Апартаменты Zoya Apart в Самом центре Города,"Полоцкая ул., 12",54.703460016615,20.501420023153
500,Апартаменты на Соммера 56,"Кирпичная ул., 17А",54.71083001453,20.524800000957
501,Апартаменты Арка,"Клинской пер., 2",54.676469995024,20.523220012208
502,Апартаменты Amore,"Пролетарская ул., 72",54.718489984385,20.513560036436
503,Апартаменты Светлая уютная и комфортная в центре на Полоцкой,"Больничная ул., 15",54.712659993541,20.503899976846
504,Апартаменты Кирпичная 17 А,"Майский пер., 2",54.728540012021,20.532529959703
505,Дом для отпуска,"Лесопарковая ул., 39А",54.718619987703,20.456940029029
506,Апартаменты трехкомнатные у площади Победы,"ул. Репина, 52",54.727789999325,20.488230008859
507,"Апартаменты центр, Больничная 15, Колибри 15","Старопрегольская наб., 10",54.704500001252,20.510550011187
508,Отель Ljuchija 17,"Красноармейская ул., 13",54.697830017981,20.510559985652
509,Апартаменты am Flussen,"ул. Салтыкова-Щедрина, 1",54.711770003062,20.505760004979
510,"Апартаменты Zoya Apart в Историческом центре Хуфен, Амалиенау","Комсомольская ул., 17",54.723179994488,20.478459978699
511,Апартаменты с Видом на Остров Канта,"Звёздная ул., 19",54.699440013943,20.588789964369
512,Апартаменты с Шикарным Видом на Калининградскую Филармонию,"ул. Кутузова, 31",54.71712000422,20.464579966136
513,Апартаменты Kopernik,"Уральская ул., 4",54.723860018292,20.500159971649
514,Гостевой Дом Art House Tolstoy,"Зарайская ул., 17",54.71024998683,20.51747002663
515,Апартаменты Суперсовременные апартаменты в самом центре,"Краснооктябрьская ул., 1",54.702569984227,20.505809961122
516,Апартаменты в Амалиенау,"Зарайская ул., 17",54.71024998683,20.51747002663
517,Апартаменты на Уральской 4,"Краснооктябрьская ул., 11",54.702469988122,20.508640026911
518,Апартаменты в 10 минутах ходьбы от Рыбной деревни и о. Канта,"ул. Полковника Сафронова, 3",54.724249986338,20.483240010442
519,Апартаменты FreeDom - Apartments CityCentr,"ул. Богдана Хмельницкого, 22",54.69631000175,20.508059999211
520,Апартаменты Зарайская 17,"Зарайская ул., 17",54.71024998683,20.51747002663
521,Апартаменты Клёвое Место рядом с Рыбной Деревней,"Полоцкая ул., 12",54.703460016615,20.501420023153
522,Апартаменты Белая сова,"Кирпичная ул., 17А",54.71083001453,20.524800000957
523,Апартаменты Рыбная деревня,"Клинской пер., 2",54.676469995024,20.523220012208
524,Апартаменты Amore,"Пролетарская ул., 72",54.718489984385,20.513560036436
525,Апартаменты Светлая уютная и комфортная в центре на Полоцкой,"Больничная ул., 15",54.712659993541,20.503899976846
526,Апартаменты Кирпичная 17 А,"Майский пер., 2",54.728540012021,20.532529959703
527,Дом для отпуска,"Лесопарковая ул., 39А",54.718619987703,20.456940029029
528,Апартаменты трехкомнатные у площади Победы,"ул. Репина, 52",54.727789999325,20.488230008859
529,"Апартаменты центр, Больничная 15, Колибри 15","Старопрегольская наб., 10",54.704500001252,20.510550011187
530,Отель Ljuchija 17,"Красноармейская ул., 13",54.697830017981,20.510559985652
531,Апартаменты am Flussen,"ул. Салтыкова-Щедрина, 1",54.711770003062,20.505760004979
532,"Апартаменты Zoya Apart в Историческом центре Хуфен, Амалиенау","Комсомольская ул., 17",54.723179994488,20.478459978699
533,Апартаменты с Видом на Остров Канта,"Звёздная ул., 19",54.699440013943,20.588789964369
534,Апартаменты с Шикарным Видом на Калининградскую Филармонию,"ул. Кутузова, 31",54.71712000422,20.464579966136
535,Апартаменты Kopernik,"Уральская ул., 4",54.723860018292,20.500159971649
536,Гостевой Дом Art House Tolstoy,"Зарайская ул., 17",54.71024998683,20.51747002663
537,Апартаменты Суперсовременные апартаменты в самом центре,"Краснооктябрьская ул., 1",54.702569984227,20.505809961122
538,Апартаменты в Амалиенау,"Зарайская ул., 17",54.71024998683,20.51747002663
539,Апартаменты на Уральской 4,"Краснооктябрьская ул., 11",54.702469988122,20.508640026911
540,Апартаменты в 10 минутах ходьбы от Рыбной деревни и о. Канта,"ул. Полковника Сафронова, 3",54.724249986338,20.483240010442
541,Апартаменты FreeDom - Apartments CityCentr,"ул. Богдана Хмельницкого, 22",54.69631000175,20.508059999211
542,Апартаменты Зарайская 17,"ул. Генерала Галицкого, 23",54.714280005877,20.497959973522
543,Апартаменты Клёвое Место рядом с Рыбной Деревней,"наб. Генерала Карбышева, 26Б",54.705530011424,20.535799991589
544,Апартаменты Белая сова,"ул. Литовский Вал, 105",54.706869984375,20.53800996418
545,Апартаменты Рыбная деревня,"ул. Репина, 52",54.727789999325,20.488230008859
546,Апартаменты на Галицкого 23,"Старопрегольская наб., 10",54.704500001252,20.510550011187
547,Гостевой дом Танхауз Лотос на Берегу Реки,"Красноармейская ул., 13",54.697830017981,20.510559985652
548,Комфорт,"ул. Салтыкова-Щедрина, 1",54.711770003062,20.505760004979
549,"Апартаменты Zoya Apart в Историческом центре Хуфен, Амалиенау","Комсомольская ул., 17",54.723179994488,20.478459978699
550,Апартаменты с Видом на Остров Канта,"Звёздная ул., 19",54.699440013943,20.588789964369
551,Апартаменты с Шикарным Видом на Калининградскую Филармонию,"ул. Кутузова, 31",54.71712000422,20.464579966136
552,Апартаменты Kopernik,"Уральская ул., 4",54.723860018292,20.500159971649
553,Гостевой Дом Art House Tolstoy,"Зарайская ул., 17",54.71024998683,20.51747002663
554,Апартаменты Суперсовременные апартаменты в самом центре,"Краснооктябрьская ул., 1",54.702569984227,20.505809961122
555,Апартаменты в Амалиенау,"Зарайская ул., 17",54.71024998683,20.51747002663
556,Апартаменты на Уральской 4,"Краснооктябрьская ул., 11",54.702469988122,20.508640026911
557,Апартаменты в 10 минутах ходьбы от Рыбной деревни и о. Канта,"ул. Полковника Сафронова, 3",54.724249986338,20.483240010442
558,Апартаменты FreeDom - Apartments CityCentr,"ул. Богдана Хмельницкого, 22",54.69631000175,20.508059999211
559,Апартаменты Зарайская 17,"ул. Генерала Галицкого, 23",54.714280005877,20.497959973522
560,Апартаменты Клёвое Место рядом с Рыбной Деревней,"наб. Генерала Карбышева, 26Б",54.705530011424,20.535799991589
561,Апартаменты Белая сова,"ул. Литовский Вал, 105",54.706869984375,20.53800996418
562,Апартаменты Рыбная деревня,"ул. Генерала Соммера, 33",54.716879988423,20.511839986086
563,Апартаменты на Галицкого 23,"ул. Богдана Хмельницкого, 27",54.697229999442,20.505249966171
564,Гостевой дом Танхауз Лотос на Берегу Реки,"Калязинская ул., 6",54.726787915287,20.506467475258
565,Комфорт,"просп. Победы, 5А",54.719111782642,20.473888295412
566,Апартаменты Генерала Соммера 33 в центре,"ул. Фрунзе, 19",54.713399989863,20.521029988546
567,"Апартаменты Трёхкомнатный Пентхаус, Южный вокзал, Колибри 27/13","Эпроновская ул., 21",54.702150008968,20.512759983778
568,Апартаменты 3 комнаты в центре рядом с Электричкой на Море,"просп. Мира, 88А",54.721020019949,20.473409965855
569,Дизайнерские апартаменты Central Park в историческом центре города,"ул. Фрунзе, 39",54.712759989646,20.524999993166
570,Апартаменты в Самом центре у Дома Советов,"Краснооктябрьская ул., 11",54.702469988122,20.508640026911
571,Апартаменты на Эпроновской 21,"ул. Полковника Сафронова, 3",54.724249986338,20.483240010442
572,Апартаменты Apart на Мира,"ул. Богдана Хмельницкого, 22",54.69631000175,20.508059999211
573,Апартаменты Пристань Старого Моряка,"ул. Генерала Галицкого, 23",54.714280005877,20.497959973522
574,Апартаменты Клёвое Место рядом с Рыбной Деревней,"наб. Генерала Карбышева, 26Б",54.705530011424,20.535799991589
575,Апартаменты Белая сова,"ул. Литовский Вал, 105",54.706869984375,20.53800996418
576,Апартаменты Рыбная деревня,"ул. Генерала Соммера, 33",54.716879988423,20.511839986086
577,Апартаменты на Галицкого 23,"ул. Александра Невского, 38В",54.728590010073,20.530380001539
578,Гостевой дом Танхауз Лотос на Берегу Реки,"ул. Богдана Хмельницкого, 27",54.697229999442,20.505249966171
579,Комфорт,"Калязинская ул., 6",54.726787915287,20.506467475258
580,Апартаменты Генерала Соммера 33 в центре,"просп. Победы, 5А",54.719111782642,20.473888295412
581,Апартаменты Друзья у Верхнего Озера,"ул. Фрунзе, 19",54.713399989863,20.521029988546
582,"Апартаменты Трёхкомнатный Пентхаус, Южный вокзал, Колибри 27/13","Эпроновская ул., 21",54.702150008968,20.512759983778
583,Апартаменты 3 комнаты в центре рядом с Электричкой на Море,"просп. Мира, 88А",54.721020019949,20.473409965855
584,Дизайнерские апартаменты Central Park в историческом центре города,"ул. Фрунзе, 39",54.712759989646,20.524999993166
585,Апартаменты в Самом центре у Дома Советов,"Октябрьская ул., 29",54.702660005867,20.517059983926
586,Апартаменты на Эпроновской 21,"Красноярская ул., 4",54.708060005078,20.502380002524
587,Апартаменты Apart на Мира,"ул. Кутузова, 5",54.720630009994,20.47116998605
588,Апартаменты Пристань Старого Моряка,"Ленинский просп., 26",54.713130008761,20.506240036574
589,Апартаменты Юбилейный Мост,"ул. Сергеева, 19",54.716460013164,20.515470020713
590,Апартаменты Квартира в Живописном центре Города,"ул. Сергеева, 5",54.715540015472,20.514239976422
591,Апартаменты Вилла Амалиенау,"Бассейная ул., 36",54.718489984385,20.454199984881
592,Апартаменты на Ленинском Проспекте 26,"Свободная ул., 8",54.719079986549,20.486420020688
593,Апартаменты Сергеева 19,"Эпроновская ул., 27",54.702970010556,20.513129960985
594,Апартаменты Сергеева 5,"Зоологическая ул., 55",54.726839994419,20.483110007124
595,Апартаменты в историческом и тихом районе Амалиенау,"ул. Богдана Хмельницкого, 22",54.69631000175,20.508059999211
596,Апартаменты Леона напротив зоопарка,"ул. Генерала Галицкого, 23",54.714280005877,20.497959973522
597,Апартаменты у Рыбной деревни,"наб. Генерала Карбышева, 26Б",54.705530011424,20.535799991589
598,Апартаменты Амалиенау,"ул. Литовский Вал, 105",54.706869984375,20.53800996418
599,Апартаменты Рыбная деревня,"ул. Генерала Соммера, 33",54.716879988423,20.511839986086
600,Апартаменты на Галицкого 23,"ул. Александра Невского, 38В",54.728590010073,20.530380001539
601,Гостевой дом Танхауз Лотос на Берегу Реки,"ул. Богдана Хмельницкого, 27",54.697229999442,20.505249966171
602,Комфорт,"Калязинская ул., 6",54.726787915287,20.506467475258
603,Апартаменты Генерала Соммера 33 в центре,"просп. Победы, 5А",54.719111782642,20.473888295412
604,Апартаменты Друзья у Верхнего Озера,"ул. Фрунзе, 19",54.713399989863,20.521029988546
605,"Апартаменты Трёхкомнатный Пентхаус, Южный вокзал, Колибри 27/13","Эпроновская ул., 21",54.702150008968,20.512759983778
606,Апартаменты 3 комнаты в центре рядом с Электричкой на Море,"просп. Мира, 88А",54.721020019949,20.473409965855
607,Дизайнерские апартаменты Central Park в историческом центре города,"ул. Фрунзе, 39",54.712759989646,20.524999993166
608,Апартаменты в Самом центре у Дома Советов,"Октябрьская ул., 29",54.702660005867,20.517059983926
609,Апартаменты на Эпроновской 21,"Римская ул., 26",54.72303000033,20.537990015251
610,Апартаменты Apart на Мира,"Красноярская ул., 4",54.708060005078,20.502380002524
611,Апартаменты Пристань Старого Моряка,"ул. Кутузова, 5",54.720630009994,20.47116998605
612,Апартаменты Юбилейный Мост,"Ленинский просп., 26",54.713130008761,20.506240036574
613,Апартаменты у Резиденции Королей,"ул. Маршала Жукова, 13",54.750559984125,20.490709962552
614,Апартаменты Квартира в Живописном центре Города,"ул. Сергеева, 19",54.716460013164,20.515470020713
615,Апартаменты Вилла Амалиенау,"ул. Сергеева, 5",54.715540015472,20.514239976422
616,Апартаменты на Ленинском Проспекте 26,"Бассейная ул., 36",54.718489984385,20.454199984881
617,Апартаменты Маршала Жукова 13,"Свободная ул., 8",54.719079986549,20.486420020688
618,Апартаменты Сергеева 19,"Эпроновская ул., 27",54.702970010556,20.513129960985
619,Апартаменты Сергеева 5,"Зоологическая ул., 55",54.726839994419,20.483110007124
620,Апартаменты в историческом и тихом районе Амалиенау,"наб. Генерала Карбышева, 26Б",54.705530011424,20.535799991589
621,Апартаменты Леона напротив зоопарка,"ул. Литовский Вал, 105",54.706869984375,20.53800996418
622,Апартаменты у Рыбной деревни,"ул. Генерала Соммера, 33",54.716879988423,20.511839986086
623,Апартаменты Амалиенау,"ул. Александра Невского, 38В",54.728590010073,20.530380001539
624,Гостевой дом Танхауз Лотос на Берегу Реки,"ул. Богдана Хмельницкого, 27",54.697229999442,20.505249966171
625,Комфорт,"Калязинская ул., 6",54.726787915287,20.506467475258
626,Апартаменты Генерала Соммера 33 в центре,"просп. Победы, 5А",54.719111782642,20.473888295412
627,Апартаменты Друзья у Верхнего Озера,"ул. Фрунзе, 19",54.713399989863,20.521029988546
628,"Апартаменты Трёхкомнатный Пентхаус, Южный вокзал, Колибри 27/13","Эпроновская ул., 21",54.702150008968,20.512759983778
629,Апартаменты 3 комнаты в центре рядом с Электричкой на Море,"просп. Мира, 88А",54.721020019949,20.473409965855
630,Дизайнерские апартаменты Central Park в историческом центре города,"ул. Фрунзе, 39",54.712759989646,20.524999993166
631,Апартаменты в Самом центре у Дома Советов,"Октябрьская ул., 29",54.702660005867,20.517059983926
632,Апартаменты на Эпроновской 21,"Римская ул., 26",54.72303000033,20.537990015251
633,Апартаменты Apart на Мира,"Красноярская ул., 4",54.708060005078,20.502380002524
634,Апартаменты Пристань Старого Моряка,"ул. Кутузова, 5",54.720630009994,20.47116998605
635,Апартаменты Юбилейный Мост,"Ленинский просп., 26",54.713130008761,20.506240036574
636,Апартаменты у Резиденции Королей,"ул. Маршала Жукова, 13",54.750559984125,20.490709962552
637,Апартаменты Квартира в Живописном центре Города,"ул. Сергеева, 19",54.716460013164,20.515470020713
638,Апартаменты Вилла Амалиенау,"ул. Сергеева, 5",54.715540015472,20.514239976422
639,Апартаменты на Ленинском Проспекте 26,"Бассейная ул., 36",54.718489984385,20.454199984881
640,Апартаменты Маршала Жукова 13,"Свободная ул., 8",54.719079986549,20.486420020688
641,Апартаменты Сергеева 19,"Эпроновская ул., 27",54.702970010556,20.513129960985
642,Апартаменты Сергеева 5,"Зоологическая ул., 55",54.726839994419,20.483110007124
643,Апартаменты в историческом и тихом районе Амалиенау,"ул. Фрунзе, 19, квартира 44",54.713399989863,20.521029988546
644,Апартаменты Леона напротив зоопарка,"ул. Черняховского, 24",54.719009997658,20.506979990987
645,Апартаменты у Рыбной деревни,"Эпроновская ул., 21",54.702150008968,20.512759983778
646,Апартаменты Амалиенау,"ул. Куйбышева, 68",54.724249986338,20.540680019437
647,Апартаменты на Фрунзе,"просп. Мира, 88А",54.721020019949,20.473409965855
648,Апартаменты на Черняховского,"ул. Фрунзе, 39",54.712759989646,20.524999993166
649,Апартаменты на Эпроновской 21,"Октябрьская ул., 29",54.702660005867,20.517059983926
650,Апартаменты Laung,"Римская ул., 26",54.72303000033,20.537990015251
651,Апартаменты Apart на Мира,"Красноярская ул., 4",54.708060005078,20.502380002524
652,Апартаменты Пристань Старого Моряка,"ул. Кутузова, 5",54.720630009994,20.47116998605
653,Апартаменты Юбилейный Мост,"Ленинский просп., 26",54.713130008761,20.506240036574
654,Апартаменты у Резиденции Королей,"ул. Маршала Жукова, 13",54.750559984125,20.490709962552
655,Апартаменты Квартира в Живописном центре Города,"ул. Сергеева, 19",54.716460013164,20.515470020713
656,Апартаменты Вилла Амалиенау,"ул. Александра Невского, 70",54.735229986131,20.532889962445
657,Апартаменты на Ленинском Проспекте 26,"ул. Сергеева, 5",54.715540015472,20.514239976422
658,Апартаменты Маршала Жукова 13,"Бассейная ул., 36",54.718489984385,20.454199984881
659,Апартаменты Сергеева 19,"Свободная ул., 8",54.719079986549,20.486420020688
660,Апартаменты на Невского,"Эпроновская ул., 27",54.702970010556,20.513129960985
661,Апартаменты Сергеева 5,"Зоологическая ул., 55",54.726839994419,20.483110007124
662,Апартаменты в историческом и тихом районе Амалиенау,"ул. Фрунзе, 19, квартира 44",54.713399989863,20.521029988546
663,Апартаменты Леона напротив зоопарка,"ул. Черняховского, 24",54.719009997658,20.506979990987
664,Апартаменты у Рыбной деревни,"Зоологическая ул., 63",54.727369982157,20.48318997048
665,Апартаменты Амалиенау,"Стрелецкая ул., 21В",54.719459263297,20.547340635652
666,Апартаменты на Фрунзе,"Ленинградская ул., 5",54.730829989878,20.520349964742
667,Апартаменты на Черняховского,"ул. Александра Суворова, 33",54.692209993811,20.472790040296
668,Апартаменты 2к в центре около Зоопарка,"ул. Багратиона, 9",54.699199998146,20.514380038024
669,Апартаменты Стрелецкая De Lux,"Театральный пер., 3",54.720209992826,20.491500040745
670,Апартаменты Ленинградская 5-2,"Эпроновская ул., 27",54.702970010556,20.513129960985
671,Апартаменты 1-к Комфорт класс,"Зоологическая ул., 55",54.726839994419,20.483110007124
672,Апартаменты на улице Багратиона 9,"ул. Фрунзе, 19, квартира 44",54.713399989863,20.521029988546
673,Апартаменты Театральный Переулок,"ул. Черняховского, 24",54.719009997658,20.506979990987
674,Апартаменты у Рыбной деревни,"Зоологическая ул., 63",54.727369982157,20.48318997048
675,Апартаменты Амалиенау,"Стрелецкая ул., 21В",54.719459263297,20.547340635652
676,Апартаменты на Фрунзе,"Ленинградская ул., 5",54.730829989878,20.520349964742
677,Апартаменты на Черняховского,"ул. Александра Суворова, 33",54.692209993811,20.472790040296
678,Апартаменты 2к в центре около Зоопарка,"Коммунистическая ул., 26, квартира 103",54.676510018612,20.482889982165
679,Апартаменты Стрелецкая De Lux,"ул. Багратиона, 9",54.699199998146,20.514380038024
680,Апартаменты Ленинградская 5-2,"Театральный пер., 3",54.720209992826,20.491500040745
681,Апартаменты 1-к Комфорт класс,"Житомирская ул., 2",54.712690000754,20.506410021571
682,Апартаменты Лофт 26-103,"Тихорецкая ул., 22",54.684269984571,20.481639988945
683,Апартаменты на улице Багратиона 9,"ул. Рокоссовского, 11",54.718669985756,20.508259991421
684,Апартаменты Театральный Переулок,"Октябрьская ул., 17",54.70356001272,20.518100010472
685,Апартаменты Lux Plaza,"ул. Александра Суворова, 59",54.688827544404,20.464309585048
686,Апартаменты на Тихорецкой Калининград,"Малый пер., 3",54.702649989493,20.510629974543
687,Апартаменты on Rokossovskogo 11,"Барнаульская ул., 3",54.714399992821,20.50362002128
688,Апартаменты Обаяние Рыбной деревни за вашей дверью,"ул. Подполковника Иванникова, 12",54.718799989074,20.505790012193
689,Апартаменты в ЖК Уютный,"ул. Багратиона, 158",54.697830017981,20.495320009298
690,Апартаменты Малый Переулок 3,"Эпроновская ул., 1",54.700000008894,20.513200033695
