,Name,address,latitude,longitude
0,Хлеб и горчица,"площадь Победы, 10, этаж 1",54.719599999822,20.503890002381
1,Cult Bar & Kitchen,"Советский просп., 8",54.722549487048,20.499263322136
2,Моряна,"ул. Виктора Гюго, 1, Калининград",55.91417,37.82556
3,Мандарин,"ул. Профессора Баранова, 1, Калининград, этаж 1",54.721635198699,20.512596672719
4,Мамин сибиряк,"Озёрная ул., 1А",54.735839979134,20.508889975263
5,Штолле,"Барнаульская ул., 2Б, этаж 1",54.714759995562,20.503000011902
6,Готово,"ул. 9 Апреля, 9",54.715920009052,20.522300014516
7,Дредноут,"ул. Генделя, 5, этаж цокольный",54.721810014323,20.496100029208
8,Yummy garden,"Озёрная ул., 1А",54.735839979134,20.508889975263
9,Помним любим,"ул. Багратиона, 113",54.69813998076,20.49926998117
10,Круассан,"площадь Победы, 4А",54.721149981358,20.501139983768
11,Желатерия Италия,"Театральная ул., 30, этаж 2",54.717749988063,20.498990025604
12,Патиссон Markt,"просп. Мира, 26",54.722040013746,20.486290017369
13,Поварёшка,"Ленинский просп., 8",54.715499991884,20.503290025752
14,Бранч & Боул,"Театральная ул., 23",54.71702998258,20.499610034982
15,Гриль-кафе Огонёк,"просп. Победы, 2Б, Калининград",54.719999984242,20.475120041741
16,Вы достойны настоящего хлеба,"Ленинский просп., 2, Калининград",54.71219,20.50964
17,Фьюжн экспресс,"ул. Канта, 1А",54.706027517721,20.512034050332
18,Булочки Канта,"Театральная ул., 21, ТЦ Маяк",54.71656,20.50038
19,Калининград-Ташкент,"Октябрьская ул., 2А, Калининград, этаж 1, 2, 3",54.705090003416,20.514469975845
20,Мадам Буше,"ул. Горького, 23А",54.726609994996,20.50913003297
21,Фьюжн экспресс,"Ленинский просп., 67",54.713089985174,20.507779959826
22,Круассан,"Гвардейский просп., 10",54.717660008333,20.496170018099
23,На углях,"просп. Мира, 56А",54.721220012159,20.482929963843
24,Лепим и Варим,"ул. Грекова, 3, Калининград, район Центральный, этаж 1, помещение 1",54.720289998092,20.491210026895
25,Trip,"ул. Черняховского, 6А, Калининград, Port-o-Coffee",54.718910001553,20.503580039602
26,Port-o-Coffee,"Театральная ул., 30, Калининград, этаж 2",54.717749988063,20.498990025604
27,Брикас,"Ленинский просп., 81",54.71219002023,20.509639987959
28,Поварёшка,"Гвардейский просп., 3, этаж 3",54.715892059867,20.49416874524
29,Кукси Moon,"Советский просп., 16, этаж цокольный",54.723989979701,20.498830015072
30,Господа офицеры,"Ленинский просп., 7, этаж 1",54.71781000249,20.502570020269
31,Премьер-министр,"площадь Победы, 10, этаж 1",54.719599999822,20.503890002381
32,TastyLab Green,"ул. Тельмана, 3",54.728970003654,20.515990033986
33,"Эй, Джованни!","просп. Мира, 31",54.71974999398,20.48481999919
34,Фьюжн экспресс,"просп. Мира, 23",54.719769984819,20.486250035691
35,Круассан,"ул. Черняховского, 19",54.721070018001,20.518409973252
36,Кафе Июль,"ул. Черняховского, 15А, этаж 1",54.720159994774,20.508389994739
37,Kirin,"ул. Профессора Баранова, 34, этаж 7",54.721149981358,20.506389988822
38,Пышка,"ул. Сержанта Колоскова, 1Б",54.719530010931,20.48570998967
39,Delimeal,"ул. Шевченко, 11А",54.71170001417,20.511100031673
40,Бруклин,"просп. Мира, 41-43",54.72061999362,20.483140014337
41,Заря,"ул. Генерала Буткова, 16А",54.709819995197,20.494669992707
42,Броzzес,"просп. Мира, 59, Калининград",54.719910004511,20.478849988654
43,Бранч & Боул,"Каштановый пер., 3",54.718660011291,20.464290036105
44,Amalienau breakfast,"Октябрьская ул., 8, Калининград, этаж 1",54.702200007021,20.515790041776
45,Tastylab,"ул. Генерала Челнокова, 11, этаж 3",54.738030002796,20.486049959662
46,Да,"ул. Космонавта Леонова, 34Б",54.729250001129,20.482480023281
47,Калининград Ташкент лаунж,"просп. Мира, 84, этаж 1",54.720650000833,20.475769974513
48,Фьюжн экспресс,"площадь Победы, 4, этаж 1",54.720830002204,20.499880016083
49,Круассан,"Ленинский просп., 6",54.715660002416,20.503070000793
50,Патиссон Markt,"просп. Мира, 13",54.719090002924,20.49034995981
51,Шаурхолл,"ул. Генделя, 6",54.721719992683,20.497209960826
52,Остановка театр,"просп. Мира, 19",54.719450005665,20.487479996163
53,Пельменная,"площадь Победы, 10, Калининград, ТРЦ Кловер",54.719599999822,20.503890002381
54,Old brick,"ул. Профессора Баранова, 40",54.718599996864,20.499109970638
55,Строганина,"ул. Черняховского, 15, лит.Б",54.721700001844,20.513440007583
56,Avo Kitchen & Bar,"Верхнеозёрная ул., 16А",54.730310018514,20.522030033414
57,Шашлычная № 1,"Театральная ул., 30, Калининград, этаж 1",54.717749988063,20.498990025604
58,Чайка у озера,"Гаражная ул., 2, этаж 1",54.720890016631,20.502819968622
59,Port-o-Manufaktura,"ул. Тельмана, 3, корп. 1",54.72777998295,20.516320029514
60,Форма,"просп. Мира, 89, Калининград",55.91417,37.82556
61,Waffles House,"ул. 9 Апреля, 86А",54.713054200888,20.522501688184
62,Naked Baker,"Эпроновская ул., 6",54.700000008894,20.513990028069
63,Самарканд,"Октябрьская ул., 2, этаж 1",54.705229981199,20.514420019702
64,Bo-Bo,"Правая наб., 9, корп. 2",54.706409985529,20.472180005383
65,Феррум,"Нарвская ул., 47А",54.732749990529,20.496760020264
66,Bravo Italia,"ул. Фестивальная Аллея, 20",54.726180003363,20.469880011152
67,Руно,"ул. Лейтенанта Яналова, 2",54.730070002717,20.486360006261
68,Сова,"Ленинский просп., 30, ТРЦ Калининград Плаза, этаж 3",54.71121000811,20.508229984207
69,Мархамат,"Эпроновская ул., 20",54.704369997934,20.513479989261
70,Bravo Italia,"ул. Генерала Буткова, 19",54.709170020516,20.495670037575
71,Наше cafe,"ул. Александра Невского, 30",54.726870001632,20.528170028947
72,Бухта,"Советский просп., 125, этаж 3",54.740930015566,20.472740000334
73,Круассан,"ул. 9 Апреля, 1",54.716968282876,20.523714513894
74,Бистро № 1,"Советский просп., 8, Калининград",54.722810017282,20.496630016946
75,Königsbäcker,"Советский просп., 1",54.720630009994,20.497949999058
76,Mark Craft Burgers,"Юношеская ул., 6, точка самовывоза, подъезд 1",54.723349979484,20.506859962133
77,У быков,"просп. Мира, 31, Калининград",54.71974999398,20.48481999919
78,Золотой Жук,"Минская ул., 24",54.719710012302,20.511519965023
79,Skazka,"ул. Черняховского, 7",54.72012998756,20.507230023158
80,Plov Sity,"ул. Чайковского, 43",54.725939987565,20.483100032659
81,Фламинго,"Житомирская ул., 12",54.711499980051,20.506529966605
82,Чайковский,"просп. Мира, 31, Port-o-Coffee",54.71975,20.48482
83,TastyLab,"ул. Горького, 123, Калининград",54.736969985411,20.507049979878
84,Фьюжн экспресс,"ул. Карла Маркса, 18, Калининград, этаж 2",54.729219993916,20.480840020106
85,Port-o-Coffee,"Беломорская ул., 2",54.735090008348,20.511049991712
86,Котокафе Котомания,"ул. Черняховского, 15А, павильон б-03",54.720159994774,20.508389994739
87,Gameforce,"ул. Профессора Баранова, 1, Калининград, подъезд 2, этаж 1",54.721635198699,20.512596672719
88,Хачапури Хаус,"Солдатская ул., 2",54.738140015275,20.481030037851
89,Чайхана,"ул. 9 Апреля, 86А, Калининград",54.713054200888,20.522501688184
90,Блин да Кофе,"ул. Грига, 58А",54.715260017996,20.529739959412
91,Маяк,"ул. Богдана Хмельницкого, 37",54.697349986386,20.507630007578
92,Порт-Брю,"ул. Чкалова, 2А, Калининград",54.723311946268,20.459739158409
93,История в архитектуре,"ул. Горького, 150А",54.740210010084,20.505509972808
94,Уралочка,"ул. Багратиона, 91",54.698950007883,20.505109988388
95,Булочная,"Московский просп., 40, павильон 112, этаж 1",54.709370012725,20.502689965303
96,Amalienau bakery,"Советский просп., 8, Калининград",54.722810017282,20.496630016946
97,Königsbäcker,"ул. Генделя, 6",54.721719992683,20.497209960826
98,Круассан,"просп. Мира, 2А",54.720300014466,20.497390004107
99,Авеню,"площадь Победы, 10, этаж 1",54.719599999822,20.503890002381
100,Hoo doo,"площадь Победы, 4Б",54.721190004945,20.499769961694
101,Кофе блин,"Ленинский просп., 18, Калининград, этаж 1",54.713740001765,20.505400002238
102,Карл,"Пролетарская ул., 87",54.720170011148,20.513690039755
103,Циндао,"ул. Карла Маркса, 18, этаж 2",54.729219993916,20.480840020106
104,Ростерхит,"ул. Профессора Баранова, 34, этаж 1",54.721149981358,20.506389988822
105,Дело в Рыбе,"Советский просп., 16",54.723989979701,20.498830015072
106,Konigsbacker,"Елизаветинская ул., 4, Калининград",54.747487826083,20.484493342012
107,Батька Блин,"ул. Профессора Баранова, 1, этаж 1",54.721635198699,20.512596672719
108,Tastylab,"ул. Рокоссовского, 16/18",54.718500000759,20.50924000354
109,Ужин в темноте,"ул. Горького, 2А",54.721969982945,20.50740998262
110,Смокер Мит,"ул. Горького, 87, этаж 1",54.732619987211,20.508919982477
111,Кунжут,"Солнечный бул., 1, этаж 1",54.704580006518,20.517649986091
112,Soul Garden,"ул. Сергеева, 2, 1",54.714840000828,20.51465999359
113,TTcoffee,"наб. Петра Великого, 1, этаж 1",54.706630010487,20.500570014352
114,У Руслана,"Елизаветинская ул., 3",54.746419994508,20.488079972792
115,Олимп,"Ленинский просп., 30, этаж 3",54.71121000811,20.508229984207
116,Villa Ченто,"ул. Петра Панина, 2А, корп. 1, Ленинградский район, микрорайон Сельма",54.746374611273,20.495284654887
117,Морека,"Ленинский просп., 60",54.700920006587,20.50323998579
118,Блинский,"ул. Согласия, 2",54.74134001636,20.495740026466
119,День Селедки,"Советский просп., 2А, этаж 1",54.721600005739,20.499320021132
120,Кимчи,"Гвардейский просп., 3, Калининград",54.715892059867,20.49416874524
121,Китайский вкус,"ул. Горького, 96, этаж 1",54.732089999473,20.512220021576
122,Meat grill,"Театральная ул., 30, этаж 1",54.717749988063,20.498990025604
123,FeelDeFish,"ул. Фестивальная Аллея, 8",54.724570007401,20.414760029137
124,Есть Еда,"Ленинский просп., 23",54.716350000685,20.503350040178
125,Трдельник,"Ленинский просп., 18",54.713740001765,20.505400002238
126,Пан пончик,"площадь Маршала Василевского, 2",54.719849990085,20.523610022163
127,Cheezy Doner & Burgers,"ул. Профессора Баранова, 1, Калининград, этаж 1",54.721635198699,20.512596672719
128,Food тут,"ул. Горького, 2, подъезд 1, этаж 3",54.721559982152,20.509249978005
129,Marzipan,"Октябрьская ул., 2А, этаж 6",54.705090003416,20.514469975845
130,Шотыгде?,"ул. Некрасова, 21, этаж цокольный",54.735400013037,20.526549974702
131,Opera,"просп. Мира, 61, этаж 1",54.720439992249,20.4735999836
132,Шауroom,"ул. Карла Маркса, 18, Port-o-coffee",54.729219993916,20.480840020106
133,Taj Mahal,"ул. Герцена, 50, Калининград",54.750650005765,20.531299999231
134,Королевский трдельник,"ул. Профессора Баранова, 1, этаж 1",54.721635198699,20.512596672719
135,Кит-Чен,"ул. Чекистов, 14",54.732109990312,20.480989972353
136,Свидание на Маяке,"ул. Согласия, 44А",54.74948001781,20.488529997174
137,NEкрасOFF,"ул. Герцена, 28В",54.748730005114,20.528340013944
138,Königsbäcker,"Малый пер., 32, этаж -1",54.700490014954,20.511100031673
139,Port-o-coffee,"Полоцкая ул., 45В",54.703210386993,20.499260415549
140,Doner house,"ул. Фрунзе, 15А, ТЦ Виктория, этаж 2",54.7127,20.52113
141,Sweet & Salty,"ул. Фрунзе, 35",54.712900009338,20.523829963302
142,Наутилус,"ул. Горького, 2, подъезд 1, этаж 4",54.721559982152,20.509249978005
143,Другое Место,"Советский просп., 8",54.722549487048,20.499263322136
144,Угли$мясо,"пер. Кирова, 1А",54.724761039464,20.494762100933
145,Кафе-столовая,"Житомирская ул., 2",54.712690000754,20.506410021571
146,Как дома,"пер. Чернышевского, 2",54.726650018583,20.468219975228
147,Высший вкус,"ул. Черняховского, 15, лит.Б, за остановкой, этаж 1",54.721700001844,20.513440007583
148,Абажур,"Московский просп., 1А",54.711449981998,20.494769988812
149,История,"ул. Фестивальная Аллея, 8",54.724570007401,20.414760029137
150,China street wok,"Верхнеозёрная ул., 2А",54.730200006035,20.519299963731
151,Микс ФУД,"ул. Черняховского, 15, лит.Б",54.721700001844,20.513440007583
152,Блинчик,"ул. Сержанта Колоскова, 1Б",54.719530010931,20.48570998967
153,Пиросмани,"ул. Тельмана, 48А",54.736739985988,20.52503000038
0,Столовая № 1,"ул. Дмитрия Донского, 1",54.717760004437,20.493919980011
1,Готово,"ул. 9 Апреля, 9",54.715920009052,20.522300014516
2,Хлеб и горчица,"площадь Победы, 10, этаж 1",54.719599999822,20.503890002381
3,Столовка,"Ленинский просп., 18, этаж 1",54.713740001765,20.505400002238
4,Поварёшка,"Ленинский просп., 81",54.71219002023,20.509639987959
5,Поварёшка,"просп. Мира, 61, ТЦ Спутник, этаж 1",54.72044,20.4736
6,А компот?,"Советский просп., 68",54.731439982882,20.48898999602
7,Ялта,"Московский просп., 164",54.70947000883,20.542320022612
8,Ложка,"Московский просп., 83",54.70937998719,20.517510008308
9,Кошерная столовая,"Октябрьская ул., 1А",54.705819983364,20.514999963583
10,Хюгге,"Гаражная ул., 2А",54.724479985761,20.505349962276
11,Пышка,"ул. Профессора Баранова, 34, этаж 7",54.721149981358,20.506389988822
12,Кафе-столовая,"Малый пер., 32, этаж -1",54.700490014954,20.511100031673
13,Столовая,"Солдатская ул., 7А",54.738527236558,20.482135107976
14,Бистро № 1,"Советский просп., 125, этаж 3",54.740930015566,20.472740000334
15,Блинчик,"Житомирская ул., 2",54.712690000754,20.506410021571
16,Заводская столовая,"Гвардейский просп., 15, этаж 2",54.716619736483,20.495129390267
17,Янтарьэнерго,"Театральная ул., 34",54.718139998018,20.498389965155
18,Столовая,"ул. Сергеева, 10, этаж 2",54.717590019441,20.518169999364
19,Тарелочка,"просп. Мира, 98, этаж цокольный",54.721680011005,20.470519969459
20,Симбад,"Советский просп., 107, этаж 1",54.738049993635,20.478159990384
21,Столовая,"ул. Черняховского, 15А, этаж 2",54.720159994774,20.508389994739
22,Кушать подано,"ул. Дзержинского, 73А",54.686909990705,20.533420034001
23,Лимонад,"ул. Горького, 166",54.748129986575,20.502300039168
24,Столовая,"Киевская ул., 80, корп. 5",54.681910017823,20.473940037412
25,Василек,"ул. Нансена, 68",54.694700005788,20.476580001636
26,СССР,"Портовая ул., 55",54.698280000453,20.476749986632
27,Причал,"Молодёжная ул., 6",54.738739991905,20.515010021867
28,Столовая,"Тихорецкий тупик, 2А, этаж 1",54.683839992938,20.495440038152
29,Столовая,"ул. Маршала Баграмяна, 2",54.707450012075,20.504089994591
30,Юность,"ул. Дзержинского, 167Б",54.670850012764,20.545970006169
31,Буффетная,"ул. 9 Апреля, 100",54.719819982871,20.526949959121
32,Глория,"ул. Дзержинского, 73А, этаж 1",54.686909990705,20.533420034001
33,Столовая № 73,"Железнодорожная ул., 7",54.713249995705,20.566910011958
34,Столовая-Буфет,"ул. Согласия, 2",54.74134001636,20.495740026466
35,Есть Еда,"Озёрная ул., 31А",54.739550019027,20.509930001809
36,Весёлая ложка,"ул. Черняховского, 78А",54.720409985036,20.517740007731
37,Мы из СССР,"Дачная ул., 6, этаж 1",54.748339995159,20.449049975932
38,39 Bistro,"Транспортная ул., 17А, этаж 1",54.692979997347,20.462460015184
39,Столовая,"Клиническая ул., 83А",54.719599999822,20.52240001062
40,Пышка,"ул. Дзержинского, 244",54.653910018808,20.541389966636
41,Буфет,"Ялтинская ул., 44, корп. 1",54.704270001829,20.547129977749
42,Столовая,"Камская ул., 80",54.663140002947,20.453739986035
43,Столовая,"Московский просп., 121А, этаж цокольный",54.709939982141,20.528370021157
44,Кафе-столовая на Камской,"Туруханская ул., 1А",54.754420018175,20.555380033588
45,Сытый Папа,"Судостроительная ул., 75, стр. 5",54.680880007651,20.504219997909
46,Татьяна,"ул. Герцена, 2/1",54.74443997943,20.520270001385
47,Буфет,"ул. Юрия Гагарина, 225кВ1",54.72181337345,20.544436365961
48,Столовая,"Транспортная ул., 17А",54.692979997347,20.462460015184
49,Столовая,"ул. Маршала Борзова, 65А",54.735979998827,20.472530033659
50,Столовая,"Судостроительная ул., 6",54.6810999907,20.487129967887
51,Лоуку,"Промышленная ул., 8, посёлок Кутузово, этаж 2",54.767597851963,20.529304145853
52,Столовая,"Орудийная ул., 105",54.747150016365,20.562779996806
53,Kebab&Steak,"Индустриальная ул., 5, посёлок Невское",54.747079985564,20.572529994218
54,Пышка,"ул. Ермака, 3, этаж цокольный",54.721250019372,20.47786000207
55,Столовая,"Туруханская ул., 3А, корп. 2, посёлок Невское",54.758260019477,20.562979989016
