,Name,address,latitude,longitude
0,Альфа-Банк,"площадь Победы, 4, офис банка Калининград-Ипотека 1",54.720830002204,20.499880016083
1,Альфа-Банк,"ул. Шевченко, 11А",54.71170001417,20.511100031673
2,Тинькофф,"Театральная ул., 30, этаж 1",54.717749988063,20.498990025604
3,ВТБ,"ул. Юрия Гагарина, 58",54.725960020314,20.554419970398
4,Сбербанк,"Московский просп., 12",54.710129999886,20.496179992564
5,Тинькофф,"Ленинский просп., 30, этаж 1",54.71121000811,20.508229984207
6,Альфа-Банк,"площадь Калинина, 28, Супермаркет Виктория",54.6948,20.50113
7,Сбербанк,"Октябрьская ул., 6А, этаж 1",54.702970010556,20.515609998496
8,Сбербанк,"ул. Елены Ковальчук, 5",54.71994998619,20.473829983023
9,Сбербанк,"ул. Зои Космодемьянской, 4",54.684470018691,20.524409991002
10,Сбербанк,"Ленинский просп., 32, этаж 1",54.710470011789,20.507809967039
11,ВТБ,"Ленинский просп., 28, ОО На Ленинском проспекте Калининград, филиал 7806 г, этаж 1",54.712060016911,20.507539985938
12,Сбербанк,"Киевская ул., 101",54.681040018183,20.474319989083
13,"Промсвязьбанк, банкомат","Ленинский просп., 4",54.715859994626,20.502849975835
14,ВТБ,"Театральная ул., 30, этаж 1",54.717749988063,20.498990025604
15,Сбербанк,"ул. Виктора Гюго, 1, этаж 1",54.708119633931,20.505508681121
16,"Банк Хоум Кредит, банкомат","Ленинский просп., 67Б, ТЦ Меркурий, этаж 1",54.712909983803,20.507939970357
17,Газпромбанк,"просп. Мира, 44",54.720780004152,20.484959976973
18,Сбербанк,"ул. Фестивальная Аллея, 8, магазин Бутыль",54.724570007401,20.414760029137
19,Сбербанк,"ул. Черняховского, 4Б",54.718819979913,20.503079975258
20,ВТБ,"просп. Мира, 63, этаж 1",54.720630009994,20.473179966432
21,ВТБ,"Ленинский просп., 32, этаж 1",54.710470011789,20.507809967039
22,Сбербанк,"Советский просп., 2А",54.721600005739,20.499320021132
23,Сбербанк,"ул. Багратиона, 89, магазин Семья",54.698969998722,20.505369995025
24,Сбербанк,"ул. Карла Маркса, 49, Калининград",54.725069987925,20.469260001774
25,Банк Открытие,"Ленинский просп., 30, Калининград, ТРЦ Калининград плаза, этаж 1",54.71121000811,20.508229984207
26,ВТБ,"Ленинский просп., 89, Калининград, 1338 ОО «Прегольский» (г. Калининград), филиал №7806",54.703840010196,20.506740017099
27,Банк Открытие,"Ленинский просп., 95, Калининград",54.71219,20.50964
28,Совкомбанк,"Ленинский просп., 105, Калининград, офис №115",54.703009992234,20.505680041623
29,Хоум Кредит,"Театральная ул., 23, Калининград",54.71702998258,20.499610034982
30,Сбербанк,"Ленинский просп., 36, Калининград",54.71219,20.50964
31,Сбербанк,"площадь Калинина, 28, Калининград, этаж 1",54.694689989413,20.501509960974
32,Почта банк,"Ленинский просп., 6, Калининград",54.71219,20.50964
33,ВТБ,"ул. Генерала Буткова, 16, Калининград, этаж 1",54.709450017991,20.494600003816
34,Энерготрансбанк,"Ленинский просп., 30, Калининград, этаж 1",54.71121000811,20.508229984207
35,Сбербанк,"Озёрный пр., 2, Калининград, этаж 1",54.721500009634,20.516560003402
36,Банк Авангард,"Московский просп., 46, Калининград, офис банка Авангард",54.708910013879,20.502410009737
37,Банк Санкт-Петербург,"Ленинский просп., 52, Калининград, ТЦ Мода центр",54.701499992377,20.503859995168
38,Промсвязьбанк,"ул. Дзержинского, 35, Калининград, Бауцентр, NFC - бесконтактное обслуживание",54.695809979316,20.52589995811
39,Совкомбанк,"ул. Багратиона, 100, Калининград",54.699379999516,20.505490023878
40,Газпромбанк,"Ленинский просп., 30, Калининград, ТЦ Плаза",54.71121000811,20.508229984207
41,Энерготрансбанк,"Ленинский просп., 42В, Калининград",54.702699987545,20.504299961265
42,Сбербанк,"наб. Петра Великого, 1, Калининград, этаж 1",54.706630010487,20.500570014352
43,Сбербанк,"Краснооктябрьская ул., 1, Калининград",54.702569984227,20.505809961122
44,Сбербанк,"Пролетарская ул., 57, Калининград",54.71741001807,20.512569966033
45,ВТБ,"Краснооктябрьская ул., 1, Калининград, ООО «Евроритеил»",54.702569984227,20.505809961122
46,Газпромбанк,"Ленинский просп., 5, Калининград",54.71219,20.50964
47,Совкомбанк,"ул. Черняховского, 6А, Калининград",54.718910001553,20.503580039602
48,Сбербанк,"ул. Новый Вал, 33, Калининград",54.699779983936,20.510499971225
49,Альфа-Банк,"ул. Черняховского, 34, Калининград",54.719849990085,20.509639987959
50,Росбанк,"Ленинский просп., 30, ТРЦ Калининград Плаза, этаж 1",54.71121000811,20.508229984207
51,Сбербанк,"Мариупольская ул., 14, этаж 1",54.708439998659,20.498860022285
52,Газпромбанк,"Краснооктябрьская ул., 1, Новая, аптека № 5",54.702569984227,20.505809961122
53,Россельхозбанк,"Гостиная ул., 3, этаж 1",54.719100019298,20.488450033818
54,ВТБ,"ул. Дзержинского, 35, магазин Бауцентр",54.695809979316,20.52589995811
55,Альфа-Банк,"Солнечный бул., 1, Супермаркет Виктория",54.70458,20.51765
56,Сбербанк,"просп. Мира, 31, этаж 1",54.71974999398,20.48481999919
57,ВТБ,"Советский просп., 2, В здании вокзала",54.721400013529,20.499989986653
58,Банк Авангард,"ул. Багратиона, 91, магазин Капля",54.698950007883,20.505109988388
59,Промсвязьбанк,"Барнаульская ул., 4, подъезд 1",54.713850014244,20.502010025318
60,Банк ДОМ.РФ,"площадь Победы, 10, этаж 1",54.719599999822,20.503890002381
61,Сбербанк,"ул. Александра Невского, 28",54.72672998194,20.528010018416
62,Сбербанк,"ул. Фрунзе, 73А",54.713055024225,20.529033632761
63,Локо-Банк,"Ленинский просп., 97",54.703619985238,20.505999978867
64,Банк Открытие,"Театральная ул., 30, этаж цокольный",54.717749988063,20.498990025604
65,Сбербанк,"площадь Победы, 1",54.719250013455,20.500440011034
66,Сбербанк,"Клиническая ул., 74, этаж 1",54.717649991958,20.522149978449
67,Сбербанк,"Московский просп., 24",54.709810020733,20.499550020555
68,Почта банк,"ул. Черняховского, 32",54.719819982871,20.509370006858
69,"СМП банк, банкомат","Ленинский просп., 109А, подъезд 1",54.701690010122,20.504940003392
70,Сбербанк,"Театральная ул., 30, этаж 0",54.717749988063,20.498990025604
71,Газпромбанк,"ул. Генерал-Лейтенанта Озерова, 17, корп. 1, этаж 1",54.725709988142,20.50254998752
72,Почта банк,"Московский просп., 99, Отделение почта банка",54.709630019362,20.523940017691
73,Тинькофф,"ул. Фрунзе, 15А, Супермаркет «Виктория»",54.712700017128,20.521129984651
74,Московский Кредитный банк,"Театральная ул., 36, ДО Калининградский",54.718619987703,20.49597002589
75,Россельхозбанк,"Театральная ул., 21, Калининград, этаж 1",54.716560009269,20.500379996607
76,ВТБ,"ул. Фрунзе, 15А, этаж 1",54.712700017128,20.521129984651
77,Сбербанк,"Полоцкая ул., 45, этаж 1",54.702059987328,20.498149991267
78,Банк Санкт-Петербург,"Московский просп., 40, этаж 1",54.709370012725,20.502689965303
79,ВТБ,"ул. Кирова, 7",54.724320017139,20.494349971644
80,Промсвязьбанк,"ул. Горького, 2, подъезд 1, этаж 1",54.721559982152,20.509249978005
81,Почта банк,"Советский просп., 2А, этаж 1",54.721600005739,20.499320021132
82,Банк Санкт-Петербург,"Ленинский просп., 30, этаж 1",54.71121000811,20.508229984207
83,Сбербанк,"ул. Литовский Вал, 2, подъезд 3, этаж 1",54.719669057583,20.52859332773
84,Сбербанк,"ул. Черняховского, 15, лит.Б, Центральный рынок, этаж 1",54.721700001844,20.513440007583
85,Совкомбанк,"просп. Мира, 66",54.720990012736,20.4814499712
86,Энерготрансбанк,"Ленинский просп., 83А",54.704519992091,20.508759971945
87,Банк Открытие,"просп. Мира, 84, этаж 1",54.720650000833,20.475769974513
88,Россельхозбанк,"ул. Горького, 2, подъезд 1, этаж 1",54.721559982152,20.509249978005
89,ВТБ,"площадь Калинина, 28, этаж 1",54.694689989413,20.501509960974
90,Сбербанк,"Театральная ул., 21, этаж 1",54.716560009269,20.500379996607
91,Сбербанк,"Советский просп., 38А",54.726950006898,20.4950099627
92,"Банк Синара, банкомат","Ленинский просп., 30А",54.711590001691,20.507479971511
93,ВТБ,"ул. Карла Маркса, 18, этаж 1",54.729219993916,20.480840020106
94,Банк Зенит,"Ленинский просп., 155А",54.696060011487,20.50254998752
95,ВТБ,"Железнодорожная ул., 17, этаж 1",54.694730013001,20.497589996316
96,Россельхозбанк,"ул. Литовский Вал, 2",54.719669057583,20.52859332773
97,Банк Открытие,"площадь Победы, 1",54.719250013455,20.500440011034
98,Газпромбанк,"Гвардейский просп., 15",54.716619736483,20.495129390267
99,Сбербанк,"наб. Петра Великого, 7",54.70696998048,20.495729968183
100,Сбербанк,"ул. Шевченко, 11А",54.71170001417,20.511100031673
101,ВТБ,"ул. Профессора Баранова, 34, этаж 1",54.721149981358,20.506389988822
102,Почта банк,"Краснооктябрьская ул., 6",54.700959988265,20.511950040475
103,Альфа-Банк,"Московский просп., 135, Супермаркет SPAR",54.71014,20.53248
104,ВТБ,"Киевская ул., 1",54.692289999077,20.505000017819
105,ВТБ,"Железнодорожная ул., 17",54.694730013001,20.497589996316
106,Сбербанк,"ул. Александра Суворова, 40",54.693619997564,20.472700018656
107,Сбербанк,"Московский просп., 123А, этаж 1",54.710019987407,20.529330000528
108,Почта банк,"Железнодорожная ул., 27",54.729469984178,20.588150006061
109,ОТП Банк,"ул. Черняховского, 56",54.720209992826,20.513279997051
110,Сбербанк,"Солнечный бул., 1, этаж 1",54.704580006518,20.517649986091
111,Сбербанк,"ул. Дзержинского, 42",54.692389995182,20.526909977443
112,Сбербанк,"Киевская ул., 17",54.689120005206,20.499959979439
113,ВТБ,"ул. Генерал-Лейтенанта Озерова, 17Б, ТЦ Мега центр, этаж 1",54.725900005887,20.501290019835
114,ВТБ,"площадь Победы, 10, этаж 1",54.719599999822,20.503890002381
115,ВТБ,"Московский просп., 135, магазин Спар",54.70924,20.5314
116,СМП Банк,"Ленинский просп., 109А, подъезд 1",54.701690010122,20.504940003392
117,Банк Санкт-Петербург,"Театральная ул., 30, атриум Лондон",54.717749988063,20.498990025604
118,Райффайзенбанк,"Театральная ул., 30, Калининград, Офиц ""Калининградский"", этаж -1",54.717749988063,20.498990025604
119,Сбербанк,"Мукомольная ул., 2, этаж 1",54.689280015737,20.522270007302
120,Банк Санкт-Петербург,"Зарайская ул., 15, Бесконтактное обслуживание NFC. На улице, справа от входа",54.710359999309,20.517480001094
121,Газпромбанк,"ул. Генерала Толстикова, 2, магазин Spar",54.674196978716,20.500010075411
122,Сбербанк,"ул. Сержанта Колоскова, 4А",54.717489981427,20.484880013617
123,Россельхозбанк,"ул. Александра Невского, 53, этаж 1",54.731740013106,20.530760037029
124,Сбербанк,"ул. Профессора Баранова, 34, этаж 1",54.721149981358,20.506389988822
125,Райффайзенбанк,"Краснооктябрьская ул., 1",54.702569984227,20.505809961122
126,Энерготрансбанк,"ул. Черняховского, 15, лит.Б",54.721700001844,20.513440007583
127,Тинькофф,"площадь Калинина, 28, Супермаркет «Виктория», центральный вход, этаж 1",54.694689989413,20.501509960974
128,Сбербанк,"ул. 9 Апреля, 1, этаж 1",54.716968282876,20.523714513894
129,Почта банк,"Московский просп., 40, этаж 1",54.709370012725,20.502689965303
130,"Банк Санкт-Петербург, банкомат","Батальная ул., 52",54.675890009234,20.499260006705
131,Газпромбанк,"Киевская ул., 84",54.681440002602,20.473209973645
132,Почта банк,"ул. Горького, 2, этаж 1",54.721559982152,20.509249978005
133,Альфа-Банк,"ул. 9 Апреля, 9, Супермаркет Виктория",54.71592,20.5223
134,Альфа-Банк,"Театральная ул., 35, этаж 1",54.717749988063,20.497260000788
135,Морской банк,"Театральная ул., 21, этаж 1",54.716560009269,20.500379996607
136,Банк Санкт-Петербург,"ул. Горького, 96",54.732089999473,20.512220021576
137,Сбербанк,"ул. Сергеева, 4, этаж 0",54.715100007465,20.515740001814
138,Сбербанк,"Гвардейский просп., 3, этаж 0",54.715892059867,20.49416874524
139,Тинькофф,"Театральная ул., 21, этаж 1",54.716560009269,20.500379996607
140,Энерготрансбанк,"ул. Дзержинского, 74А, ТД Семья",54.690519992584,20.529610039913
141,ВТБ,"ул. Дмитрия Донского, 19, этаж 1",54.715080016626,20.486490009579
142,Банк Авангард,"ул. Фрунзе, 15А, этаж 1",54.712700017128,20.521129984651
143,Сбербанк,"ул. Александра Невского, 31",54.727640005167,20.527689997353
144,Почта банк,"ул. Кирова, 17",54.724750008772,20.492369998476
145,Сбербанк,"ул. 9 Апреля, 1",54.716968282876,20.523714513894
146,Сбербанк,"Великолукская ул., 20",54.683010016886,20.481010005102
147,Сбербанк,"Батальная ул., 17А",54.678220010678,20.496760020264
148,Сбербанк,"ул. Куйбышева, 2, офис банка Калининград-Академический",54.725759986195,20.547259981067
149,Альфа-Банк,"площадь Победы, 4А, этаж 1",54.721149981358,20.501139983768
150,"Открытие, банкомат","Солнечный бул., 1, этаж 1",54.704580006518,20.517649986091
151,ВТБ,"площадь Победы, 4, офис банка Калининград-Янтарь",54.720830002204,20.499880016083
152,Альфа-Банк,"ул. Ульяны Громовой, 30, ТЦ Максимус",54.671729986869,20.500070033828
153,ВТБ,"ул. Генерал-Лейтенанта Озерова, 17, корп. 1",54.725709988142,20.50254998752
154,Сбербанк,"ул. Литовский Вал, 2, подъезд 3, этаж 1",54.719669057583,20.52859332773
155,ВТБ,"ул. 9 Апреля, 1",54.716968282876,20.523714513894
156,Почта банк,"ул. Черняховского, 36",54.719860006459,20.509830005704
157,Банк Русский Стандарт,"ул. 9 Апреля, 9",54.715920009052,20.522300014516
158,ВТБ,"ул. Горького, 2, подъезд 1",54.721559982152,20.509249978005
159,Сбербанк,"ул. Профессора Баранова, 34, этаж 1",54.721149981358,20.506389988822
160,Банк Открытие,"ул. Черняховского, 15, лит.Б",54.721700001844,20.513440007583
161,Энерготрансбанк,"ул. Черняховского, 66",54.720250016414,20.514799971373
162,Банк Авангард,"Красная ул., 142, Супермаркет Виктория",54.73783,20.47415
163,Альфа-Банк,"ул. Фрунзе, 19",54.713399989863,20.521029988546
164,МТС банк,"ул. Дзержинского, 35, Строительный, магазин Бауцентр",54.77925,20.5956
165,Альфа-Банк,"площадь Калинина, 28, этаж 1",54.694689989413,20.501509960974
166,Райффайзенбанк,"ул. Горького, 2, подъезд 1, этаж 1",54.721559982152,20.509249978005
167,Энерготрансбанк,"Портовая ул., 24, корп. 30",54.699560000887,20.477560013755
168,ВТБ,"Киевская ул., 71, Киноленд, этаж 1",54.68141,20.48251
169,Сбербанк,"ул. 9 Апреля, 50А, этаж 1",54.715599987989,20.524030039331
170,ВТБ,"Киевская ул., 1, Управление Калининградской железной дороги",48.36855152491,37.880441962819
171,Банк Санкт-Петербург,"Летняя ул., 3",54.678660018686,20.489319991548
172,ВТБ,"Красная ул., 102",54.732680001637,20.474579995719
173,Сбербанк,"ул. Шевченко, 3",54.711729979474,20.510550011187
174,Сбербанк,"ул. Профессора Баранова, 34, этаж 1",54.721149981358,20.506389988822
175,Кузнецкбизнесбанк,"ул. Шевченко, 11А",54.71170001417,20.511100031673
176,Банк Санкт-Петербург,"ул. Черняховского, 32",54.719819982871,20.509370006858
177,Локо-Банк,"Солнечный бул., 1, Супермаркет «Виктория»",54.704580006518,20.517649986091
178,Альфа-Банк,"ул. Дзержинского, 35, магазин Бауцентр, этаж 1",54.695809979316,20.52589995811
179,Тинькофф,"Адмиральская ул., 1",54.715269992461,20.464479970031
180,Банк Санкт-Петербург,"ул. Мусоргского, 10А, этаж 1",54.726360004733,20.501950010891
181,Банк Открытие,"Автомобильная ул., 22",54.67441001659,20.490170000349
182,Сбербанк,"ул. Дмитрия Донского, 1, Правительство Калининградской области, столовая",54.71776,20.49392
183,Сбербанк,"Киевская ул., 119Б, магазин Spar",54.681160005127,20.468189968014
184,Газпромбанк,"ул. Генерала Галицкого, 30",54.711499980051,20.492569990685
185,ВТБ,"ул. Александра Невского, 36, Новая, аптека №7",54.72755,20.52902
186,Сбербанк,"ул. 9 Апреля, 1",54.716968282876,20.523714513894
187,Газпромбанк,"ул. Куйбышева, 91А, этаж 1",54.726379995573,20.537289958697
188,МТС банк,"ул. Генерала Челнокова, 21, ТЦ Green Market",54.73932,20.48595
189,Сбербанк,"ул. Чайковского, 45, этаж 1",54.726037579012,20.48278288019
190,Альфа-Банк,"площадь Победы, 10, этаж 1",54.719599999822,20.503890002381
191,Почта банк,"Театральная ул., 30, этаж 1",54.717749988063,20.498990025604
192,Freedom Finance,"площадь Победы, 4А, операционный зал, этаж 1",54.721149981358,20.501139983768
193,Банк Санкт-Петербург,"ул. Согласия, 2, Строительный, магазин Бауцентр",54.74134001636,20.495740026466
194,Банк Открытие,"Театральная ул., 30, На напротив входа с парковки, этаж цокольном",54.717749988063,20.498990025604
195,Альфа-Банк,"Интернациональная ул., 27А",54.669800011753,20.501130009303
196,Банк Санкт-Петербург,"ул. Александра Суворова, 40, ТД Семья, этаж 1",54.693619997564,20.472700018656
197,Россельхозбанк,"ул. Куйбышева, 91А, ТЦ Виктория",54.726379995573,20.537289958697
198,ВТБ,"Правая наб., 2",54.705919979469,20.487240022275
199,Росбанк,"ул. Виктора Гюго, 1",54.708119633931,20.505508681121
200,Росгосстрах банк,"Мариупольская ул., 14, этаж 1",54.708439998659,20.498860022285
201,Сбербанк,"Машиностроительная ул., 64",54.678929999787,20.50448997901
202,Сбербанк,"ул. Генерала Челнокова, 11, этаж 1",54.738030002796,20.486049959662
203,Почта банк,"Советский просп., 38",54.72682000358,20.49519000598
204,ВТБ,"ул. Горького, 104",54.735509983606,20.509519959106
205,Почта банк,"Нарвская ул., 58",54.733459979637,20.502329962562
206,ВТБ,"Минусинская ул., 16, Супермаркет SPAR",54.67768,20.47552
207,Банк Санкт-Петербург,"ул. Дзержинского, 79",54.684640003687,20.53500002275
208,Альфа-Банк,"ул. Некрасова, 18, этаж 1",54.735639986925,20.527199991293
209,Сбербанк,"ул. Кутузова, 39",54.715770014895,20.46188996195
210,Сбербанк,"Озёрная ул., 5",54.741280001933,20.430910028718
211,Банк Санкт-Петербург,"ул. Горького, 162В",54.744089993063,20.502210017528
212,Сбербанк,"ул. Генерала Челнокова, 11, этаж 1",54.738030002796,20.486049959662
213,Энерготрансбанк,"Печатная ул., 21Б",54.672599986509,20.480559980721
214,Сбербанк,"ул. Дзержинского, 35, этаж 1",54.695809979316,20.52589995811
215,Сбербанк,"Минусинская ул., 16",54.677680006566,20.47552002616
216,Сбербанк,"ул. Генерал-Лейтенанта Озерова, 47А, этаж 1",54.724889986555,20.508829960836
217,Энерготрансбанк,"Минусинская ул., 16",54.677680006566,20.47552002616
218,БКС Банк,"Клиническая ул., 83А",54.719599999822,20.52240001062
219,Сбербанк,"ул. Профессора Баранова, 30, ТЦ ""Эпицентр""",54.72121,20.5093
220,ВТБ,"Озёрная ул., 1А",54.735839979134,20.508889975263
221,Энерготрансбанк,"Батальная ул., 62А, этаж 1",54.674719979369,20.500089982757
222,"Локо-Банк, банкомат","ул. Профессора Баранова, 30, ТЦ ""Эпицентр""",54.72121,20.5093
223,Морской банк,"Озёрная ул., 1А",54.735839979134,20.508889975263
224,ВТБ,"Батальная ул., 62А, этаж 1",54.674719979369,20.500089982757
225,"Локо-Банк, банкомат","ул. Александра Невского, 14",54.724160006607,20.527320020146
226,Морской банк,"площадь Победы, 4А, этаж 1",54.721149981358,20.501139983768
227,ВТБ,"ул. Генерала Челнокова, 21",54.739491653146,20.485866119023
228,"Газпромбанк, банкомат","ул. Сергеева, 4, этаж 1",54.715100007465,20.515740001814
229,Энерготрансбанк,"ул. Согласия, 1",54.740520014772,20.493240040025
230,Банк Открытие,"ул. Куйбышева, 2",54.725338067564,20.537351035001
231,ВТБ,"ул. Фрунзе, 17",54.713280002919,20.520620029662
232,ВТБ,"ул. Горького, 2",54.721559982152,20.509249978005
233,Кузнецкбизнесбанк,"ул. Горького, 148",54.739550019027,20.505590019983
234,МТС Банк,"Ленинский просп., 30, этаж 1",54.71121000811,20.508229984207
235,СМП Банк,"Нарвская ул., 46, этаж 1",54.731740013106,20.498129958519
236,Почта банк,"Туркменская ул., 1",54.729080016133,20.475959992258
237,Тинькофф,"бул. Любови Шевцовой, 1, магазин Виктория",54.67139,20.50276
238,Банк Санкт-Петербург,"ул. Олега Кошевого, 37А, Бесконтактное обслуживание NFC. На входе возле касс",54.668919995739,20.512929968775
239,Энерготрансбанк,"ул. Кирова, 24, этаж 1",54.72624001779,20.489919968178
240,ВТБ,"Театральная ул., 30",54.717749988063,20.498990025604
241,Банк Санкт-Петербург,"ул. Сергеева, 8",54.716629998161,20.51698002057
242,Газпромбанк,"Машиностроительная ул., 60",54.67925002085,20.502619976412
243,Банкомат Сбербанка России,"Красная ул., 142, этаж 1",54.737830010586,20.474150004086
244,Сбербанк,"площадь Калинина, 28",54.694689989413,20.501509960974
245,Сбербанк,"просп. Мира, 72А",54.720960005522,20.480220010728
246,Сбербанк,"Интернациональная ул., 59А",54.669789995379,20.508710015802
247,Банк ВТБ,"ул. Сергеева, 8",54.716629998161,20.51698002057
248,Транскапиталбанк,"Машиностроительная ул., 60",54.67925002085,20.502619976412
249,Сбербанк,"Красная ул., 142, этаж 1",54.737830010586,20.474150004086
250,Сбербанк,"площадь Калинина, 28",54.694689989413,20.501509960974
251,Сбербанк,"просп. Мира, 72А",54.720960005522,20.480220010728
252,Сбербанк,"Интернациональная ул., 59А",54.669789995379,20.508710015802
253,Банк ВТБ,"Зелёная ул., 76",54.739340010443,20.503569981318
254,Транскапиталбанк,"Интернациональная ул., 30, этаж 1",54.668830016008,20.501130009303
255,Сбербанк,"ул. Черняховского, 15А",54.720159994774,20.508389994739
256,Сбербанк,"Интернациональная ул., 76, этаж 1",54.668819999634,20.510259997337
257,Сбербанк,"ул. Александра Невского, 90",54.74057998729,20.535590024914
258,Сбербанк,"Автомобильная ул., 18Б",54.675539980957,20.492079984626
259,Банк Открытие,"Автомобильная ул., 22, Бесконтактное обслуживание NFC. Внести - рубли, евро и доллары США. Справа от входа",54.70907,20.50928
260,Сбербанк,"ул. Александра Невского, 137Б, Спар, этаж 1",54.741820006045,20.531759998077
261,Сбербанк,"ул. Горького, 18",54.725199991244,20.509730009599
262,Банк Санкт-Петербург,"ул. Вернадского, 9",54.734250015921,20.472200038131
263,ВТБ,"ул. Каштановая Аллея, 15Б",54.751904115224,20.449417010921
264,ВТБ,"5-я Причальная ул., 1",54.697260006656,20.467080036396
265,Сбербанк,"ул. Шевченко, 3, офис банка Калининград-Плаза",54.711729979474,20.510550011187
266,Энерготрансбанк,"Солнечный бул., 1",54.704580006518,20.517649986091
267,Сбербанк,"Пролетарская ул., 55Б",54.717300005591,20.512599973247
268,Альфа-Банк,"ул. Александра Невского, 52",54.731200008994,20.531450035298
269,Энерготрансбанк,"ул. Генерал-Лейтенанта Захарова, 2",54.735120015561,20.472200038131
270,"Сбербанк, банкомат","Красная ул., 142, этаж 1",54.737830010586,20.474150004086
271,Сбербанк,"ул. Генерала Челнокова, 25, ОО На Сельме Калининград, филиал № 7806 г",54.739720978712,20.48585383158
272,Сбербанк,"ул. Генерал-Лейтенанта Захарова, 2",54.735120015561,20.472200038131
273,ВТБ,"Красная ул., 142, этаж 1",54.737830010586,20.474150004086
274,ВТБ,"ул. Генерала Челнокова, 25, ОО На Сельме Калининград, филиал № 7806 г",54.739720978712,20.48585383158
275,Сбербанк,"Театральная ул., 30",54.717749988063,20.498990025604
276,ВТБ,"Красная ул., 142, Супермаркет «Виктория»",54.737830010586,20.474150004086
277,ВТБ,"ул. Горького, 55",54.72119997941,20.592480013423
278,Райффайзенбанк,"Уральская ул., 18, этаж 1",54.724629979918,20.502070039745
279,Тинькофф,"ул. Горького, 104, напротив входа у колонны, этаж 1",54.735509983606,20.509519959106
280,"Энерготрансбанк, банкомат","просп. Мира, 63",54.720630009994,20.473179966432
281,Энерготрансбанк,"Советский просп., 107",54.738049993635,20.478159990384
282,Банк Санкт-Петербург,"Ленинский просп., 32",54.710470011789,20.507809967039
283,Энерготрансбанк,"Московский просп., 12",54.710129999886,20.496179992564
284,Кузнецкбизнесбанк,"Батальная ул., 75А",54.675180020125,20.511010010033
285,Сбербанк России,"ул. Профессора Баранова, 34, этаж 1",54.721149981358,20.506389988822
286,"Сбербанк, банкомат","бул. Любови Шевцовой, 1А, офис банка Калининград - Южный",54.671590009086,20.501580033685
287,Сбербанк,"ул. Горького, 55, ТЦ Две пятерки",54.72119997941,20.592480013423
288,"Сбербанк России, банкомат","Летняя ул., 3",54.678660018686,20.489319991548
289,Альфа-Банк,"Батальная ул., 39",54.676500002237,20.499190017813
290,Росбанк,"бул. Любови Шевцовой, 1",54.672319989033,20.501899970929
291,Газпромбанк,"Интернациональная ул., 76, этаж 1",54.668819999634,20.510259997337
292,Совкомбанк,"ул. Горького, 96, Супермаркет SPAR",54.73209,20.51222
293,Райффайзенбанк,"ул. Каштановая Аллея, 145",54.749809769246,20.444710409185
294,Сбербанк,"Советский просп., 125, этаж 1",54.740930015566,20.472740000334
295,Тинькофф,"Космическая ул., 22",54.71413001172,20.499980012188
296,"Сбербанк, банкомат","ул. Горького, 55, этаж 1",54.72119997941,20.592480013423
297,Банк Санкт-Петербург,"ул. Горького, 96, Супермаркет SPAR",54.73209,20.51222
298,Банк Зенит,"ул. Каштановая Аллея, 145",54.749809769246,20.444710409185
299,Энерготрансбанк,"Советский просп., 125, этаж 1",54.740930015566,20.472740000334
300,Тинькофф,"Космическая ул., 22",54.71413001172,20.499980012188
301,"Сбербанк, банкомат","ул. Горького, 55, этаж 1",54.72119997941,20.592480013423
302,Банк Санкт-Петербург,"Гвардейский просп., 15",54.716619736483,20.495129390267
303,Банк Зенит,"ул. Александра Невского, 90, Больница скорой медицинской помощи, этаж 1",54.74057998729,20.535590024914
304,Энерготрансбанк,"просп. Мира, 76",54.720760013312,20.47970997192
305,Банк Россия,"бул. Любови Шевцовой, 1, Виктория",54.67139,20.50276
306,ВТБ,"ул. Дзержинского, 74",54.690300009535,20.53024999822
307,"МТС-банк, банкомат","Театральная ул., 30",54.717749988063,20.498990025604
308,Банк Уралсиб,"ул. Профессора Баранова, 1, подъезд 3",54.721635198699,20.512596672719
309,Росгосстрах банк,"Интернациональная ул., 76, этаж 1",54.668819999634,20.510259997337
310,ВТБ,"Театральная ул., 30",54.717749988063,20.498990025604
311,СберБанк,"бул. Любови Шевцовой, 1А",54.671590009086,20.501580033685
312,Энерготрансбанк,"ул. Тельмана, 32",54.734990012243,20.52289001668
313,Райффайзенбанк,"Береговая ул., 16",54.65155001015,20.33100000598
314,Кузнецкбизнесбанк,"ул. Александра Невского, 78А, этаж 1",54.738010011957,20.535430014383
315,Почта банк,"Нарвская ул., 112, этаж 2",54.743200980355,20.499180091776
316,Сбербанк,"ул. Горького, 2, подъезд 1, этаж 1",54.721559982152,20.509249978005
317,Сбербанк,"Ленинский просп., 34А",54.703940006301,20.505009992283
318,Сбербанк,"Ленинский просп., 30А",54.711590001691,20.507479971511
319,Сбербанк,"Советский просп., 107",54.738049993635,20.478159990384
320,Сбербанк России,"Театральная ул., 30, этаж 1",54.717749988063,20.498990025604
321,"Синара, банкомат","ул. Генерала Челнокова, 21",54.739491653146,20.485866119023
322,"ПСБ, банкомат","Театральная ул., 30, этаж 1",54.717749988063,20.498990025604
323,"Сбербанк, банкомат","ул. Генерала Челнокова, 21",54.739491653146,20.485866119023
324,Энерготрансбанк,"площадь Победы, 4, офис банка Калининград-Янтарь",54.720830002204,20.499880016083
325,"Сбербанк, банкомат","ул. Александра Невского, 137Б, этаж 1",54.741820006045,20.531759998077
326,Энерготрансбанк,"Молодёжная ул., 6",54.738739991905,20.515010021867
327,Альфа-Банк,"ул. Маршала Борзова, 53",54.735960007988,20.475769974513
328,Энерготрансбанк,"площадь Победы, 4, офис банка Калининград-Янтарь",54.720830002204,20.499880016083
329,Сбербанк,"Киевская ул., 95",54.680999994595,20.475530000625
330,Почта банк,"ул. Александра Невского, 40",54.727920002643,20.529339974993
331,Альфа-Банк,"ул. Согласия, 1, ТЦ Виктория",54.74052,20.49324
332,Сбербанк,"ул. Куйбышева, 2, офис банка Калининград-Академический",54.725759986195,20.547259981067
333,"Газпромбанк, банкомат","ул. Александра Невского, 137Б, этаж 1",54.741820006045,20.531759998077
334,Банк Авангард,"Уральская ул., 18, этаж 1",54.724629979918,20.502070039745
335,Альфа-Банк,"ул. Александра Невского, 137Б, этаж 1",54.741820006045,20.531759998077
336,Сбербанк,"ул. Профессора Баранова, 1, подъезд 2, этаж 1",54.721635198699,20.512596672719
337,Baltmotors,"ул. Маршала Борзова, 58, стр. 1",54.738019986422,20.468700006822
338,Энерготрансбанк,"Машиностроительная ул., 68А",54.678580119411,20.504875761272
339,Газпромбанк,"ул. Ульяны Громовой, 17",54.670909985281,20.501139983768
340,Энерготрансбанк,"ул. Куйбышева, 91А",54.726379995573,20.537289958697
341,"Энерготрансбанк, банкомат","ул. Александра Невского, 137Б, магазин Spar",54.741820006045,20.531759998077
342,Энерготрансбанк,"Батальная ул., 75А",54.675180020125,20.511010010033
343,Росгосстрах банк,"бул. Любови Шевцовой, 1",54.672319989033,20.501899970929
344,Росбанк,"Ленинский просп., 32",54.710470011789,20.507809967039
345,Сбербанк,"ул. Черняховского, 5",54.719860006459,20.505999978867
346,Банк Санкт-Петербург,"ул. Согласия, 1, Супермаркет «Виктория», центральный вход, этаж 1",54.740520014772,20.493240040025
347,"Сбербанк, банкомат","ул. Генерала Челнокова, 11, лит.Ж",54.736719995149,20.488039991114
348,Сбербанк,"ул. Согласия, 2",54.74134001636,20.495740026466
349,Банк ВТБ,"ул. Чернышевского, 56",54.726470017213,20.467770034665
350,"Энерготрансбанк, банкомат","ул. Гайдара, 97, подъезд 2",54.739759985702,20.4955899904
351,Тинькофф,"просп. Мира, 76",54.720760013312,20.47970997192
352,Сбербанк,"бул. Любови Шевцовой, 1, Супермаркет «Виктория»",54.672319989033,20.501899970929
353,Кузнецкбизнесбанк,"Молодёжная ул., 6",54.738739991905,20.515010021867
354,Газпромбанк,"ул. Черняховского, 30",54.719780001193,20.509089967473
355,Сбербанк,"Машиностроительная ул., 64",54.678929999787,20.50448997901
356,"МТС-банк, банкомат","ул. Дзержинского, 79, этаж 1",54.684640003687,20.53500002275
357,Тинькофф,"ул. Олега Кошевого, 37А, Супермаркет EUROSPAR",54.668919995739,20.512929968775
358,Морской банк,"ул. Согласия, 2, слева при входе, магазин Бауцентр",54.74134001636,20.495740026466
359,"Почта банк, банкомат","Ленинский просп., 28",54.712060016911,20.507539985938
360,Энерготрансбанк,"ул. Ульяны Громовой, 46",54.670700018606,20.500270026038
361,Сбербанк,"Больничная ул., 5",54.713939993975,20.503880027916
362,Тинькофф,"Театральная ул., 30, этаж 0",54.717749988063,20.498990025604
363,Банк Санкт-Петербург,"ул. Космонавта Леонова, 47, этаж 2",54.729545136158,20.481357174257
364,Банк ВТБ,"ул. Согласия, 2",54.74134001636,20.495740026466
365,Энерготрансбанк,"ул. Генерала Буткова, 16",54.709450017991,20.494600003816
366,Банк ВТБ,"Зелёная ул., 76",54.739340010443,20.503569981318
367,"Банк Санкт-Петербург, банкомат","Советский просп., 107, Государственное предприятие Водоканал",54.738049993635,20.478159990384
368,"Энерготрансбанк, банкомат","ул. Некрасова, 22",54.735819988295,20.5268600213
369,Сбербанк,"Батальная ул., 62А",54.674719979369,20.500089982757
370,Банк ВТБ,"ул. Генерала Челнокова, 18Б",54.737689990894,20.489990040888
371,Энерготрансбанк,"бул. Любови Шевцовой, 1В",54.671659997977,20.501090027625
372,Альфа-Банк,"Театральная ул., 21",54.716560009269,20.500379996607
373,Сбербанк,"ул. Генерала Челнокова, 34",54.740080006765,20.486469976831
374,Сбербанк,"Клиническая ул., 83А",54.719599999822,20.52240001062
375,Энерготрансбанк,"Солнечный бул., 1",54.704580006518,20.517649986091
376,Энерготрансбанк,"ул. Чекистов, 36",54.732569989158,20.474860035104
377,Сбербанк России,"Театральная ул., 21",54.716560009269,20.500379996607
378,Банкомат,"ул. Согласия, 2",54.74134001636,20.495740026466
379,Энерготрансбанк,"ул. Генерала Челнокова, 11, МФЦ",54.738030002796,20.486049959662
380,ВТБ,"Солнечный бул., 1",54.704580006518,20.517649986091
381,Сбербанк,"Театральная ул., 30, этаж цокольный",54.717749988063,20.498990025604
382,Российский Сельскохозяйственный банк,"ул. Фрунзе, 15А",54.712700017128,20.521129984651
383,Сбербанк,"Театральная ул., 30, этаж 1",54.717749988063,20.498990025604
384,Энерготрансбанк,"Советский просп., 2",54.721400013529,20.499989986653
385,Сбербанк России,"ул. Горького, 96",54.732089999473,20.512220021576
386,Сбербанк,"ул. 9 Апреля, 9",54.715920009052,20.522300014516
387,Банк ВТБ,"Киевская ул., 1",54.692289999077,20.505000017819
388,Сбербанк,"Батальная ул., 17А",54.678220010678,20.496760020264
389,Банк ВТБ,"бул. Любови Шевцовой, 1",54.672319989033,20.501899970929
390,Сбербанк России,"Советский просп., 2А",54.721600005739,20.499320021132
391,Альфа-Банк,"ул. Карла Маркса, 118Б",54.724509992974,20.46467996224
392,Банк ВТБ,"площадь Калинина, 28",54.694689989413,20.501509960974
393,СберБанк,"ул. Куйбышева, 91",54.726340013894,20.536659974855
394,Тинькофф,"ул. Фрунзе, 17",54.713280002919,20.520620029662
395,Сбербанк России,"ул. Александра Суворова, 40",54.693619997564,20.472700018656
396,Сбербанк,"Московский просп., 135",54.710140016261,20.53248000356
397,Альфа-банк,"ул. Дзержинского, 74А",54.690519992584,20.529610039913
398,ВТБ,"Автомобильная ул., 22",54.67441001659,20.490170000349
399,МТС-Банк,"ул. Генерал-Лейтенанта Захарова, 2",54.735120015561,20.472200038131
400,Сбербанк России,"Киевская ул., 71",54.681409995389,20.482510030494
401,Банк ВТБ,"ул. Куйбышева, 2",54.725338067564,20.537351035001
402,Банк ВТБ,"Батальная ул., 75А",54.675180020125,20.511010010033
403,Сбербанк России,"Автомобильная ул., 22",54.67441001659,20.490170000349
404,"Сбербанк, банкомат","ул. Фрунзе, 15А",54.712700017128,20.521129984651
405,Банк ВТБ,"ул. Александра Суворова, 40",54.693619997564,20.472700018656
406,Альфа-банк,"Солнечный бул., 1",54.704580006518,20.517649986091
407,Сбербанк России,"ул. Черняховского, 54",54.720190001987,20.513149993733
408,Санкт-Петербург,"ул. Дзержинского, 35",54.695809979316,20.52589995811
409,Тинькофф банк,"ул. Генерал-Лейтенанта Захарова, 2",54.735120015561,20.472200038131
410,Банк ВТБ,"ул. Карла Маркса, 18",54.729219993916,20.480840020106
411,Альфа-банк,"бул. Любови Шевцовой, 1",54.672319989033,20.501899970929
412,ОТП банк,"Киевская ул., 80",54.681800005344,20.47455996297
413,Альфа-банк,"ул. 9 Апреля, 9",54.715920009052,20.522300014516
414,Сбербанк России,"бул. Любови Шевцовой, 1",54.672319989033,20.501899970929
415,Банк ВТБ,"просп. Мира, 84",54.720650000833,20.475769974513
416,Сбербанк,"Интернациональная ул., 27А",54.669800011753,20.501130009303
417,Альфа-банк,"ул. Александра Невского, 53",54.731740013106,20.530760037029
418,Альфа-банк,"Советский просп., 107",54.738049993635,20.478159990384
419,УРАЛСИБ,"Красная ул., 142",54.737830010586,20.474150004086
420,Финансовая Корпорация Открытие,"ул. Космонавта Леонова, 22",54.725919996726,20.482450016068
421,Российский Сельскохозяйственный банк,"Красная ул., 142",54.737830010586,20.474150004086
422,Российский Сельскохозяйственный банк,"ул. Ульяны Громовой, 30",54.671729986869,20.500070033828
423,Промсвязьбанк,"бул. Любови Шевцовой, 1",54.672319989033,20.501899970929
424,Сбербанк России,"ул. Александра Невского, 90",54.74057998729,20.535590024914
425,Почта Банк,"ул. Согласия, 1",54.740520014772,20.493240040025
426,Банк ВТБ,"ул. Согласия, 2",54.74134001636,20.495740026466
427,Банк ВТБ,"ул. Генерала Челнокова, 21",54.739491653146,20.485866119023
428,Банк ВТБ,"ул. Горького, 96",54.732089999473,20.512220021576
429,Сбербанк России,"ул. Генерала Челнокова, 21",54.739491653146,20.485866119023
430,Банк ВТБ,"ул. Александра Суворова, 57",54.688959994674,20.465900032067
431,Сбербанк России,"бул. Любови Шевцовой, 1А",54.671590009086,20.501580033685
432,Альфа-банк,"ул. Александра Невского, 137Б",54.741820006045,20.531759998077
433,Тинькофф банк,"ул. Александра Невского, 90",54.74057998729,20.535590024914
434,Финансовая Корпорация Открытие,"ул. Согласия, 1",54.740520014772,20.493240040025
435,Санкт Петербург,"Нарвская ул., 112, этаж 1",54.743200980355,20.499180091776
436,Альфа-банк,"Красная ул., 142",54.737830010586,20.474150004086
437,Сбербанк России,"ул. Александра Невского, 137Б",54.741820006045,20.531759998077
438,Банк ВТБ,"ул. Генерал-Лейтенанта Захарова, 2",54.735120015561,20.472200038131
