,Name,address,latitude,longitude
0,Энерготрансбанк,"Клиническая ул., 83А",54.719599999822,20.52240001062
1,Альфа-Банк,"ул. Шевченко, 1",54.711759986687,20.510229990124
2,Банк ДОМ.РФ,"площадь Победы, 10, этаж 1",54.719599999822,20.503890002381
3,Энерготрансбанк,"площадь Калинина, 11",54.696349983428,20.499190017813
4,Энерготрансбанк,"ул. Черняховского, 3",54.719790017567,20.505809961122
5,Газпромбанк,"Ленинский просп., 5",54.718250010497,20.502270031954
6,Ренессанс Банк,"ул. Шевченко, 11А",54.71170001417,20.511100031673
7,Локо-Банк,"Ленинский просп., 95-101, помещение 2",54.703569987185,20.505929989976
8,МТС банк,"просп. Мира, 76",54.720760013312,20.47970997192
9,Почта банк,"Ленинский просп., 6",54.715660002416,20.503070000793
10,Россельхозбанк,"Гостиная ул., 3, этаж 1",54.719100019298,20.488450033818
11,Банк ВТБ,"Ленинский просп., 28, Калининград",54.71219,20.50964
12,СберБанк,"ул. Шевченко, 11А",54.71170001417,20.511100031673
13,СберБанк,"ул. 9 Апреля, 7",54.714870008042,20.522070015092
14,СберБанк,"Московский просп., 12",54.710129999886,20.496179992564
15,Банк Санкт-Петербург,"Зарайская ул., 17",54.71024998683,20.51747002663
16,Банк ВТБ,"Ленинский просп., 89, Калининград",54.71219,20.50964
17,СберБанк,"Ленинский просп., 34",54.704079984084,20.505030025032
18,СберБанк,"ул. Багратиона, 60",54.699809991149,20.511189969495
19,Банк ВТБ,"Театральная ул., 30, Калининград, ТРЦ Европа",54.717749988063,20.498990025604
20,Банк Санкт-Петербург,"Театральная ул., 30, этаж 1",54.717749988063,20.498990025604
21,Банк Авангард,"Московский просп., 46",54.708910013879,20.502410009737
22,Банк Открытие,"площадь Победы, 4А",54.721149981358,20.501139983768
23,Промсвязьбанк,"Ленинский просп., 4",54.715859994626,20.502849975835
24,Совкомбанк,"ул. Черняховского, 6А",54.718910001553,20.503580039602
25,Финам,"ул. Черняховского, 40, Калининград",54.71992999535,20.510459989547
26,СберБанк,"ул. Черняховского, 4",54.718699992969,20.502500031377
27,Россельхозбанк,"ул. Литовский Вал, 2",54.719669057583,20.52859332773
28,Банк Синара,"Ленинский просп., 30А, БЦ Калининград Плаза, этаж 1",54.711590001691,20.507479971511
29,Банк Санкт-Петербург,"ул. Кутузова, 39, вход со стороны кругового перекрестка",54.715770014895,20.46188996195
30,Банк Открытие,"Ленинский просп., 95",54.703769979395,20.506069967759
31,Совкомбанк,"Ленинский просп., 105, офис №115",54.703009992234,20.505680041623
32,Банк ВТБ,"Киевская ул., 1, Калининград",54.692289999077,20.505000017819
33,Совкомбанк,"ул. Багратиона, 104",54.699349992303,20.504949977857
34,Райффайзенбанк,"Театральная ул., 30, офис ""Калининградский""",54.717749988063,20.498990025604
35,Банк Русский Стандарт,"ул. Черняховского, 36",54.719860006459,20.509830005704
36,Московский кредитный банк,"Театральная ул., 36Б",54.718444236147,20.496073822134
37,СберБанк,"Советский просп., 2А, этаж 1",54.721600005739,20.499320021132
38,СберБанк,"Киевская ул., 95",54.680999994595,20.475530000625
39,Банк Уралсиб,"Ленинский просп., 99",54.703510014668,20.506010037151
40,Транскапиталбанк,"просп. Мира, 72",54.721010003575,20.480570039004
41,Промсвязьбанк,"Барнаульская ул., 4",54.713850014244,20.502010025318
42,Хоум Банк,"Ленинский просп., 67Б",54.712909983803,20.507939970357
43,Банк ВТБ,"Больничная ул., 5, Калининград",54.713939993975,20.503880027916
44,Банк Зенит,"Ленинский просп., 155А, вход со стороны сквера",54.696060011487,20.50254998752
45,Росбанк,"Ленинский просп., 30А, ТЦ Плаза, БЦ Плаза корпус Б, этаж 1",54.711590001691,20.507479971511
46,Почта банк,"Московский просп., 99",54.709630019362,20.523940017691
47,Банк Открытие,"Адмиральская ул., 1",54.715269992461,20.464479970031
48,Альфа-Банк,"площадь Победы, 4",54.720830002204,20.499880016083
49,СберБанк,"ул. Александра Невского, 52",54.731200008994,20.531450035298
50,БКС Мир инвестиций,"ул. Генерал-Лейтенанта Озерова, 47",54.724919993768,20.508239958672
51,Драйв Клик,"Университетская ул., 2В, офис 302, этаж 3",54.71431001309,20.508719990267
52,Фридом Финанс,"площадь Победы, 10, БЦ «Кловер»",54.719599999822,20.503890002381
53,Энерготрансбанк,"ул. Профессора Баранова, 1, подъезд 1, этаж 1",54.721635198699,20.512596672719
54,Почта банк,"Краснооктябрьская ул., 6",54.700959988265,20.511950040475
55,СберБанк,"Батальная ул., 17А",54.678220010678,20.496760020264
56,Почта банк,"Ленинский просп., 95/101",54.703569987185,20.505929989976
57,Россельхозбанк,"Интернациональная ул., 27А, помещение I",54.669800011753,20.501130009303
58,СберБанк,"ул. Чекистов, 36",54.732569989158,20.474860035104
59,Газпромбанк,"Ленинский просп., 30",54.71121000811,20.508229984207
60,СберБанк,"ул. Дзержинского, 42",54.692389995182,20.526909977443
61,СМП Банк,"Ленинский просп., 109А, подъезд 1",54.701690010122,20.504940003392
62,СберБанк,"ул. Карла Маркса, 49",54.725069987925,20.469260001774
63,Хоум Кредит,"Театральная ул., 23",54.71702998258,20.499610034982
64,Энерготрансбанк,"ул. Черняховского, 15, лит.Б",54.721700001844,20.513440007583
65,Энерготрансбанк,"ул. Ульяны Громовой, 46, 1",54.670700018606,20.500270026038
66,Энерготрансбанк,"ул. Генерала Челнокова, 18Б, 1",54.737689990894,20.489990040888
67,Морской банк,"Театральная ул., 35, офис 122, этаж 1",54.717749988063,20.497260000788
68,Москва-Сити,"ул. Шевченко, 11А",54.71170001417,20.511100031673
69,СберБанк,"ул. Профессора Баранова, 34, этаж 1",54.721149981358,20.506389988822
70,Банк Санкт-Петербург,"ул. Кутузова, 34Б",54.716319993472,20.461229970893
71,Банк Интеза,"ул. Сержанта Колоскова, 4А",54.717489981427,20.484880013617
72,СберБанк,"Озёрная ул., 5",54.741280001933,20.430910028718
73,СберБанк,"ул. Елены Ковальчук, 3",54.720090005882,20.473810034093
74,Банк Россия,"Гвардейский просп., 15",54.716619736483,20.495129390267
75,Почта банк,"Железнодорожная ул., 27",54.729469984178,20.588150006061
76,Газпромбанк,"просп. Мира, 44",54.720780004152,20.484959976973
77,Альфа-Банк,"ул. Куйбышева, 2, этаж 1",54.725338067564,20.537351035001
78,ОТП Банк,"ул. Черняховского, 54",54.720190001987,20.513149993733
79,СберПервый,"ул. Виктора Гюго, 1, этаж 4-6",54.709422728373,20.506148150136
80,Совкомбанк,"просп. Мира, 66",54.720990012736,20.4814499712
81,Россельхозбанк,"Нарвская ул., 112, этаж 1",54.743200980355,20.499180091776
82,Почта банк,"ул. Черняховского, 32",54.719819982871,20.509370006858
83,Совкомбанк,"просп. Мира, 64",54.721159997732,20.48172003612
84,Юнистрим,"ул. Черняховского, 15, лит.Б, пом. 35, лит. В",54.721700001844,20.513440007583
85,СберБанк,"ул. Генерала Челнокова, 11",54.738030002796,20.486049959662
86,Банк ВТБ,"ул. Генерала Челнокова, 25, Калининград, помещение 2",54.739720978712,20.48585383158
87,Почта банк,"ул. Тельмана, 32",54.734990012243,20.52289001668
88,Банк Санкт-Петербург,"Театральная ул., 30",54.717749988063,20.498990025604
89,Почта банк,"Советский просп., 2А, этаж 1",54.721600005739,20.499320021132
90,Почта банк,"ул. Багратиона, 102",54.699360008677,20.505219958958
91,Совкомбанк,"Батальная ул., 41",54.676400006132,20.499369977275
92,Почта банк,"Советский просп., 38",54.72682000358,20.49519000598
93,СберБанк,"ул. Гайдара, 97, подъезд 2",54.739759985702,20.4955899904
94,Почта банк,"ул. 9 Апреля, 1, этаж 1",54.716968282876,20.523714513894
95,Почта банк,"Машиностроительная ул., 64",54.678929999787,20.50448997901
96,Home credit,"Университетская ул., 2Г, офис 212, этаж 2",54.714490014461,20.50836996199
97,Почта банк,"ул. Чайковского, 45",54.726037579012,20.48278288019
98,Почта банк,"Киевская ул., 82, В отделении Почты России",54.681470009816,20.473639965278
99,Трансстройбанк,"пер. Кирова, 2, этаж 1",54.724869995715,20.495420005403
100,"СберБанк, банкомат","ул. Сержанта Колоскова, 4А",54.717489981427,20.484880013617
101,Альфа-Банк,"бул. Любови Шевцовой, 1А",54.671590009086,20.501580033685
102,Почта банк,"ул. Горького, 148",54.739550019027,20.505590019983
103,Вологжанин,"ул. Горького, 160А",54.742110019895,20.503950016808
104,Почта банк,"ул. Александра Невского, 31",54.727640005167,20.527689997353
105,Почта банк,"ул. Маршала Борзова, 53",54.735960007988,20.475769974513
106,Юнистрим,"ул. Черняховского, 15, лит.Б, этаж 1, помещение 27",54.721700001844,20.513440007583
107,Почта банк,"Театральная ул., 19",54.716430005951,20.501350034262
108,Юнистрим,"ул. Черняховского, 4",54.718699992969,20.502500031377
109,ТКБ банк,"просп. Мира, 74",54.720899991095,20.479869982451
110,БКС Премьер,"ул. Генерал-Лейтенанта Озерова, 47А",54.724889986555,20.508829960836
