,Name,address,latitude,longitude
0,Цвет волос,"Ленинский просп., 30, этаж 3",54.71121000811,20.508229984207
1,Точка Красоты,"ул. Юрия Гагарина, 11",54.716319993472,20.539500015108
2,Арт-Студия Елены Павловой,"Аэропортная ул., 1А, этаж 1",54.729330006395,20.554479984825
3,Sахар,"Театральная ул., 35, этаж 1",54.717749988063,20.497260000788
4,Цирюльникъ,"Советский просп., 2А, этаж 2",54.721600005739,20.499320021132
5,Креатив,"ул. Фрунзе, 59",54.713000005443,20.527190016828
6,Центр красоты Люсо,"Автомобильная ул., 23, этаж 0",54.674130019114,20.491770021846
7,Beauty Space 107,"просп. Мира, 107",54.72246,20.46676
8,Probor,"ул. Аксакова, 102Б",54.709989980194,20.580790024521
9,Шанталь,"Озёрная ул., 41А",54.74174000078,20.512150032684
10,Verde,"ул. Виктора Гюго, 1, БЦ Lastadie, этаж 1",54.70803,20.50548
11,Есфирь,"просп. Мира, 21, этаж 1",54.719489987343,20.486989990104
12,Verde,"ул. 9 Апреля, 86А, Калининград, этаж 1",54.713054200888,20.522501688184
13,Love & beauty,"ул. Юрия Гагарина, 7, этаж 1",54.716039995996,20.537130031985
14,Багира,"Ленинский просп., 88",54.698349989345,20.502270031954
15,Estel,"Московский просп., 39",54.710190014313,20.504860040036
16,Вирсавия,"Московский просп., 105",54.709700008253,20.525129996485
17,Шевелюра,"ул. Горького, 170",54.749179987586,20.501650022576
18,Парикмахерская,"ул. Черняховского, 36",54.719860006459,20.509830005704
19,Narine Beauty,"ул. Фрунзе, 51",54.712839994911,20.526430029667
20,Krav,"Октябрьская ул., 57",54.700200001104,20.520040001962
21,Beauty Buro,"Театральная ул., 25, этаж 1",54.717130020595,20.499299988383
22,Palerma,"Советский просп., 230, этаж 2",54.748380018747,20.459890039852
23,СтилиССимо,"Ленинский просп., 71А",54.712509999383,20.509400014071
24,Memel Beauty House,"Советский просп., 81, корп. 1, Калининград, район Центральный, этаж 1",54.733280020176,20.483909975963
25,Персона,"Балтийская ул., 14, Калининград, Район Ленинградский, этаж 1",54.737919990317,20.509470002963
26,SPA.sibo,"Уральская ул., 20, Калининград, этаж 1",54.723939981649,20.501690004255
27,Хамелеон,"Советский просп., 159, Калининград, этаж 2",54.742440015423,20.465250015475
28,Такие разные,"Краснооктябрьская ул., 17, Калининград, этаж цокольный",54.702009989276,20.50865997584
29,Lastadie Beauty,"Ленинский просп., 85А, Калининград",54.703719981342,20.507579967616
30,Модный проспект,"просп. Мира, 57, Калининград, Район Центральный, этаж 1",54.738686209116,20.485963432936
31,Красотка,"Калужский пер., 18, Калининград",54.72875999507,20.499030007282
32,Перфект,"Воздушный пер., 2, Калининград",54.714249998664,20.44191001935
33,Lайм,"Ленинский просп., 149, Калининград",54.6973799936,20.503200004112
34,Hairy Goodini,"Зоологическая ул., 29, Калининград",54.724340007978,20.484390007558
35,Haircut Skill,"ул. Генерала Галицкого, 4А, Калининград",54.716549992895,20.499350028345
36,Kriss angels studio,"Театральная ул., 27, Калининград",54.717180018647,20.499109970638
37,Модерн,"просп. Калинина, 5, Калининград",54.695030001316,20.50391003513
38,Весна,"ул. Каштановая Аллея, 68, Калининград",54.749450254688,20.445049632839
39,А-Студио,"Эпроновская ул., 13, Калининград",54.700870008534,20.512910019845
40,Laky Day,"ул. 9 Апреля, 88А, Калининград, офис 5, этаж 2",54.719140000976,20.525719998649
41,Иллен Бьюти,"просп. Мира, 59Б, Калининград",54.720463770201,20.479599173326
42,D. S. studio,"Киевская ул., 60А, Калининград, этаж цокольный",54.681989981179,20.479409983605
43,Mon salon,"ул. Тургенева, 17, Калининград, этаж цокольный",54.733150016858,20.516149960699
44,Марафет,"Майский пер., 1, Калининград",54.728900014762,20.534250010054
45,Салон-парикмахерская № 49,"ул. Багратиона, 126, Калининград",54.698709992086,20.500749973813
46,Natalie Geyman beauty room,"Гостиная ул., 28А, Калининград, этаж цокольный",54.716089994049,20.4877400028
47,Vsalone,"Майский пер., 1, Калининград, офис 4, этаж цокольный",54.728900014762,20.534250010054
48,Slava Krupskaya,"ул. Новый Вал, 32, Калининград",54.699829981988,20.509209996326
49,Адам,"просп. Мира, 51",54.72042000141,20.481119975672
50,Love & Beauty,"Елизаветинская ул., 3, район Ленинградский",54.746419994508,20.488079972792
51,Бэль,"Звёздная ул., 7",54.700349995261,20.589030022076
52,Рометта,"ул. Согласия, 14А, офис 1, этаж 2",54.743219993423,20.493329977846
53,Verde,"просп. Мира, 68, этаж 1",54.720940014683,20.480900034532
54,Olga,"ул. Виллима Фермора, 3, Ленинградский район, микрорайон Сельма, этаж цокольный",54.743610003378,20.486420020688
55,Diva Effect,"ул. Космонавта Леонова, 73",54.734109996229,20.48095996514
56,Be Beauty,"Гостиная ул., 10, Отдельный вход с ул. Гостиная",54.718020011074,20.487779984478
57,Vsv,"ул. Зои Космодемьянской, 38А, этаж 2",54.684920001163,20.533070005725
58,Сакура,"ул. Глинки, 1",54.750220014132,20.525459992013
59,Bebeshko,"ул. Маршала Борзова, 58Е, этаж цокольный",54.738500018017,20.464850031056
60,Capelli,"ул. Черняховского, 6А",54.718910001553,20.503580039602
61,Artprofi,"ул. Кирова, 27, помещение 1",54.725349985401,20.491240034109
62,T'studio,"ул. Виллима Фермора, 6, Ленинградский район, микрорайон Сельма",54.74541999155,20.485540004673
63,Перламутр,"ул. 9 Апреля, 28",54.713089985174,20.523039968928
64,9 Авеню,"ул. Дзержинского, 168Е, этаж 1",54.670520017236,20.544869965196
65,Ваш Стиль,"ул. Юрия Гагарина, 16В",54.719580008983,20.543900011361
66,Шоколад,"ул. Багратиона, 26",54.699700020579,20.514429994167
67,Арт,"Автомобильная ул., 1, офис 13, этаж 1",54.676920019405,20.497429985785
68,ПурПур,"ул. Генерала Соммера, 22, район Ленинградский, 2 уровень, офис 21",54.715909992678,20.507760010896
69,The Stars,"ул. Горького, 100, этаж цокольный",54.733250012963,20.510680014505
70,Альбина,"ул. Александра Невского, 37",54.728100004014,20.528010018416
71,Эксклюзив,"ул. Юрия Гагарина, 55А, эт. 1",54.722760019229,20.544149959713
72,Fashion Family,"Балтийская ул., 8",54.73737001174,20.509860012918
73,Принцип,"ул. Генерала Челнокова, 25, этаж 2",54.739720978712,20.48585383158
74,Шевелюра,"ул. Маршала Жукова, 10, этаж 1",54.750600007712,20.491840010738
75,Verde,"ул. Ульяны Громовой, 8",54.67295998925,20.500170029933
76,Прядки в порядке,"просп. Победы, 42, этаж 1",54.714469981713,20.45750002398
77,Мадам Совершенство,"Юношеская ул., 2",54.723199985327,20.507809967039
78,WillMade,"ул. Генерала Соммера, 1",54.715480001045,20.504400041189
79,Диана,"Ленинский просп., 17",54.716909995636,20.503030019115
80,V-color,"ул. Горького, 136",54.738650012174,20.506410021571
81,Аурум,"просп. Мира, 90",54.721010003575,20.473330002498
82,Шик,"ул. Литовский Вал, 62",54.709149987767,20.537799997506
83,София Шарлотта,"ул. Зои Космодемьянской, 38А, этаж 2",54.684920001163,20.533070005725
84,Vsv,"Артиллерийская ул., 81, этаж 1",54.7365000121,20.550279980782
85,"Салон красоты Oh, Pretty People","ул. Олега Кошевого, 34, этаж цокольный",54.673317769841,20.511581681515
86,V-Studio,"Красносельская ул., 55",54.714460007248,20.442589959336
87,Чуб&Чёлка,"ул. Профессора Баранова, 6, комната 405, этаж 4",54.721450855887,20.511667429428
88,Апероль,"ул. Рокоссовского, 10",54.71789998222,20.509270010753
89,Мечта,"Майская ул., 4, офис 1",54.675870018395,20.553499972706
90,Анелина,"Колхозная ул., 3-5",54.742980019535,20.526560032985
91,Апельсин,"Ленинский просп., 159",54.695930008169,20.500770006562
92,Тамара,"ул. Вилория Бусловского, 1, этаж цокольный",54.746589979505,20.529920002692
93,Северянка,"ул. Куйбышева, 39",54.726720007475,20.533820018421
94,Сенсави,"ул. Кирова, 6",54.724759983236,20.496030040316
95,Beverly Hills,"ул. Репина, 46",54.727340016853,20.489069959377
96,Лоран,"ул. Карла Маркса, 71",54.724119983019,20.464839972772
97,Дежавю,"ул. Богдана Хмельницкого, 21",54.697229999442,20.504089994591
98,Бровиссимо,"ул. Репина, 37",54.727959984321,20.486539965722
99,Матрёшка,"ул. Космонавта Леонова, 19, этаж 1",54.724520009348,20.481439996735
100,Beautique,"пер. Кирова, 9",54.725559993985,20.49557004147
101,Египет,"площадь Победы, 4, этаж 5, офис 4",54.720830002204,20.499880016083
102,FOLga,"ул. Генерала Челнокова, 42, этаж цокольный",54.743039992053,20.485449983033
103,Алина,"Офицерская ул., 38",54.725349985401,20.471420018222
104,Виола,"ул. Менделеева, 8",54.712199994695,20.43795996366
105,Мари,"Парковый пер., 5, этаж цокольный",54.691309986958,20.521010039617
106,Nautilus,"Комсомольская ул., 77А, этаж цокольный",54.732309982522,20.477679958789
107,Win Win,"ул. Фрунзе, 58В",54.711540003639,20.530809993172
108,Парикмахерская,"Офицерская ул., 36",54.7250800043,20.471480032649
109,Студия Надежды Лобовой,"Нарвская ул., 75",54.737440000632,20.496830009155
110,Париж,"просп. Мира, 78",54.720680008047,20.478919977545
111,Парикмахерская на Мира 80,"просп. Победы, 124",54.712130005803,20.433410015159
112,Николь,"ул. Летний пр., 25, этаж цокольный",54.672197870598,20.490755800312
113,Лола,"ул. Аллея Смелых, 14",54.691699996913,20.523320008313
114,Атмосфера,"Малый пер., 17, этаж 2",54.701619979321,20.511720041051
115,Лотос,"ул. Нансена, 68",54.694700005788,20.476580001636
116,Махаон,"ул. Космонавта Леонова, 32",54.72777998295,20.48192002833
117,Лайм,"Киевская ул., 93",54.681179995966,20.476350002213
118,Эвелина,"Комсомольская ул., 49А, этаж 1",54.728429999542,20.477890009283
119,Royal Hair,"Серпуховская ул., 39",54.699369983142,20.501109976555
120,Будуар,"Советский просп., 18, этаж цокольный",54.723989979701,20.499409958953
121,Мулен Руж,"ул. Георгия Димитрова, 41Б",54.728080013175,20.488929981593
122,Фараон,"ул. Александра Суворова, 42",54.693569999511,20.469940025578
123,Зебра,"Судостроительная ул., 94, этаж цокольный",54.679849997479,20.507040005413
124,Лилия,"Батальная ул., 38",54.676910003031,20.497669959673
125,Бонжур,"ул. Подполковника Иванникова, 12",54.718799989074,20.505790012193
126,HairRoom,"ул. Николая Карамзина, 46",54.664500008647,20.508570038019
127,AS,"Пролетарская ул., 29",54.714000008401,20.512299984932
128,Сандра,"ул. Куйбышева, 79",54.726360004733,20.535860006016
129,Фиджи,"ул. Александра Невского, 36В, этаж 1",54.72777998295,20.52889003443
130,Кактус,"Пролетарская ул., 67",54.718450002707,20.512789990992
131,Monami,"Ленинский просп., 66, этаж 1",54.701070000744,20.502500031377
132,ReAl Beauty Studio,"просп. Победы, 3, Дом художника, этаж цокольный",54.71905999571,20.474419985187
133,Haar,"Воздушная ул., 79А",54.719500003718,20.448169959918
134,Miss Beauty,"ул. Аллея Смелых, 20В",54.691295515701,20.523591444934
135,Монро,"ул. Добролюбова, 37",54.717920014969,20.43997002786
136,Bg studio,"ул. Олега Кошевого, 5, этаж цокольный",54.675369995961,20.512079959974
137,Ля Фасон,"ул. Багратиона, 66",54.699529993674,20.50893004076
138,Лиана,"ул. Юрия Гагарина, 101",54.725269980135,20.549159990879
139,Баттерфляй,"Космическая ул., 4",54.71781000249,20.588610004908
140,Тамила,"ул. 9 Апреля, 100",54.719819982871,20.526949959121
141,Леди,"Октябрьская ул., 68, этаж цокольный",54.698030010191,20.516480040046
142,Парикмахерская,"Красная ул., 7",54.721569998526,20.474229967442
143,Студия-Н,"Зелёная ул., 76",54.739340010443,20.503569981318
144,Парикмахерская,"Ленинский просп., 25, этаж цокольный",54.716169999315,20.503460010748
145,Солнечный рай,"ул. Чекистов, 20, этаж цокольный",54.732450002214,20.479830000773
146,Мишель,"Юбилейная ул., 4",54.718350006602,20.541430032133
147,ExcellencE,"Красная ул., 107",54.734279981225,20.473790001345
148,Парикмахерская,"ул. Дмитрия Донского, 19",54.715080016626,20.486490009579
149,Beauty Buro,"ул. Огарёва, 34",54.719109993763,20.467020021969
150,Cut & Color by Ivanov,"ул. Генерала Челнокова, 40, этаж цокольный",54.741939992989,20.486290017369
151,Карамель,"ул. Горького, 10",54.723989979701,20.509560024603
152,Малиса,"Эпроновская ул., 9",54.70057002022,20.513259964303
153,Beauty Studio Alexandra Rogachuk,"ул. Генерала Челнокова, 46, этаж цокольный",54.745740012613,20.484209964277
154,Мадонна,"Мариупольская ул., 14, этаж 2",54.708439998659,20.498860022285
155,Салон красоты,"ул. Черняховского, 5",54.719860006459,20.505999978867
156,Бигуди,"площадь Калинина, 28, этаж 4",54.694689989413,20.501509960974
157,Домино,"Зелёная ул., 79",54.740750014196,20.506189996612
158,Чио Чио,"Пролетарская ул., 90, офис 105",54.720739980564,20.514699975268
159,Саида,"ул. Генерал-Лейтенанта Захарова, 1",54.734719989232,20.472180005383
160,Ингрид,"ул. Каштановая Аллея, 167",54.741130007776,20.461529959208
161,Beverly Hills,"ул. Сержанта Колоскова, 8, 2 этаж",54.717269998378,20.48327999212
162,Карлсхоф,"Театральная ул., 35, этаж 1, офис 108",54.717749988063,20.497260000788
163,Студия Ирины Сахаровой,"ул. Мусоргского, 19, этаж 1",54.728030015122,20.50060999603
164,Катрин,"ул. Дзержинского, 57Б, этаж 2",54.69087002086,20.530979978168
165,Avocado,"ул. Менделеева, 2, Калининград",54.712199994695,20.437159994821
166,Yumi,"Московский просп., 145",54.710140016261,20.533739971246
167,Бьюти,"Ленинский просп., 81, этаж 1",54.71219002023,20.509639987959
168,Бьютэлль,"Московский просп., 103",54.709680017414,20.524769993743
169,Secret Krasoty,"Юбилейная ул., 6",54.71805264968,20.538572100888
170,Версаль,"просп. Мира, 49",54.720539988354,20.481460029484
171,Идеал,"Интернациональная ул., 29",54.669780020914,20.501629989828
172,Сан Рей,"Артиллерийская ул., 34, Район Ленинградский",54.730310018514,20.542299989863
173,Амазонка,"Гостиная ул., 20, этаж 2",54.716979984528,20.487779984478
174,Avenue My Secret,"ул. Генерала Челнокова, 46, цокольный, этаж цокольный",54.745740012613,20.484209964277
175,Beauty mafia,"ул. Генерала Галицкого, 9",54.715360014101,20.49917995953
176,Солидарность,"Московский просп., 40, павильон 219, этаж 2",54.709370012725,20.502689965303
177,Зеркало SPA,"Московский просп., 171А, этаж 1",54.710589998733,20.542910024777
178,Просто стрижка,"Мариупольская ул., 2Г",54.708669998082,20.499429991701
179,Дана,"Балтийская ул., 34",54.74005641299,20.507042117754
180,Весна,"Римская ул., 33, корп. 2",54.723750005813,20.538310036314
181,Парикмахерская № 1,"ул. Фрунзе, 60",54.712670009915,20.531269992018
182,Жасмин,"ул. Каштановая Аллея, 43",54.750520002446,20.445859991222
183,Villa SPA,"просп. Победы, 54А",54.713670012873,20.452499967279
184,Вивальди,"Зоологическая ул., 42, район Центральный, этаж 1",54.726139979775,20.484899962547
185,Катарина,"ул. Чекистов, 28, этаж цокольный",54.732380013323,20.476940004377
186,Nice,"Киевская ул., 60А, этаж цокольный",54.681989981179,20.479409983605
187,Адамант,"ул. Менделеева, 2",54.712199994695,20.437159994821
188,Трио,"ул. Горького, 168, этаж цокольный",54.750290003023,20.503729991849
189,Каприз,"ул. Юрия Гагарина, 2А, корп. 1",54.713879979548,20.537960008037
190,Неон,"ул. Генерала Буткова, 21, район Ленинградский",54.708739986973,20.49538999819
191,Бриджит,"ул. Багратиона, 134",54.698549981554,20.498649971792
192,Л. И. О,"ул. Александра Невского, 133А",54.740509998398,20.531360013658
193,Волшебница,"ул. Черняховского, 15, лит.Б",54.721700001844,20.513440007583
194,Ваш стиль,"ул. Гайдара, 179",54.742651390937,20.507186895715
195,Barbarossa,"Киевская ул., 30",54.683659991568,20.488509964425
196,Леди N,"Корабельная ул., 6/3",54.724450020457,20.522430017834
197,Sova,"ул. Генерала Челнокова, 42, этаж цокольный",54.743039992053,20.485449983033
198,Карина,"Уральская ул., 20",54.723939981649,20.501690004255
199,СОК,"Зоологическая ул., 71, этаж цокольный",54.727559999902,20.484160008134
200,Мир красоты,"Ростовская ул., 15, этаж 1",54.727050003003,20.461340025282
201,Чио Чио,"ул. Маршала Борзова, 48А, этаж 2",54.736570000991,20.474050007981
202,Твой стиль,"ул. Генерала Соммера, 48, Вход не со стороны подъездов",54.716219997367,20.511530023306
203,Азалея,"ул. Генерала Толстикова, 17",54.675920016447,20.494140004969
204,Ботэ,"ул. Тельмана, 3, корп. 12, Район Ленинградский",54.728970003654,20.515990033986
205,Причёска,"Малый пер., 15, этаж цокольный",54.702159983433,20.511979963869
206,Данита,"ул. Карла Маркса, 23",54.726679983887,20.476089995576
207,Розовая чайка,"ул. Фёдора Воейкова, 11, Ленинградский район, микрорайон Сельма",54.745460015137,20.495060002662
208,Салон красоты,"ул. Зои Космодемьянской, 17",54.685039988107,20.526849963016
209,Добрыня,"Житомирская ул., 16",54.711149993684,20.506559973818
210,Кураж,"ул. Лукашова, 18А, микрорайон Чкаловск",54.768670007944,20.454900041434
211,Вселенная,"ул. Горького, 98",54.732760006903,20.511029958963
212,Pro Beauty,"ул. Космонавта Леонова, 12",54.723939981649,20.482269972787
213,Family pro,"ул. Сергеева, 4, отель Crystal House Suite HotelSPA, этаж 1",54.715100007465,20.515740001814
214,Morion,"Гражданская ул., 1",54.712850011286,20.525840027503
215,Uno,"Бассейная ул., 38",54.718699992969,20.453270012724
216,Мон салон,"ул. Гайдара, 93, Район Ленинградский, этаж 1",54.738670003013,20.49489999213
217,Катарина,"ул. Кирова, 5",54.724379989656,20.496289963134
218,Ресничный Дом,"Озёрная ул., 19",54.742679989311,20.428569968989
219,Индиго,"Октябрьская ул., 57, этаж 1",54.700200001104,20.520040001962
220,Моветон,"ул. Николая Карамзина, 48",54.664509983111,20.510520003974
221,NAtalya SHAueko Beauty Studio,"ул. Карла Маркса, 30",54.727349991318,20.477620028182
222,Studio Lux,"ул. Гайдара, 116",54.742740003738,20.500770006562
223,Персона Грата,"Октябрьская ул., 57, этаж 1",54.700200001104,20.520040001962
224,Моветон,"ул. Николая Карамзина, 48",54.664509983111,20.510520003974
225,NAtalya SHAueko Beauty Studio,"ул. Карла Маркса, 30",54.727349991318,20.477620028182
226,Studio Lux,"ул. Гайдара, 116",54.742740003738,20.500770006562
227,Персона Грата,"ул. Аллея Смелых, 72",54.686879983492,20.52241995955
228,Солнечный ветер,"Судостроительная ул., 89, этаж цокольный",54.680270014648,20.507230023158
229,Mon Ami,"ул. Багратиона, 101",54.698570014303,20.502129970352
230,Виола,"просп. Мира, 84, этаж 1",54.720650000833,20.475769974513
231,Кудряшка,"ул. Генерала Соммера, 15",54.716300002633,20.507130027053
232,Фиджи. Я,"Университетская ул., 2В, офис 303, этаж 3",54.71431001309,20.508719990267
233,Kiss Beauty Studio,"Колхозная ул., 9",54.743490016434,20.527680022888
234,Полина,"Красносельская ул., 33",54.712700017128,20.442630024833
235,РИО,"ул. Мусоргского, 4",54.724910019303,20.498809982323
236,Allure Beauty,"Земельная ул., 8-8А",54.731679998679,20.512650013209
237,Лакмус,"просп. Мира, 27, этаж 2",54.719719986766,20.485589960816
238,Формула Красоты,"Киевская ул., 98",54.681570005921,20.471190018799
239,Магнолия,"ул. Генерала Челнокова, 44, этаж цокольный",54.745309979071,20.483289966585
240,Созвездие красоты,"ул. Лермонтова, 8А",54.734140003442,20.522339996194
241,Inglot Pro Studio,"ул. Маршала Баграмяна, 36",54.706937664334,20.490867124318
242,Daria Zaitceva,"Ленинский просп., 141, Россия, Калининград, Ленинский проспект 141, этаж 1",54.697880016033,20.503160022433
243,Мерси,"Самаркандская ул., 3",54.676523927991,20.501803841817
244,Гармония,"ул. Маршала Новикова, 11",54.678919983413,20.481579974518
245,Модный Дворик,"ул. Ульяны Громовой, 4, этаж 1",54.673239986726,20.500180004397
246,Кудряшка,"ул. Горького, 117",54.736630015418,20.507430015368
247,Комильфо,"Беломорская ул., 2, офис 12, этаж цокольный",54.735090008348,20.511049991712
248,Моне,"ул. Маршала Новикова, 11",54.678919983413,20.481579974518
249,Модный Дворик,"ул. Ульяны Громовой, 4, этаж 1",54.673239986726,20.500180004397
250,Кудряшка,"ул. Горького, 117",54.736630015418,20.507430015368
251,Комильфо,"Беломорская ул., 2, офис 12, этаж цокольный",54.735090008348,20.511049991712
252,Моне,"Пролетарская ул., 63",54.718109990805,20.512599973247
253,Beauty splash,"ул. Александра Невского, 273",54.760829994809,20.541909979909
254,Joy,"ул. Александра Невского, 137Б, этаж 2",54.741820006045,20.531759998077
255,Федоль,"ул. Космонавта Леонова, 64",54.733419997959,20.481590032802
256,Парикмахерская,"ул. Виктора Гакуна, 9",54.748480014852,20.530860033133
257,BackStage,"ул. Генделя, 16",54.722409990953,20.496159959816
258,Алла,"ул. Юрия Гагарина, 11",54.716319993472,20.539500015108
259,Il salone,"Комсомольская ул., 2А, этаж цокольный",54.721049985253,20.479370001927
260,Victoria,"ул. Докука, 1, микрорайон Чкаловск, этаж 2",54.768329996042,20.446719974487
261,Натали,"Больничная ул., 9",54.713280002919,20.504069961842
262,Алина,"ул. Генерала Соммера, 58А",54.71651942439,20.510771158434
263,Парикмахерская,"ул. Ульяны Громовой, 102, этаж 1",54.663680007059,20.499499980593
264,Лакфен,"Интернациональная ул., 76, этаж 2",54.668819999634,20.510259997337
265,Просто Стрижка,"Житомирская ул., 16, этаж 1",54.711149993684,20.506559973818
266,Жасмин,"ул. Олега Кошевого, 22",54.674020006635,20.511100031673
267,Авеню,"ул. Юрия Гагарина, 7",54.716039995996,20.537130031985
268,Laser Love,"1-й Октябрьский пр., 1",54.720229983665,20.481189964563
269,Gettinger,"ул. Литовский Вал, 87А, отдельный вход, ориентир стоматология, этаж 1",54.708609983655,20.540139973415
270,Асаdemy Life Style,"Гражданская ул., 1",54.712850011286,20.525840027503
271,Кристалл,"Интернациональная ул., 48, этаж цокольный",54.669010017379,20.504069961842
272,KPstudio,"просп. Победы, 137, этаж 1",54.70996001489,20.442549977658
273,Салон красоты,"ул. Юрия Гагарина, 7",54.716039995996,20.537130031985
274,Laser Love,"1-й Октябрьский пр., 1",54.720229983665,20.481189964563
275,Gettinger,"ул. Литовский Вал, 87А, отдельный вход, ориентир стоматология, этаж 1",54.708609983655,20.540139973415
276,Асаdemy Life Style,"Гражданская ул., 1",54.712850011286,20.525840027503
277,Кристалл,"Интернациональная ул., 48, этаж цокольный",54.669010017379,20.504069961842
278,KPstudio,"просп. Победы, 137, этаж 1",54.70996001489,20.442549977658
279,Салон красоты,"ул. Маршала Борзова, 58Е, цокольный",54.738500018017,20.464850031056
280,Парикмахерская,"Нарвская ул., 102",54.740880017514,20.49877997511
281,Paula studio,"ул. Павлика Морозова, 115Б",54.674219998845,20.481769992263
282,Студия 115,"ул. Генерала Челнокова, 60, офис 1",54.749209994799,20.479769986346
283,Персона Грата,"ул. Александра Суворова, 40",54.693619997564,20.472700018656
284,Парикмахерская,"ул. Новый Вал, 32",54.699829981988,20.509209996326
285,Арт-Роял,"ул. Карла Маркса, 140",54.723700007761,20.461719976953
286,Маникюр'Чик,"ул. Грига, 9",54.708300020876,20.531580038616
287,Локоны Кристины,"ул. Горького, 170",54.749179987586,20.501650022576
288,Beauty-пространство № 1,"ул. Брамса, 35",54.72613000531,20.493619991696
289,Милена,"Дачная ул., 8",54.748439991264,20.448840009258
290,Top_hair_studio__,"Артиллерийская ул., 25",54.73302001354,20.545909991742
291,Иоланта,"Интернациональная ул., 46",54.668329993574,20.504419990119
292,Чио Чио,"Московский просп., 46, 1",54.708910013879,20.502410009737
293,Hair Studio 39,"ул. Карла Маркса, 100",54.72506001346,20.467210039714
294,Актуэль,"ул. Фрунзе, 6В, комната 308, этаж 3",54.711909980845,20.521529969071
295,Подружки,"Летняя ул., 68",54.670570015288,20.485900007415
296,Алека,"Советский просп., 38",54.72682000358,20.49519000598
297,Стрижка Express,"ул. Боткина, 2А",54.716760001479,20.524170017114
298,Secret krasoty,"ул. Боткина, 2А",54.716760001479,20.524170017114
299,Secret krasoty,"ул. Александра Невского, 51Б, этаж цокольный",54.731120003728,20.53015997658
300,Амплуа,"ул. Ульяны Громовой, 39",54.668069986938,20.500770006562
301,Салон красоты Студия 22,"ул. Генделя, 8, этаж цокольный",54.722029997372,20.496619958662
302,Причесон,"ул. Партизана Железняка, 19, этаж 2",54.729219993916,20.538780009625
303,Ирис,"ул. Юрия Гагарина, 13, этаж 1",54.717089997007,20.540229995055
304,Масал,"ул. Маршала Борзова, 97, этаж цокольный",54.735940017149,20.459019998302
305,Парикмахерская,"Юбилейная ул., 6",54.71805264968,20.538572100888
306,Клеопатра,"Интернациональная ул., 53",54.669739997326,20.506940009308
307,Victory,"Советский просп., 26",54.724919993768,20.497699966886
308,Парикмахерская,"Нарвская ул., 115",54.742839999843,20.498119984054
309,Marmin,"ул. Белинского, 42",54.716150008475,20.439640032332
310,Парикмахер,"ул. Дзержинского, 116, Калининград",54.685980018548,20.532840006302
311,Алёнушка,"Интернациональная ул., 30, этаж 1",54.668830016008,20.501130009303
312,Колорит,"Космическая ул., 8",54.715410012154,20.501230005408
313,Ника,"Артиллерийская ул., 63, этаж цокольный",54.732020010581,20.548330014827
314,Фэмэли,"Артиллерийская ул., 56",54.731020007623,20.550490031275
315,Шарм,"Московский просп., 46",54.708910013879,20.502410009737
316,Hair Studio,"Московский просп., 40, офис 007, этаж цокольный",54.709370012725,20.502689965303
317,РиоГранд,"Московский просп., 14Б, этаж 1",54.710019987407,20.497229993575
318,Салон красоты,"ул. Карла Маркса, 61",54.724600014614,20.467069978112
319,Bazar Shop,"ул. Профессора Баранова, 40, ТРЦ Европа, -1 этаж",54.718599996864,20.499109970638
320,Solingen,"Московский просп., 14Б",54.710019987407,20.497229993575
321,Парикмахерская,"ул. Карла Маркса, 59",54.72468001988,20.467410031924
322,Парикмахерская № 7,"ул. Генерала Челнокова, 11, этаж 1",54.738030002796,20.486049959662
323,Стриж&ка,"ул. Карла Маркса, 61",54.724600014614,20.467069978112
324,Bazar Shop,"ул. Профессора Баранова, 40, ТРЦ Европа, -1 этаж",54.718599996864,20.499109970638
325,Solingen,"Московский просп., 14Б",54.710019987407,20.497229993575
326,Парикмахерская,"ул. Карла Маркса, 59",54.72468001988,20.467410031924
327,Парикмахерская № 7,"ул. Генерала Челнокова, 11, этаж 1",54.738030002796,20.486049959662
328,Стриж&ка,"ул. Генерала Соммера, 10",54.715610004363,20.50585002662
329,O'kay,"Космическая ул., 4",54.71781000249,20.588610004908
330,Клеопатра,"ул. Профессора Баранова, 40",54.718599996864,20.499109970638
331,Solingen,"Береговая ул., 20",54.652119979566,20.331100002085
332,Mix me,"Интернациональная ул., 57",54.669969996749,20.507630007578
333,Карнавал,"ул. Некрасова, 3",54.734322327957,20.529090290497
334,Шарм39,"Батальная ул., 70",54.67481000101,20.499139977851
335,Маркиза,"ул. Генерал-Лейтенанта Озерова, 16",54.725160009565,20.500289974967
336,Queens lab,"ул. Генерала Челнокова, 38",54.742399991836,20.487150000635
337,BeYOUtiful,"Киевская ул., 52, этаж цокольный",54.682149991711,20.481950035543
338,Розовый кот,"ул. Ульяны Громовой, 127",54.663120012108,20.503260018538
339,Лилу,"Батальный пер., 4, этаж 2",54.676159990335,20.501290019835
340,Салон красоты,"ул. Александра Невского, 49А, район Ленинградский",54.729410011661,20.529109975569
341,Школа-студия Алены Меркуловой,"Пролетарская ул., 37",54.71480001915,20.512799965457
342,Фабрика грёз,"ул. Горького, 104",54.735509983606,20.509519959106
343,Подстригалочка,"Великолукская ул., 2",54.681900001449,20.480819987357
344,Ревье,"ул. Карла Маркса, 62",54.72624001779,20.472700018656
345,Ирина,"ул. Александра Невского, 36В, этаж 3",54.72777998295,20.52889003443
346,Визажист - стилист Елена Черноокая,"Коммунистическая ул., 21",54.67945001306,20.483890027033
347,Шарм,"ул. Генерала Соммера, 15, Район Ленинградский",54.716300002633,20.507130027053
348,Pro тело,"ул. Генерала Соммера, 15, Район Ленинградский",54.716300002633,20.507130027053
349,Pro тело,"ул. Петра Панина, 2А, Ленинградский район, микрорайон Сельма",54.746374611273,20.495284654887
350,Стрижка Bistro,"Минусинская ул., 16А",54.677519996035,20.47455996297
351,РИО,"ул. Николая Карамзина, 38",54.665370008287,20.510450015082
352,Mango,"ул. Богдана Хмельницкого, 59, офис 132, этаж 1",54.697310004708,20.509430021285
353,Charmant,"просп. Победы, 84, этаж цокольный",54.710720002051,20.443569971455
354,Парикмахерская,"ул. Горького, 98, этаж 2",54.732760006903,20.511029958963
355,AB-studio,"Промышленная ул., 8, посёлок Кутузово, этаж 1",54.767597851963,20.529304145853
356,Aurelia,"ул. Ульяны Громовой, 81",54.666229991553,20.500340014929
357,Елена,"просп. Мира, 141",54.720919981935,20.445929980113
358,M style,"ул. Гайдара, 93",54.738670003013,20.49489999213
359,Куафёр,"ул. Беланова, 10, микрорайон Чкаловск",54.772200004557,20.44763997218
360,Silver Star,"Садовая ул., 1",54.769010019847,20.456689996858
361,Mari,"ул. Маршала Борзова, 58, корп. 1",54.736739985988,20.468460032935
362,Barber,"Краснооктябрьская ул., 17, офис 202, этаж 2",54.702009989276,20.50865997584
363,Парикмахерская,"Московский просп., 171А, этаж 1",54.710589998733,20.542910024777
364,Beauty Zone,"Ленинский просп., 66",54.701070000744,20.502500031377
365,Фемили студиЯ,"ул. Согласия, 44, этаж 1",54.749840020551,20.488250041608
366,Express парикмахерская,"Советский просп., 36",54.726399986412,20.495710019253
367,Red style,"Вагоностроительная ул., 1А, этаж 1",54.713620014821,20.458350032781
368,Парикмахерская,"ул. Юрия Гагарина, 1",54.715260017996,20.536670033139
369,Jk,"Пролетарская ул., 90, офис 301, этаж 3",54.720739980564,20.514699975268
370,Василиса,"Нарвская ул., 32",54.729859994133,20.497069983043
371,Парикмахерская,"Можайская ул., 63",54.676910003031,20.442530028728
372,Парикмахерская,"Пролетарская ул., 75",54.71917000819,20.513219982625
373,Woodoo,"Вагоностроительная ул., 1А, этаж 1",54.713620014821,20.458350032781
374,Парикмахерская,"ул. Юрия Гагарина, 1",54.715260017996,20.536670033139
375,Jk,"Пролетарская ул., 90, офис 301, этаж 3",54.720739980564,20.514699975268
376,Василиса,"Нарвская ул., 32",54.729859994133,20.497069983043
377,Парикмахерская,"Можайская ул., 63",54.676910003031,20.442530028728
378,Парикмахерская,"Пролетарская ул., 75",54.71917000819,20.513219982625
379,Woodoo,"ул. Космонавта Леонова, 58, этаж 1",54.732200011952,20.481649963409
380,Формула красоты,"Мирная ул., 1, Цоколь",54.714650004038,20.576160028845
381,Красота и Здоровье,"просп. Мира, 123",54.720660017208,20.450129984156
382,Панда,"ул. Виллима Фермора, 3, Ленинградский район, микрорайон Сельма, этаж цокольный",54.743610003378,20.486420020688
383,Мармелад,"ул. Старшины Дадаева, 62, ТЦ Дадаевский",54.728970003654,20.541449981062
384,Malina,"ул. Подполковника Емельянова, 25",54.683260007148,20.541270021601
385,Валентина,"ул. Юрия Гагарина, 16Б",54.718460019081,20.543259969234
386,Gloss_pab,"ул. Ушинского, 1",54.719229980707,20.49528002762
387,Клео,"Зоологическая ул., 29",54.724340007978,20.484390007558
388,Bondy,"Театральная ул., 13",54.716169999315,20.502050006996
389,Парикмахерская № 24,"Товарная ул., 14, этаж цокольный",54.681700009239,20.497989980736
390,Элен,"ул. Генерала Челнокова, 11, лит.Ж, этаж 2",54.736719995149,20.488039991114
391,ВИВА,"ул. Генерала Челнокова, 40",54.741939992989,20.486290017369
392,Лаванда,"ул. Фрунзе, 107",54.713970001188,20.534059992309
393,Angels,"ул. Островского, 1А, этаж цокольный",54.742570018742,20.514160013066
394,Эстетик Профи,"Интернациональная ул., 27",54.66995000591,20.501330001513
395,Джем,"ул. Карла Маркса, 10, этаж -1",54.728820009496,20.483539998756
396,Force,"ул. Фрунзе, 35А",54.713000005443,20.523729967197
397,Парикмахерская,"Интернациональная ул., 27",54.66995000591,20.501330001513
398,Парикмахерская,"ул. Карла Маркса, 10, этаж -1",54.728820009496,20.483539998756
399,Force,"ул. Фрунзе, 35А",54.713000005443,20.523729967197
400,Парикмахерская,"ул. Беланова, 31, микрорайон Чкаловск",54.769839995899,20.446670018344
401,Парикмахерская,"ул. Мира, 7Б, микрорайон Чкаловск",54.772879986452,20.449209986464
402,Sole Mio,"ул. Черняховского, 15, лит.Б",54.721700001844,20.513440007583
403,Он и Она,"ул. Генерала Челнокова, 52, Бьюти коворкинг #1",54.746749990036,20.48192002833
404,Чио Чио,"ул. Горького, 176Б",54.751029999345,20.501079969341
405,Смарт,"ул. Гайдара, 116",54.742740003738,20.500770006562
406,Цирюльня,"ул. Чекистов, 20, этаж цокольный",54.732450002214,20.479830000773
407,Голливуд,"Майский пер., 3",54.728970003654,20.534940008323
408,Spa-House,"ул. Павлика Морозова, 130Б, этаж 2",54.673858526149,20.480540908976
409,Феличи,"ул. Профессора Баранова, 34, этаж 2",54.721149981358,20.506389988822
410,Safi,"Нарвская ул., 2",54.72759998158,20.495159998767
411,Шик,"Батальная ул., 69",54.676239995601,20.506580006567
412,Солнечный ветер,"ул. Горького, 55, павильон 64, этаж 1",54.72119997941,20.592480013423
413,Парикмахерская,"ул. Профессора Севастьянова, 22А",54.715244928232,20.510936435001
414,Мега Стиль,"Солнечный бул., 1, этаж 2",54.704580006518,20.517649986091
415,Darkness,"Театральная ул., 35, этаж 2",54.717749988063,20.497260000788
416,Изумруд,"Азовская ул., 4, этаж цокольный",54.728440015916,20.514759989695
417,5th Avenue SPA,"Киевская ул., 118А, этаж цокольный",54.682349983921,20.466549964839
418,Фокс,"Нарвская ул., 90А",54.7386399958,20.498089976841
419,Феникс,"ул. Багратиона, 24",54.699649980618,20.514680026339
420,Парикмахерская,"ул. Профессора Баранова, 41",54.720674618185,20.506070554458
421,Наталия,"Киевская ул., 30",54.683659991568,20.488509964425
422,Плойка,"Нарвская ул., 90А",54.7386399958,20.498089976841
423,Аура,"ул. Багратиона, 24",54.699649980618,20.514680026339
424,Парикмахерская,"ул. Профессора Баранова, 41",54.720674618185,20.506070554458
425,Наталия,"1-й Октябрьский пр., 5",54.72004000783,20.481349975095
426,Плойка,"Киевская ул., 30",54.683659991568,20.488509964425
427,Дом Красоты,"Красносельская ул., 51",54.713490011503,20.442839991507
428,Аура,"ул. Олега Кошевого, 15, этаж цокольный",54.674499996321,20.512239970505
429,Парикмахерская,"ул. Беланова, 31, микрорайон Чкаловск, Вход с торца дома",54.769839995899,20.446670018344
430,Парикмахерская,"Уральская ул., 20, этаж 1",54.723939981649,20.501690004255
431,Shaggy,"Великолукская ул., 14",54.682770001089,20.481390040592
432,Myveto,"ул. Юрия Гагарина, 55В",54.720109996721,20.540250027804
433,L-Стиль,"Майский пер., 5",54.728210016493,20.534940008323
434,ГригАрменио,"Красная ул., 44",54.726839994419,20.474740006251
435,BodyChange,"ул. Горького, 42",54.728030015122,20.588240027702
436,Шоколад,"ул. Куйбышева, 2",54.725338067564,20.537351035001
437,Baccarat,"Ленинский просп., 67Б, этаж 4",54.712909983803,20.507939970357
438,Airy,"Тихорецкая ул., 30, этаж 2",54.684009948156,20.47914568686
439,Студия красоты Елены Еременко,"ул. Генерала Челнокова, 40, этаж цокольный",54.741939992989,20.486290017369
440,Светлана,"ул. Куйбышева, 217, этаж цокольный",54.725360001775,20.545429960147
441,Pudra,"Машиностроительная ул., 64",54.678929999787,20.50448997901
442,Лагуна,"ул. Маршала Борзова, 65А, этаж 1, 2",54.735979998827,20.472530033659
443,Вилена,"Киевская ул., 121В, комната 15",54.68022999106,20.466079991528
444,Жасмин,"просп. Мира, 46-48",54.721029994414,20.484309960382
445,Салон красоты,"ул. Генерала Раевского, 4",54.748879999271,20.532029979179
446,ВО! сторг,"ул. Юрия Гагарина, 16В",54.719580008983,20.543900011361
447,Ola-la,"ул. Полковника Ефремова, 2Б",54.744809998546,20.503550032388
448,Galatea,"Пражская ул., 38",54.725070186452,20.535959535898
449,Парикмахерская,"ул. Гайдара, 163",54.742651390937,20.507186895715
450,Paradise Clinic,"ул. Космонавта Леонова, 21",54.725149993191,20.481509985626
451,Креатив,"ул. Ульяны Громовой, 123",54.663190000999,20.500549981604
452,Лика,"ул. Каштановая Аллея, 165",54.741280001933,20.460869968152
453,Callisto,"ул. Маршала Борзова, 101, подъезд 2",54.736249979928,20.458069993396
454,Violet,"Киевская ул., 118А, этаж цокольный",54.682349983921,20.466549964839
455,Happy hairstyle studio,"Новинская ул., 10, этаж 2",54.677480014357,20.542339971542
456,Сакура,"ул. Клары Цеткин, 29, район Ленинградский, этаж 1",54.750179990544,20.527160009615
457,Luna,"Интернациональная ул., 64",54.668390008001,20.507950028641
458,Candy Beauty Bar,"Киевская ул., 108",54.681720000078,20.467350017497
459,Магия,"ул. Рокоссовского, 24, Вход с пешеходной зоны ул. Рокоссовского",54.719450005665,20.508959964155
460,Афелия,"ул. Белинского, 40",54.716000014318,20.442249989343
461,Салон-Плюс,"ул. Ульяны Громовой, 40",54.67101999776,20.500159971649
462,Родинка,"ул. Фрунзе, 6В, офис 306, этаж 3",54.711909980845,20.521529969071
463,Ераз,"бул. Любови Шевцовой, 4",54.671210015505,20.501490012045
464,Rl Beauty Studio,"просп. Мира, 100",54.721749999897,20.470129959504
465,Mixx,"ул. Виллима Фермора, 3, Ленинградский район, микрорайон Сельма, этаж цокольный",54.743610003378,20.486420020688
466,Alter barber,"ул. Боткина, 2А, этаж 2",54.716760001479,20.524170017114
467,Beauty club,"Понартская ул., 5",54.662577964537,20.509473637845
468,Бабетта,"ул. Сергеева, 61",54.720170011148,20.518090036008
469,Mr. Стриж,"ул. Виллима Фермора, 6, Ленинградский район, микрорайон Сельма, офис 5",54.74541999155,20.485540004673
470,Велюр,"Пролетарская ул., 35",54.714519979765,20.512870038167
471,Имидж-лаборатория,"Звёздная ул., 37, этаж 1",54.698199995187,20.58828000938
472,Студия эстетики волос,"Пролетарская ул., 35",54.714519979765,20.512870038167
473,Классик,"Звёздная ул., 37, этаж 1",54.698199995187,20.58828000938
474,Студия эстетики волос,"Комсомольская ул., 26, этаж цокольный",54.724670003506,20.479560019672
475,Классик,"ул. Фрунзе, 6В, ТЦ Ванда",54.711909980845,20.521529969071
476,Leon,"ул. Горького, 138",54.738769999118,20.506299967182
477,Студия маникюра Vivi Nails,"Дачная ул., 8, офис 28, этаж 1",54.748439991264,20.448840009258
478,Венера,"Пролетарская ул., 84",54.719610016197,20.514199994744
479,Тут Гладко,"Московский просп., 123А, павильон 9, этаж 2",54.710019987407,20.529330000528
480,Волчица,"ул. Тенистая Аллея, 122",54.725146554907,20.409967566982
481,Beauty Pro,"Юношеская ул., 4",54.72322999254,20.507270004836
482,Парикмахерская,"ул. Горького, 150А, этаж -1",54.740210010084,20.505509972808
483,Starlight,"просп. Мира, 124",54.722750002855,20.463949982293
484,Sun City,"ул. Юрия Гагарина, 32",54.724800006824,20.551259992901
485,Мы модны,"ул. Чекистов, 95",54.732539981945,20.469120023991
486,Парикмахерская,"ул. Согласия, 44, магазин Виктория",54.74052,20.49324
487,Орхидея,"ул. Богдана Хмельницкого, 53, Гостиница Золотая Бухта, этаж 1",54.69735,20.5085
488,Салон красоты,"ул. Подполковника Иванникова, 10",54.71858998049,20.505780037728
489,Парикмахерская,"ул. Горького, 193",54.738919993275,20.505109988388
490,Jerry Barber,"ул. Некрасова, 20, этаж цокольный",54.73571999219,20.527109969653
491,Идея-Ванда,"Красносельская ул., 51",54.713490011503,20.442839991507
492,ArS-Studio,"ул. Рокоссовского, 26",54.719630007036,20.508889975263
493,Парикмахерская,"ул. Юрия Гагарина, 24А",54.723989979701,20.549380015838
494,Capelli,"Артиллерийская ул., 63, этаж цокольный",54.732020010581,20.548330014827
495,Beauty salon,"Судостроительная ул., 17В, этаж цокольный",54.680910014864,20.49354002834
496,Ярославна,"Больничная ул., 24, офис 40, этаж 4",54.712579988275,20.503309974681
497,Miss Beauty,"ул. Партизана Железняка, 8",54.728100004014,20.539539996786
498,Парикмахерская,"ул. Генерала Челнокова, 44, этаж цокольный",54.745309979071,20.483289966585
499,Kenigbraids,"ул. Мусоргского, 8, этаж 1",54.725199991244,20.499329995596
500,Иоланта,"просп. Победы, 73",54.713970001188,20.45645002297
501,Cherry,"Красноармейская ул., 1, этаж цокольный",54.699000005936,20.510610025614
502,Студия депиляции Гульнары Бигвава,"площадь Победы, 4А, офис 504, этаж 5",54.721149981358,20.501139983768
503,Для вас,"ул. Черняховского, 17, этаж 1",54.720830002204,20.515749976279
504,Парикмахерская,"просп. Калинина, 63",54.695420011271,20.510559985652
505,VIA,"ул. Генерала Галицкого, 35",54.713399989863,20.496690031372
506,Ok! Studio,"Октябрьская ул., 57",54.700200001104,20.520040001962
507,Парикмахерская,"Парковый пер., 3, этаж цокольный",54.691320003332,20.520260026921
508,Балтийский институт красоты и здоровья,"Артиллерийская ул., 23А",54.732209986417,20.545889958993
509,Art Space,"Дачная ул., 8, этаж 1",54.748439991264,20.448840009258
510,Студия красоты,"ул. Александра Невского, 70А",54.735350014984,20.532919969658
511,Семейная,"Гостиная ул., 5, этаж -1",54.717799986116,20.488320030499
512,Кудряшка,"Автомобильная ул., 24, этаж 1",54.674159984418,20.488360012178
513,Апельсин,"ул. Лейтенанта Яналова, 5А, этаж цокольный",54.729679992762,20.485649975243
514,Expert,"ул. Юрия Гагарина, 75",54.723329719739,20.546459233648
515,Парикмахерская,"ул. Горького, 104Б",54.735949991614,20.508610019697
516,Эра,"Батальная ул., 39",54.676500002237,20.499190017813
517,WillMade,"ул. Дзержинского, 79, корп. 3",54.685169991425,20.53422000284
518,Просто стрижка,"Московский просп., 174, офис 15, этаж 3",54.709691512235,20.542722946008
519,Парикмахерская,"Колхозная ул., 12А",54.745654949289,20.526673320558
520,Парикмахерская,"Интернациональная ул., 58А, павильон 4",54.668939986578,20.506189996612
521,Визажист Антонина Коваленко,"Интернациональная ул., 58А, павильон 4",54.668939986578,20.506189996612
522,Мастер-клуб,"ул. Багратиона, 130А",54.698379959323,20.499326924863
523,Парикмахерская,"ул. Дзержинского, 98",54.68884000773,20.531639969224
524,Парикмахерская,"ул. Олега Кошевого, 11",54.675209985429,20.514639960842
525,Эстетика,"Пролетарская ул., 1",54.711620008904,20.512129999936
526,Парикмахерская Бигуди,"1-я Большая Окружная ул., 83",54.741269122677,20.442399922848
527,Elli beauty,"Театральная ул., 23",54.71702998258,20.499610034982
528,Black Bull,"Майский пер., 3",54.728970003654,20.534940008323
529,Парикмахерская,"Лесопарковая ул., 1",54.714749979188,20.456320019651
530,Салон красоты,"Дачная ул., 8, этаж 1",54.748439991264,20.448840009258
531,Rayder lab,"Новинская ул., 10",54.677480014357,20.542339971542
532,Кудряшка,"ул. Ульяны Громовой, 39",54.668069986938,20.500770006562
533,Wow. Brovi,"ул. Дзержинского, 79, корп. 3, павильон 10",54.685169991425,20.53422000284
534,Luna,"ул. Яблоневая Аллея, 1",54.756334105411,20.433630786619
535,Парикмахерская,"Батальная ул., 5",54.672030017093,20.561809959152
536,Салон-парикмахерская,"Киевская ул., 80, этаж 2",54.681800005344,20.47455996297
537,Солнце,"Ореховая ул., 3, этаж 1",54.698590005142,20.503929984059
538,Парикмахерская,"ул. Юрия Гагарина, 16Г, офис 7",54.720049982294,20.544950012371
539,Gloss,"Октябрьская ул., 29А, этаж 2",54.702360017552,20.51688999893
540,Салон красоты на Ореховой,"ул. Горького, 176Г, корп. 2, Калининград",54.751860017307,20.50110000209
541,Лето+,"ул. Юрия Гагарина, 20",54.723750005813,20.548090040939
542,На острове,"Воздушная ул., 79А",54.719500003718,20.448169959918
543,Oh my nails,"Нарвская ул., 112, этаж 2",54.743200980355,20.499180091776
544,Вита,"Батальная ул., 54Г, этаж 2",54.675675935427,20.499685555929
545,Nude Beauty Bar,"Гвардейский просп., 3",54.715892059867,20.49416874524
546,Malibu,"Совхозная ул., 1Б, посёлок Шоссейное",54.738019986422,20.563170006761
547,Парикмахерская,"Советский просп., 81, корп. 4, этаж 1",54.734109996229,20.482729971634
548,OldBoy,"ул. Генерала Буткова, 1",54.709789987984,20.495759975396
549,Zebra,"Полоцкая ул., 45",54.702059987328,20.498149991267
550,Кератин Шоп,"ул. Космонавта Леонова, 58",54.732200011952,20.481649963409
551,Эстетика тела,"Советский просп., 6А, этаж 3",54.722179991529,20.49945002445
552,Золотая бухта,"Пролетарская ул., 59А, этаж цокольный",54.71789998222,20.512209963292
553,Салон красоты,"ул. Горького, 50",54.727510001849,20.587889999425
554,Аура,"ул. Генерала Буткова, 19",54.709170020516,20.495670037575
555,Ресничные феи,"ул. Тельмана, 48Б, офис 11, этаж 1",54.736329985194,20.525250025338
556,Локоны Кристины,"Ярославская ул., 2В",54.713230004866,20.524660023174
557,Парикмахерская,"Корабельная ул., 6/2, этаж 3",54.724479985761,20.522560021152
558,Ничего лишнего,"Ленинский просп., 131, офис 210, этаж 2",54.69872000846,20.503669977423
559,Студия красоты 3/9,"Ленинский просп., 7, этаж 3",54.71781000249,20.502570020269
560,Студия окрашивания волос Алисы Серовой,"Московский просп., 174, офис 15, этаж 3",54.709691512235,20.542722946008
561,Британика,"ул. Черняховского, 70",54.719970018938,20.515410006286
562,Efremova lash,"Нарвская ул., 34",54.730029979129,20.497120023005
563,MariArt,"Коммунистическая ул., 23",54.677320003825,20.483779972644
564,Парикмахерская,"ул. Генерала Раевского, 4",54.748879999271,20.532029979179
565,Барби,"Пролетарская ул., 92",54.720730006099,20.515110017972
566,Престиж,"ул. 9 Апреля, 1, этаж цокольный",54.716968282876,20.523714513894
567,Миндаль,"ул. Добролюбова, 37",54.717920014969,20.43997002786
568,Volos Best,"Московский просп., 120, этаж -1",54.70947000883,20.531799979756
569,Блеск,"Нарвская ул., 2",54.72759998158,20.495159998767
570,Чаровница,"Тихорецкая ул., 16А, этаж 1",54.68516001696,20.48541997582
571,Парикмахерская,"ул. Александра Невского, 44, этаж цокольный",54.729080016133,20.52986996273
572,Парикмахерская,"Корабельная ул., 6/2",54.724479985761,20.522560021152
573,Beautiful Smile,"ул. Генерала Челнокова, 46, этаж цокольный",54.745740012613,20.484209964277
574,Woodoo Barbershop,"ул. Горького, 170Б",54.750170016079,20.502600027482
575,Beauty stydio Blonde,"ул. Мусоргского, 10, корп. 44, этаж 2",54.726900008846,20.501959985356
576,Надежда,"площадь Маршала Василевского, 2, этаж 3",54.719849990085,20.523610022163
577,Светлана Стравинскене,"ул. Генерала Толстикова, 17/2",54.675920016447,20.494140004969
578,Салон-парикмахерская Алюр,"Артиллерийская ул., 22, Артиллерийский",54.732100015847,20.539899999527
579,Студия красоты Станиславы Барской,"ул. Карла Маркса, 25",54.726570013318,20.475729992835
580,Чик-Чик,"ул. Дзержинского, 79, корп. 9, павильон 74",54.684640003687,20.53500002275
581,OldBoy,"Озёрная ул., 19, офис 3",54.742679989311,20.428569968989
582,Гортензия,"Береговая ул., 18",54.65175000236,20.331069994872
583,Эффект,"Каменная ул., 13А",54.724060010502,20.46767003856
584,Magic Beauty,"ул. Виллима Фермора, 3, Ленинградский район, микрорайон Сельма",54.743610003378,20.486420020688
585,Label hair,"ул. Беланова, 6, микрорайон Чкаловск",54.771030016603,20.447799982712
586,HairPlay,"Судостроительная ул., 6, этаж 2",54.6810999907,20.487129967887
587,Ekaterina Burlak,"ул. Фёдора Воейкова, 11, Ленинградский район, микрорайон Сельма, этаж цокольный",54.745460015137,20.495060002662
588,Салон красоты,"ул. Генерала Соммера, 20",54.715870011,20.507379975406
589,Парикмахерская,"ул. Генерала Челнокова, 43, помещение 5а",54.747879996313,20.478889970332
590,Wow. Beauty,"ул. Нансена, 68",54.694700005788,20.476580001636
591,Школа красоты,"ул. Фрунзе, 6В, офис 504, этаж 5",54.711909980845,20.521529969071
592,Good girl,"Машиностроительная ул., 60",54.67925002085,20.502619976412
593,Амелия,"ул. Николая Карамзина, 7",54.666620001507,20.503019960831
594,La Rose,"ул. Карла Маркса, 71",54.724119983019,20.464839972772
595,РИО,"ул. Ульяны Громовой, 99, этаж цокольный",54.665480020766,20.500389971072
596,Парикмахерская,"ул. Генерала Челнокова, 11, лит.Ж",54.736719995149,20.488039991114
597,Косметик профи,"Интернациональная ул., 40А, павильон 19",54.6689000049,20.50254998752
598,Дева,"ул. Жиленкова, 1, микрорайон Чкаловск",54.768629984357,20.448410017625
599,Парикмахерская,"ул. Некрасова, 3",54.734322327957,20.529090290497
600,La Fason,"просп. Мира, 7",54.719560018144,20.496000033103
601,Парикмахерская для всех,"ул. Щепкина, 18А, этаж 2",54.670476232838,20.439942063091
602,HAIRS SECRET,"ул. Горького, 12",54.724199988285,20.509579973533
603,Varlamova professional studio,"ул. Горького, 170",54.749179987586,20.501650022576
604,Анушик,"Нарвская ул., 82",54.737739988946,20.497850002953
605,Парикмахерская № 9,"ул. Генерала Буткова, 19А",54.709520006883,20.495410030938
606,Hairbar39,"ул. Дмитрия Донского, 7, комната 205, этаж 2",54.714590010566,20.48860996053
607,Scissors,"ул. Горького, 207",54.743200002584,20.501369983191
608,Express,"ул. Зои Космодемьянской, 20",54.684709992579,20.527490005143
609,Tet-a-tet,"Автомобильная ул., 24, этаж 1",54.674159984418,20.488360012178
610,Klimenko Studio,"Камская ул., 63, корп. 2, ТЦ Космос, павильон 20",54.670529991701,20.467810016343
611,Анаит,"Батальная ул., 100, этаж цокольный",54.676089208195,20.512744854733
612,Парикмахерская,"Интернациональная ул., 30, этаж 1, ТЦ Южный",54.668830016008,20.501130009303
613,Космостайл,"ул. Дзержинского, 79, ТЦ Московский, этаж 1, павильон 5а",54.684640003687,20.53500002275
614,Стилист,"ул. Генерала Соммера, 44",54.715480001045,20.510970028355
615,Колорит,"ул. Фрунзе, 15А, павильон 32",54.712700017128,20.521129984651
616,Парикмахерская,"пер. Кирова, 6-8, этаж 1",54.725099995139,20.495800040893
617,Парикмахерская,"ул. Генерала Соммера, 10",54.715610004363,20.50585002662
618,Элен,"ул. Карла Маркса, 10, этаж 3",54.728820009496,20.483539998756
619,Kkv Beauty Bar,"Беломорская ул., 2, кабинет Каменчук Светланы, этаж 1",54.735090008348,20.511049991712
620,Beauty expert,"ул. Космонавта Леонова, 8",54.722179991529,20.483289966585
621,Schwarz Berry,"Колхозная ул., 26, этаж 1",54.747229979721,20.525829969219
622,Парикмахер - Колорист Каменчук С. П.,"Юбилейная ул., 10, БЦ, этаж 4, офис 409",54.718940008766,20.539809977887
623,My beauty zona,"Краснодонская ул., 2",54.724792901941,20.552134379844
624,Фи-фа,"ул. Пушкина, 7",54.717890007756,20.473720012453
625,RedFox,"ул. Фрунзе, 6В, этаж 9",54.711909980845,20.521529969071
626,Black & White,"Железнодорожная ул., 7",54.713249995705,20.566910011958
627,Mavi,"ул. Вернадского, 7",54.734239999547,20.472440012019
628,Kapelli,"ул. Профессора Баранова, 6, этаж 4",54.721450855887,20.511667429428
629,Парикмахерская,"Интернациональная ул., 48, этаж цокольный",54.669010017379,20.504069961842
630,Лидия,"Ленинский просп., 18, Калининград, офис 303",54.713740001765,20.505400002238
631,Barhat Studio,"ул. Карла Маркса, 42",54.727139982733,20.476069962828
632,Поталь,"ул. Чайковского, 58",54.726279999468,20.483040018232
633,Sil’va,"ул. Фрунзе, 51, этаж 1",54.712839994911,20.526430029667
634,MatriX,"Советский просп., 6А, ТЦ Северный, 2 этаж",54.722179991529,20.49945002445
635,Glow Beauty Room,"ул. Дзержинского, 79, корп. 2, павильон 13",54.685189982264,20.53460003833
636,Barber 39,"ул. Подполковника Иванникова, 15",54.719250013455,20.505049973961
637,Makeup room,"Счастливая ул., 19, посёлок Холмогоровка",54.786920009547,20.423899991635
638,Парикмахерская,"ул. Платова, 1, этаж цокольный",54.754169986003,20.517939999941
639,Салон красоты,"Больничная ул., 42, комната 104, этаж 1",54.711600018065,20.503009986367
640,Салон Красоты,"Московский просп., 40, офис 10, этаж 8",54.709370012725,20.502689965303
641,Парикмахерская,"ул. Профессора Баранова, 1, подъезд 3, этаж 1",54.721635198699,20.512596672719
642,Между нами девочками,"Пролетарская ул., 62",54.716720019801,20.513570010901
643,Эстетик Мед,"ул. Вернадского, 1",54.734279981225,20.473550027457
644,Laky day,"Стрелецкая ул., 21А, оф 7",54.719459263297,20.547340635652
645,AV Studio,"Московский просп., 46",54.708910013879,20.502410009737
646,Valensole,"Больничная ул., 42, офис 10, этаж 1",54.711600018065,20.503009986367
647,Studia color by Olga Cherkunova,"Майский пер., 3, офис 6",54.728970003654,20.534940008323
648,Hair Studio,"ул. Фрунзе, 6В, ТЦ Ванда",54.711909980845,20.521529969071
649,Эмили,"Киевская ул., 80, этаж 2",54.681800005344,20.47455996297
650,ПОДО Практик,"ул. Тельмана, 48Б, этаж цокольный",54.736329985194,20.525250025338
651,Перманентный макияж,"Батальная ул., 100",54.676089208195,20.512744854733
652,Сакура,"Ленинский просп., 67Б, офис 506, этаж 5",54.712909983803,20.507939970357
653,Lab Studio Hair,"ул. Юрия Гагарина, 16Г",54.720049982294,20.544950012371
654,Beauty time,"ул. Генерал-Лейтенанта Захарова, 2В",54.735500009142,20.468920031781
655,Freedom,"ул. Гайдара, 93",54.738670003013,20.49489999213
656,ProZa,"Стрелецкая ул., 21В",54.719459263297,20.547340635652
657,Парикмахерская,"ул. Сергеева, 61",54.720170011148,20.518090036008
658,Парикмахерская,"Театральная ул., 30, ТРЦ «Европа-Центр»",54.717749988063,20.498990025604
659,Home beauty studio,"ул. Партизана Железняка, 5, этаж цокольный",54.728690006178,20.538060004142
660,Салон красоты,"ул. Космонавта Леонова, 67",54.733389990746,20.480949990675
661,РИВ ГОШ,"ул. Генерала Челнокова, 11А",54.736819991254,20.486950008425
662,Каприз,"ул. Генерала Челнокова, 40",54.741939992989,20.486290017369
663,Парикмахерская,"ул. Дзержинского, 71",54.687419987604,20.533569986249
664,Kinder Kinder,"ул. Маршала Борзова, 97",54.735940017149,20.459019998302
665,Diana Ivanova,"ул. Виктора Гакуна, 10, помещение X",54.74782999826,20.530990036452
666,Парикмахерская,"ул. Космонавта Леонова, 47",54.729545136158,20.481357174257
667,Нигора,"Калязинская ул., 6",54.726787915287,20.506467475258
668,Без паники,"Батальная ул., 54Г, этаж 2",54.675675935427,20.499685555929
669,Инга,"Красная ул., 109",54.734699998393,20.473480038565
670,Time Beauty,"ул. Репина, 37, Парикмахерская Матрешка",54.727959984321,20.486539965722
671,Pretty,"ул. Аллея Смелых, 59",54.684759990631,20.523780007159
672,Парикмахерская Элен,"ул. Генерала Толстикова, 17/2, Район Московский",54.675920016447,20.494140004969
673,"Депиляция, массаж","Балтийская ул., 10",54.737500015058,20.509749958529
674,У Виктории,"ул. Маршала Борзова, 58А, этаж 3",54.738620004961,20.458380039995
675,Бьюти-рум Екатерины Журавлевой,"Московский просп., 154",54.709539997722,20.535549959417
676,Студия красоты,"ул. Горького, 168",54.750290003023,20.503729991849
677,Услуги красоты,"ул. Карла Маркса, 56",54.726390011947,20.473360009712
678,Парикмахерская,"Советский просп., 16, этаж 3",54.723989979701,20.498830015072
679,ТРИаДА,"Юбилейная ул., 10, офис 207, 208, этаж 2",54.718940008766,20.539809977887
680,Парикмахерская,"Ленинский просп., 9",54.717879991381,20.502879983048
681,Yoops,"ул. Согласия, 44А",54.74948001781,20.488529997174
682,SNN_Beauty,"ул. Карла Маркса, 10, этаж 3",54.728820009496,20.483539998756
683,Ra NewHair,"ул. Старшины Дадаева, 62, Калининград, этаж 1",54.728970003654,20.541449981062
684,Nail & lash,"просп. Мира, 122",54.722949995065,20.464809965559
685,Beauty Dom,"ул. Олега Кошевого, 33, этаж 2",54.670789998337,20.513379993156
686,Студия Стрижек 13,"ул. Профессора Баранова, 6, павильон 15, этаж 2",54.721450855887,20.511667429428
687,Аллегро,"Майская ул., 4",54.675870018395,20.553499972706
688,LaZer_pro100,"ул. Дзержинского, 44",54.691879998283,20.526440004132
689,Прованс,"Дачная ул., 8, офис, этаж 2",54.748439991264,20.448840009258
690,New you,"ул. Мира, 7А, микрорайон Чкаловск",54.772330007875,20.450370041863
691,A. E. Studio,"ул. Богдана Хмельницкого, 53, этаж 1",54.697349986386,20.508499965308
692,Парикмахерская,"ул. Островского, 1А",54.742570018742,20.514160013066
693,Студия Маникюра,"ул. Горького, 193",54.738919993275,20.505109988388
694,Ol hair,"Московский просп., 40, павильон 215, этаж 2",54.709370012725,20.502689965303
695,Wowbrows777,"ул. Куйбышева, 91",54.726340013894,20.536659974855
696,Сабай Ди,"ул. Профессора Баранова, 34",54.721149981358,20.506389988822
697,ArS-Studio,"ул. Беланова, 11, микрорайон Чкаловск",54.770290020281,20.447179973334
698,Studio 601,"Батальная ул., 69В, этаж цокольный",54.67518999459,20.507109994305
699,Салон красоты,"Стрелецкая ул., 21В",54.719459263297,20.547340635652
700,Маникюрный кабинет Lusine Nails,"ул. Павлика Морозова, 5А",54.68052000491,20.472640004229
701,Стриж,"просп. Мира, 84",54.720650000833,20.475769974513
702,Шарм,"Первомайская ул., 16",54.734040007337,20.5121399744
703,Hair Baza,"ул. Добролюбова, 24",54.718409979119,20.447869971603
704,Express,"Пролетарская ул., 84, этаж 2",54.719610016197,20.514199994744
705,Preen Калиниград,"Интернациональная ул., 40А, павильон 16",54.6689000049,20.50254998752
706,Грани красоты,"ул. 9 Апреля, 100",54.719819982871,20.526949959121
707,Парикмахерская,"просп. Победы, 54А",54.713670012873,20.452499967279
708,Парикмахерская студия Валентины Камневой,"ул. Тельмана, 5",54.731339986777,20.517530041056
709,Парикмахерская,"просп. Мира, 100",54.721749999897,20.470129959504
710,Глория,"ул. Фрунзе, 6В, этаж 1",54.711909980845,20.521529969071
711,If Studio,"ул. Тельмана, 20, лит.Б, этаж цокольный",54.73359999933,20.521559976284
712,Beverly Hills,"ул. Лейтенанта Яналова, 42, офис 6, этаж 4",54.729599987496,20.476229973359
713,Кокос,"просп. Победы, 124/126",54.712130005803,20.433410015159
714,Парикмахерская,"Советский просп., 81, корп. 4, комната 9В, этаж 2",54.734109996229,20.482729971634
715,Арт и шок,"ул. Клавы Назаровой, 28К",54.683307744142,20.531071908333
716,Первая афростудия,"ул. Ульяны Громовой, 40",54.67101999776,20.500159971649
717,Парикмахерская,"Пехотная ул., 2А",54.744940001864,20.545329964042
718,Lash Ville,"просп. Победы, 80",54.711190017271,20.445729987903
719,Парикмахерская,"Ленинский просп., 85",54.70376000493,20.507309986515
720,Ераз,"Московский просп., 174, комната 1, этаж 4",54.709691512235,20.542722946008
721,Парикмахерская,"Батальная ул., 62В",54.675410019548,20.500189978862
722,Make Magic today,"Московский просп., 40, павильон 030, этаж цокольный",54.709370012725,20.502689965303
723,BrowsMe,"Артиллерийская ул., 35А, этаж 2",54.734890016138,20.545040034011
724,Студия перманентного макияжа Татьяны Эш,"ул. Верещагина, 5, район Ленинградский, комната 18",54.738703518324,20.507229745805
725,Hair beauty,"ул. Генерал-Лейтенанта Озерова, 19",54.725290012884,20.502979979153
726,Багира,"Театральная ул., 35, комната 706, этаж 7",54.717749988063,20.497260000788
727,Zaitseva Nails Studio,"ул. Горбунова, 1, микрорайон Чкаловск",54.774159986886,20.448329970449
728,Ресница,"Красносельская ул., 26, этаж цокольный",54.713319984597,20.44374004027
729,SisterStudio,"ул. Герцена, 36, этаж 1, офис 2",54.749530015862,20.52986996273
730,Зефирка,"ул. Профессора Баранова, 34, этаж 1",54.721149981358,20.506389988822
731,Парикмахерская,"Эльблонгская ул., 9А",54.700479998579,20.498300027334
732,Эконом,"Балтийская ул., 6",54.670189979798,20.559019958861
733,Star Labs,"Батальная ул., 100, этаж цокольный",54.676089208195,20.512744854733
734,Lussine Nails,"ул. Юрия Гагарина, 16Г, эт. 1, каб. 5",54.720049982294,20.544950012371
735,Японская парикмахерская,"Красная ул., 63А, этаж цокольный",54.730089993556,20.473049963113
736,Парикмахерская,"ул. Гайдара, 101А, комната 8, этаж цокольный",54.741019995297,20.498969992855
737,Студия красоты,"Московский просп., 171А",54.710589998733,20.542910024777
738,LetoLaser,"Барнаульская ул., 5, этаж 1",54.713570016769,20.502280006419
739,Компания E. Mi Kaliningrad,"Минская ул., 25, комната 219, этаж 2",54.717560012228,20.510129994019
740,Виктория,"ул. Аллея Смелых, 39",54.687039994023,20.523859970516
741,Beauty Zone,"ул. Фрунзе, 28, комната 501, этаж 5",54.712341591475,20.523994855899
742,Мк-13,"ул. Мусоргского, 10, корп. 44, этаж 2",54.726900008846,20.501959985356
743,Kseniya,"ул. Фрунзе, 6, этаж 1",54.711559994478,20.521659972389
744,Марта,"Гаражная ул., 2А, комната 207 б, этаж 2",54.724479985761,20.505349962276
745,Oops Beauty,"ул. Карла Маркса, 71",54.724119983019,20.464839972772
746,Алюр,"ул. Мусоргского, 10, корп. 44",54.726900008846,20.501959985356
747,Парикмахерская,"ул. Юрия Маточкина, 14, Ленинградский район, микрорайон Сельма",54.743130013693,20.489029977698
748,Студия красоты,"Красная ул., 63А, Район Центральный",54.730089993556,20.473049963113
749,Депиляция и Косметология,"ул. Александра Невского, 137Б, этаж 2",54.741820006045,20.531759998077
750,Салон красоты,"ул. Горького, 55, павильон 229",54.72119997941,20.592480013423
751,Парикмахерская,"Стрелецкая ул., 21В",54.719459263297,20.547340635652
752,Студия перманентного макияжа и тату Вероники Елисеевой,"ул. Генделя, 10",54.722120019012,20.496419966452
753,Федоль,"ул. Генерала Челнокова, 40",54.741939992989,20.486290017369
754,Откровение,"ул. Карла Маркса, 62",54.72624001779,20.472700018656
755,Alena Grishchenko,"ул. Генерала Галицкого, 17",54.714820009989,20.498760026181
756,Эриданс,"ул. Карла Маркса, 6, Калининград, Район Центральный",54.729189986703,20.485530030208
757,Кабинет_39,"ул. Генерала Соммера, 21",54.716410015112,20.507969977571
758,Ирина,"ул. Черняховского, 15лит1",54.721320008264,20.513519970939
759,Элита,"Интернациональная ул., 58А",54.668939986578,20.506189996612
760,Просто,"ул. Горького, 55, павильон 2107",54.72119997941,20.592480013423
761,Санди's,"просп. Мира, 136, этаж 2, офис 225",54.721619996578,20.451260032342
762,Uzbekistan,"Строительный пр., 443",54.733843709411,20.436243001958
763,Лисён,"ул. Юрия Гагарина, 101",54.725269980135,20.549159990879
764,Семёрочка,"Земельная ул., 12, этаж цокольный",54.732369996948,20.513570010901
765,Селебрейдс,"ул. Багратиона, 26",54.699700020579,20.514429994167
766,Парикмахерская,"Малый пер., 17, офис 209, этаж 2",54.701619979321,20.511720041051
767,Стрижки,"ул. Вернадского, 7",54.734239999547,20.472440012019
768,Мастерская Стиля,"Партизанская ул., 2Б",54.721630012953,20.511249983921
769,HairHab,"ул. Генерала Челнокова, 46",54.745740012613,20.484209964277
770,Verona studio,"ул. Докука, 9, микрорайон Чкаловск",54.769360006214,20.444040028585
771,По Наращиванию и Ламинированнию Ресниц,"ул. Гайдара, 116",54.742740003738,20.500770006562
772,Парикмахерская,"Нарвская ул., 47Г, этаж 3",54.733489986851,20.496860016369
773,Pavlino,"ул. Чекистов, 20, этаж цокольный",54.732450002214,20.479830000773
774,Studio style,"Инженерная ул., 4Б",54.681639994812,20.489949975391
775,Луна,"Киевская ул., 60А",54.681989981179,20.479409983605
776,По любви,"ул. Габайдулина, 3",54.767335598054,20.44699522618
777,BerineStudio,"просп. Калинина, 1",54.695049992155,20.503409970786
778,Эконом,"ул. Тельмана, 16, этаж цокольный",54.732949982739,20.521180024613
779,Good Look,"ул. Беланова, 8, микрорайон Чкаловск",54.771490015449,20.447869971603
780,SV Студия,"Московский просп., 40, комната 601, этаж 6",54.709370012725,20.502689965303
781,Саша,"ул. Горького, 55, павильон 275, этаж 2",54.72119997941,20.592480013423
782,Hair music,"Батальная ул., 28",54.677689981031,20.496309995882
783,Ск8,"ул. Фрунзе, 28",54.712341591475,20.523994855899
784,InBeauty,"ул. Дзержинского, 79, корп. 12, павильон 13",54.684310008159,20.534670027222
785,Matrix,"ул. 9 Апреля, 20, этаж 7",54.711839991953,20.523659978306
786,Леоника,"ул. Герцена, 36, офис 2",54.749530015862,20.52986996273
787,Маникюр Педикюр Лазерная эпиляция,"ул. Кирова, 1",54.724359998817,20.496990019687
788,Красивые люди,"Батальная ул., 28",54.677689981031,20.496309995882
789,Nailartist_39,"ул. 9 Апреля, 88А",54.719140000976,20.525719998649
790,Star Labs,"ул. Аллея Смелых, 45А",54.686330004915,20.523259993886
791,Afro. ely,"Стрелецкая ул., 21В",54.719459263297,20.547340635652
792,Цирюльня,"ул. Фрунзе, 6В, этаж 6, комната 612",54.711909980845,20.521529969071
793,Перманент Ключерева Т. А.,"ул. Боткина, 2А",54.716760001479,20.524170017114
794,Парикмахерская,"ул. Юрия Гагарина, 99, подъезд 1",54.724939984607,20.549649996939
795,Марлен,"ул. Дзержинского, 79, корп. 3",54.685169991425,20.53422000284
796,Агент Клик,"ул. Литовский Вал, 105",54.706869984375,20.53800996418
797,Shikhobanglay.com,"ул. Дзержинского, 79, корп. 7",54.684640003687,20.53500002275
798,Маникюрная № 1,"Корабельная ул., 6/3, Калининград, этаж 2",54.724450020457,20.522430017834
799,Myr_manicure,"Красная ул., 115",54.735470001928,20.473079970327
800,Парикмахерская,"Московский просп., 103",54.709680017414,20.524769993743
801,Ирида,"Батальная ул., 2В, комната 6",54.679380683763,20.493699870877
802,Натали,"ул. Багратиона, 43",54.699280003411,20.511289965599
803,Elis studio,"Батальная ул., 98, этаж цокольный",54.676065344243,20.512397069789
804,Перманент Lux,"Батальная ул., 98",54.676065344243,20.512397069789
805,Pro Laser,"ул. Горького, 55, павильон 2107, этаж 2",54.72119997941,20.592480013423
806,Маникюр рядом,"ул. Павлика Морозова, 5А, этаж 2",54.68052000491,20.472640004229
807,Happy Hair,"ул. Рокоссовского, 9",54.718510017134,20.508320005847
808,У Дарьи,"ул. Космонавта Леонова, 47, этаж 2",54.729545136158,20.481357174257
809,Кератин,"ул. Фортовая Дорога, 7",54.746519990613,20.434939963946
810,Aroma-Beauty,"ул. Юрия Гагарина, 101, район Ленинградский",54.725269980135,20.549159990879
811,Шугаринг,"Киевская ул., 60А",54.681989981179,20.479409983605
812,Марта,"ул. Младшего Лейтенанта Ротко, 1А, этаж 2",54.698650019569,20.507270004836
813,Gloss,"ул. Карла Маркса, 6",54.729189986703,20.485530030208
814,Shades lady's,"ул. Космонавта Леонова, 64",54.733419997959,20.481590032802
815,Студия массажа Валентины Леоновой,"ул. Юрия Гагарина, 16В",54.719580008983,20.543900011361
816,Парикмахерская,"ул. Беланова, 10, микрорайон Чкаловск",54.772200004557,20.44763997218
817,Versais,"ул. 9 Апреля, 88",54.71916298816,20.525259066475
818,Prosto Стрижка,"Больничная ул., 42, Калининград",54.711600018065,20.503009986367
819,Парикмахерская,"ул. Чекистов, 95",54.732539981945,20.469120023991
820,Hair Studio,"ул. Чекистов, 52",54.732840012169,20.470660031061
821,МК,"Багратионовская ул., 16А, поселок Лесное",54.637089719076,20.548241454271
822,Lucky Day,"ул. Павлика Морозова, 115Б",54.674219998845,20.481769992263
823,Sil’va,"ул. Тельмана, 48Б, этаж цокольный",54.736329985194,20.525250025338
824,Ольга Королева,"Автомобильная ул., 1",54.676920019405,20.497429985785
825,Улыбка,"ул. Фрунзе, 28, 706, этаж 7",54.712341591475,20.523994855899
826,Мари,"ул. Еловая Аллея, 9, этаж цокольный",54.70907,20.50928
827,Лак и фен,"ул. Фрунзе, 6В, офис 802",54.711909980845,20.521529969071
828,Yulia lu,"Нарвская ул., 47Г, этаж 3, комната 318",54.733489986851,20.496860016369
829,Рич Рич,"ул. Юрия Гагарина, 55В",54.720109996721,20.540250027804
830,MagicTime,"Красносельская ул., 73А",54.717690015546,20.440999996122
831,Lolita brows,"ул. 9 Апреля, 100",54.719819982871,20.526949959121
832,Lucky babe,"Юбилейная ул., 10, Калининград",54.718940008766,20.539809977887
833,Салон бровей и ресниц,"Калининград, Приморское кольцо, 2, «Балтия Молл»",55.91417,37.82556
834,Студия красоты Оксаны Коробовой,"ул. Александра Невского, 76В, офис 105",54.738179996953,20.53317000183
835,By me,"Юбилейная ул., 10, офис 213, этаж 2",54.718940008766,20.539809977887
836,Глория,"Осенняя ул., 22",54.738860020758,20.462809959642
837,Lazer Beauty,"ул. Дзержинского, 79, корп. 2",54.685189982264,20.53460003833
838,РИВ ГОШ,"ул. Литовский Вал, 36",54.718209986909,20.530170034864
