,Name,address,latitude,longitude
0,Калининградский Дом Фото,"просп. Мира, 33А",54.720270007253,20.483969990389
1,Максифото,"ул. Багратиона, 95",54.698870002618,20.503920009594
2,Фотограф Кодолов Дмитрий,"Московский просп., 229, этаж 2",54.708769994187,20.571809988735
3,Фотолаб,"Московский просп., 123А, этаж 2",54.710019987407,20.529330000528
4,Фотоцентр на Московском,"площадь Победы, 4, подъезд 1А, офис 205",54.720830002204,20.499880016083
5,"Фотоцентр фото на документы, ксерокс, фотопечать, анкеты на загранпаспорт, визы","ул. Дзержинского, 79, павильон 5, этаж 2",54.684640003687,20.53500002275
6,Фотоуслуги,"ул. Фрунзе, 6В, этаж 1",54.711909980845,20.521529969071
7,Галактика,"Московский просп., 118, этаж цокольный",54.709589995774,20.531339980909
8,Cheese Photo,"пер. Кирова, 9, этаж цокольный",54.725559993985,20.49557004147
9,Фотосалон,"Советский просп., 1",54.720630009994,20.497949999058
10,Фотоцентр,"ул. Черняховского, 4А",54.718769981861,20.502660041909
11,Фотоцентр,"Артиллерийская ул., 58",54.731419992042,20.551510025073
12,Кодак,"Артиллерийская ул., 63, вход со стороны проезжей части, этаж цокольный",54.732020010581,20.548330014827
13,ГорПринт,"Флотская ул., 9",54.746469992561,20.444679986893
14,Фото Плюс 39 услуг,"Пролетарская ул., 90, этаж 1",54.720739980564,20.514699975268
15,Фото Print,"Ленинский просп., 73",54.712410003279,20.508789979158
16,Фотографъ,"ул. Дмитрия Донского, 7, этаж 4",54.714590010566,20.48860996053
17,Максифото,"Мариупольская ул., 14Б",54.708359993393,20.498179998481
18,Mark Studio,"площадь Победы, 4А, подъезд 5, этаж 2, офис 2а",54.721149981358,20.501139983768
19,Фотосалон,"Зелёная ул., 76, м-н ""Виктория-Квартал""",54.73948,20.50341
20,Палитра,"Ленинский просп., 131, этаж 1",54.69872000846,20.503669977423
21,Фото Плюс 39 услуг,"ул. Куйбышева, 91Б",54.725850007835,20.537330024195
22,Леварт-фото,"Ольштынская ул., 2",54.695750006799,20.503709959101
23,Фото,"бул. Любови Шевцовой, 2А",54.671260013558,20.50091995881
24,Kld фото,"ул. Горького, 104, Калининград, этаж 1",54.735509983606,20.509519959106
25,Фото на документы,"ул. Черняховского, 20",54.71935000956,20.506759966028
26,Дом фото,"площадь Калинина, 28, ТЦ «Виктория», этаж 1",54.694689989413,20.501509960974
27,Фотостудия,"Гаражная ул., 2, этаж 4",54.720890016631,20.502819968622
28,Boft,"Ленинский просп., 131, этаж 6, офис 605",54.69872000846,20.503669977423
29,Faktura,"ул. Фрунзе, 6, этаж 2",54.711559994478,20.521659972389
30,Hello new baby,"Театральная ул., 21, этаж -1",54.716560009269,20.500379996607
31,Документальный центр,"Советский просп., 2А, этаж 1",54.721600005739,20.499320021132
32,Улыбка,"ул. Олега Кошевого, 11",54.675209985429,20.514639960842
33,Гермес,"ул. 9 Апреля, 1, этаж цокольный",54.716968282876,20.523714513894
34,Express foto,"ул. Багратиона, 60",54.699809991149,20.511189969495
35,КритриАМу,"Московский просп., 171А, этаж 1",54.710589998733,20.542910024777
36,Фотостудия,"ул. Фрунзе, 15А, павильон 30",54.712700017128,20.521129984651
37,Фоточка,"ул. Горького, 19Б",54.725739995356,20.508959964155
38,Срочное фото,"Ленинский просп., 67Б, этаж цокольный",54.712909983803,20.507939970357
39,Фото Сувенирка,"ул. Юрия Гагарина, 16В, оф.18",54.719580008983,20.543900011361
40,Фото39,"ул. Профессора Баранова, 34, этаж 2",54.721149981358,20.506389988822
41,Фотограф Юрий Галов,"ул. Сергея Тюленина, 15, этаж 2,3",54.710759983729,20.521389991288
42,Хамелеон,"ул. Фрунзе, 6, этаж 1",54.711559994478,20.521659972389
43,Happy family,"Театральная ул., 30, этаж 1",54.717749988063,20.498990025604
44,Фотограф Виталий Арестов,"ул. Рокоссовского, 22",54.719300011508,20.509010004117
45,Срочное фото,"ул. Дзержинского, 79, корп. 7, павильон 8",54.684640003687,20.53500002275
46,Boft,"Пролетарская ул., 90",54.720739980564,20.514699975268
47,Фото Миг,"Ленинский просп., 30, этаж 2",54.71121000811,20.508229984207
48,Срочное Фото на Документы,"ул. Горького, 12, Калининград",54.724199988285,20.509579973533
49,Хаски Фотоцентр,"ул. Олега Кошевого, 34, комната 2, этаж цокольный",54.673317769841,20.511581681515
50,Boft,"ул. Канта, 1",54.706430018277,20.512150032684
51,Take A Photo,"ул. Горького, 2, этаж 1",54.721559982152,20.509249978005
52,Фотоцентр,"ул. Черняховского, 15, лит.Б",54.721700001844,20.513440007583
53,Boft,"ул. Юрия Гагарина, 99",54.724939984607,20.549649996939
54,Фото на документы,"ул. Фрунзе, 6, Помещение ""ПВС МВД России"", этаж 2",54.711559994478,20.521659972389
55,Макси фото,"ул. Профессора Баранова, 30",54.721619996578,20.509179989113
56,Фото на документы,"площадь Победы, 4А",54.721149981358,20.501139983768
57,Bazzy Photo,"ул. Некрасова, 18, этаж цокольный",54.735639986925,20.527199991293
58,Boft,"ул. Некрасова, 18",54.735639986925,20.527199991293
59,МаксиФото,"ул. Александра Невского, 36В, Калининград",54.72777998295,20.52889003443
60,Понарт,"Батальная ул., 62А",54.674719979369,20.500089982757
61,Документ-центр,"Гаражная ул., 2А, этаж 4, офис 412",54.724479985761,20.505349962276
62,Фотоуслуги,"Интернациональная ул., 59А, этаж 1",54.669789995379,20.508710015802
63,Fotovita,"ул. Куйбышева, 91А",54.726379995573,20.537289958697
64,VersoPrint,"ул. Генерала Буткова, 16, этаж 1",54.709450017991,20.494600003816
65,Фото на документы,"ул. Еловая Аллея, 26, этаж 3, помещение 34",54.70907,20.50928
66,Мой фото город,"ул. Горького, 2, подъезд 1, этаж 4",54.721559982152,20.509249978005
67,Идея-Кёниг,"Советский просп., 12, офис 703, этаж 7",54.723459991963,20.499539962271
68,Документальный центр,"Московский просп., 201",54.709500016044,20.565590029846
69,Конура,"Московский просп., 123А, этаж 2",54.710019987407,20.529330000528
70,Я Фотограф,"площадь Маршала Василевского, 1, эт. 5 оф. 513",54.72227001317,20.523020019998
71,Cvet,"ул. Литовский Вал, 40, Калининград",54.716029979622,20.533239990721
72,Cool School,"Железнодорожная ул., 7В, этаж 1",54.693810015309,20.500709992135
73,Фотокерамика на памятник,"Ялтинская ул., 66",54.704359981559,20.554690035318
74,Regram pictures,"ул. Профессора Баранова, 40",54.718599996864,20.499109970638
75,Дорогой Альбом,"Гаражная ул., 2А, этаж 2, офис 213",54.724479985761,20.505349962276
76,Photocentr.Online,"Малый пер., 17, 306/1",54.701379277062,20.511625609938
77,Ричстудио,"Геологическая ул., 1, офис № 23, этаж 2",54.714385796255,20.500676288661
78,Photobox,"Ленинский просп., 30, этаж 4",54.71121000811,20.508229984207
79,Content Studio,"Ленинский просп., 13А, офис 300",54.717669982797,20.503379963573
80,Md Media,"Гаражная ул., 2А, комната Б212, этаж 2",54.724479985761,20.505349962276
81,Печать визиток,"ул. Горького, 2, подъезд 1",54.721559982152,20.509249978005
82,Акарелька,"площадь Победы, 4, подъезд 1А, офис 209, этаж 2",54.720830002204,20.499880016083
83,Visa. Expert,"ул. Фрунзе, 6В, офис 904, этаж 9",54.711909980845,20.521529969071
84,7 Небо,"ул. Зои Космодемьянской, 20",54.684709992579,20.527490005143
85,Я фотограф,"Советский просп., 12, 108",54.723459991963,20.499539962271
86,Тезис,"ул. Мусоргского, 10, этаж 1",54.726900008846,20.501959985356
87,Selфи,"Советский просп., 12, этаж 8",54.723459991963,20.499539962271
88,Фотоателье,"Советский просп., 12, комната 108, этаж 1",54.723459991963,20.499539962271
