,Name,address,latitude,longitude
0,Стафф Марин,"площадь Победы, 10, офис 614, этаж 6",54.719599999822,20.503890002381
1,HomeyBee,"Октябрьская ул., 8",54.702200007021,20.515790041776
2,ОкеанФлотКадры,"просп. Калинина, 2, комната 9",54.694359993885,20.504800025609
3,Staffjet,"Ленинский просп., 30А, этаж 6, офис 7",54.711590001691,20.507479971511
4,Сфера Успеха,"ул. Генделя, 5, офис 33, этаж 5",54.721810014323,20.496100029208
5,Рекрутинговое агентство Елены Реут,"ул. Сержанта Колоскова, 2А, офис 17",54.718929992392,20.48472997755
6,Hav Ship Management NorRus,"Театральная ул., 35, этаж 4, офис 411",54.717749988063,20.497260000788
7,All Crew,"ул. Дмитрия Донского, 17, этаж 3, офис 3",54.715339981353,20.487530036125
8,Северный путь,"Московский просп., 40, офис 501, этаж 5",54.709370012725,20.502689965303
9,Персонал янтарь,"Гвардейский просп., 15",54.716619736483,20.495129390267
10,Avior Kaliningrad,"ул. Виктора Гюго, 1, офис 207, этаж 2",54.708119633931,20.505508681121
11,Балтфлоткадры,"Московский просп., 12",54.710129999886,20.496179992564
12,Калининградский кадровый центр,"Советский просп., 12, офис 405, этаж 4",54.723459991963,20.499539962271
13,Русам,"Зоологическая ул., 50, офис 3",54.72690998331,20.484829973655
14,Бизнес персонал,"ул. Младшего Лейтенанта Ротко, 2, офис 24, этаж 4",54.698579988768,20.506419996035
15,Новиконтас Калининград,"Колхозная ул., 4Г, пом. 7",54.74482001492,20.528229959555
16,Мишье Редери,"Театральная ул., 30, этаж 3, офис 312",54.717749988063,20.498990025604
17,Синильга,"ул. Горького, 81",54.729903491481,20.51007280967
18,Балтийская морская компания,"площадь Победы, 4, БЦ Калининградский деловой центр, подъезд 1, этаж 4, офис 18",54.72059,20.50005
19,Работа в Польше,"просп. Победы, 27, этаж 1",54.716660005374,20.469250027309
20,Pregel,"ул. Дмитрия Донского, 7, офис 402, этаж 4",54.714590010566,20.48860996053
21,Балтик Групп Интернешнл,"площадь Победы, 4А, офис 508, этаж 5",54.721149981358,20.501139983768
22,Европерсонал,"площадь Победы, 10, оф. 512",54.719599999822,20.503890002381
23,Prusmarine,"ул. Дмитрия Донского, 7, этаж 4, комната 402",54.714590010566,20.48860996053
24,Тейде,"ул. Сергеева, 14, этаж 1, офис 116",54.719660014249,20.518910037595
25,Формула успеха,"площадь Победы, 4А, ТОЦ Калининградский Пассаж, этаж 4, офис 424",54.72058,20.49988
26,В кадре,"Уральская ул., 18",54.724629979918,20.502070039745
27,Альянс Марин,"ул. Профессора Баранова, 34, этаж 5, офис 525/1",54.721149981358,20.506389988822
28,Карьера,"ул. Сергеева, 14, офис 225, этаж 2",54.719660014249,20.518910037595
29,Резерв,"ул. Карла Маркса, 18, офис 715, этаж 7",54.729219993916,20.480840020106
30,Флот-кадры,"ул. Чекистов, 20, этаж 0",54.732450002214,20.479830000773
31,ЮнитиБалт,"Каменная ул., 1",54.722409990953,20.467800041878
32,Атлантик Стафф,"ул. Генерал-Лейтенанта Озерова, 17Б, офис 706, этаж 7",54.725900005887,20.501290019835
33,Baltic Sea Staff,"ул. Горького, 55, офис 230, этаж 2",54.72119997941,20.592480013423
34,Кsм,"ул. Сергеева, 14, офис 122-124, этаж 1",54.719660014249,20.518910037595
35,Везен Калининград,"ул. Горького, 25, офис 307, этаж 3",54.727189980786,20.509219970791
36,Мишье Редери,"Театральная ул., 30, офис 312, этаж 3",54.717749988063,20.498990025604
37,Акон,"ул. Сергеева, 14, комната 415, этаж 4",54.719660014249,20.518910037595
38,Международный центр труда,"ул. Фрунзе, 6, этаж 2, комната 210, офис 4",54.711559994478,20.521659972389
39,Морской путь,"Ленинский просп., 155А, этаж 2",54.696060011487,20.50254998752
40,Bulkship Management,"ул. Профессора Баранова, 34, офис 510, этаж 5",54.721149981358,20.506389988822
41,Крюинговая компания Рудента Калининград,"ул. Грига, 56, офис 7, этаж 2",54.715460010206,20.530489972108
42,Сков Шипинг,"ул. Генерала Раевского, 4, офис 24",54.748879999271,20.532029979179
43,Коф,"ул. Сергеева, 14, офис 416, этаж 4",54.719660014249,20.518910037595
44,КСМ,"ул. Сергеева, 14, комната 122, 123, 124, этаж 1",54.719660014249,20.518910037595
45,Тралфлот,"просп. Калинина, 2, офис № 22-24, этаж 1",54.694359993885,20.504800025609
46,Ma ship manager,"ул. Александра Суворова, 43А, офис 3, этаж 2",54.692270008238,20.469789989511
47,Regul-a,"Земельная ул., 12, офис 1, этаж 1",54.732369996948,20.513570010901
48,Олимпия,"Университетская ул., 2Г, офис 506, этаж 5",54.714490014461,20.50836996199
49,Acheon shipping,"ул. Александра Суворова, 35Б, этаж 2",54.691330019707,20.472609997016
50,Ancor,"площадь Победы, 4А",54.721149981358,20.501139983768
51,Фишери Групп,"ул. Сергеева, 14, офис 130, этаж 1",54.719660014249,20.518910037595
52,Staffjet,"Ленинский просп., 30А, блок Б, офис 7",54.711590001691,20.507479971511
53,Recruit digital,"Ленинский просп., 30, Блок Б, офис 711",54.71121000811,20.508229984207
54,Marlow Navigation Rus,"Комсомольская ул., 85",54.733150016858,20.476670023276
55,Олимпия,"Университетская ул., 2Г, 506",54.714490014461,20.50836996199
56,Bulkship Management,"ул. Профессора Баранова, 34",54.721149981358,20.506389988822
57,Такси КЛД,"Советский просп., 81, корп. 4, офис 9Б, этаж 2",54.734109996229,20.482729971634
58,HRServece,"ул. Дзержинского, 71А",54.687640012562,20.535060037177
59,Тридцать девятый штат РУ,"Советский просп., 12, офис 108, этаж 1",54.723459991963,20.499539962271
60,Танна,"ул. Александра Суворова, 43А, офис 6",54.692270008238,20.469789989511
61,Акон,"ул. Сергеева, 14, комната 415, этаж 4",54.719660014249,20.518910037595
62,Алиот,"ул. Багратиона, 49, оф. 420",54.69892000067,20.509500010176
63,Bulkship Management,"ул. Профессора Баранова, 34",54.721149981358,20.506389988822
64,Bulkship Management,"ул. Профессора Баранова, 34",54.721149981358,20.506389988822
65,Bulkship Management,"ул. Профессора Баранова, 34",54.721149981358,20.506389988822
66,Балт Карат,"ул. Фрунзе, 6",54.711559994478,20.521659972389
67,Олимпия,"Университетская ул., 2Г, офис 506, этаж 5",54.714490014461,20.50836996199
68,Эрикапроф,"ул. Гоголя, 12, офис 6, этаж 3",54.733320001854,20.5190100337
69,Bulkship Management,"ул. Профессора Баранова, 34",54.721149981358,20.506389988822
70,Три сестры,"Красная ул., 115, комната 308-2",54.735470001928,20.473079970327
71,Bulkship Management,"ул. Профессора Баранова, 34",54.721149981358,20.506389988822
72,Омск шиппинг,"Октябрьская ул., 8, офис 311, этаж 3",54.702200007021,20.515790041776
73,Фишери Групп,"ул. Сергеева, 14, комната 130, этаж 1",54.719660014249,20.518910037595
74,Альянс Марин,"ул. Профессора Баранова, 34",54.721149981358,20.506389988822
75,Визовый сервис,"площадь Победы, 4, этаж 1",54.720830002204,20.499880016083
76,Сервис заказа рабочего персонала,"Инженерная ул., 4",54.682249987816,20.489610005398
77,Морской эксперт,"просп. Калинина, 2, комната 23",54.694359993885,20.504800025609
