,Name,address,latitude,longitude
0,Vfs Global,"ул. 1812 года, 126",54.711149993684,20.536749996495
1,39 Виз,"Ленинский просп., 7, офис 3.28, этаж 3",54.71781000249,20.502570020269
2,Вест Стрим,"площадь Победы, 4, подъезд 5, офис 210-214, этаж 2",54.720830002204,20.499880016083
3,VisaMetric,"площадь Победы, 10, офис 412, этаж 4",54.719599999822,20.503890002381
4,Глобус 39,"Стекольная ул., 48, этаж 3",54.710589998733,20.536099979904
5,Открытая Европа,"ул. Фестивальная Аллея, 8, офис 7, этаж 3",54.724570007401,20.414760029137
6,Намми,"ул. Юрия Гагарина, 106, этаж 1, офис 5",54.729670018297,20.562580004596
7,Виза-консультант,"ул. Фрунзе, 105, офис 203, этаж 2",54.713670012873,20.533609967927
8,Визовый центр Испании,"Геологическая ул., 1, этаж 2, офис 27",54.714385796255,20.500676288661
9,Первый Визовый центр,"ул. Черняховского, 15, лит.Б, офис 4, этаж 2",54.721700001844,20.513440007583
10,Континенталь,"Пролетарская ул., 92",54.720730006099,20.515110017972
11,Germany visa center,"Театральная ул., 35, этаж 6",54.717749988063,20.497260000788
12,Visa. Expert,"Ленинский просп., 13А, офис 300",54.717669982797,20.503379963573
13,Визовый страховой центр,"ул. Дмитрия Донского, 7, офис 120, этаж 1",54.714590010566,20.48860996053
14,Пилигрим,"ул. Горького, 55, павильон 51, этаж 1",54.72119997941,20.592480013423
15,Укати,"ул. 1812 года, 126, офис 8, этаж 2",54.711149993684,20.536749996495
16,Nammi,"площадь Победы, 4А, офис 406, этаж 4",54.721149981358,20.501139983768
17,Центр оформления документов,"Театральная ул., 35, офис 102, этаж 1",54.717749988063,20.497260000788
18,Документальный центр,"ул. 1812 года, 126",54.711149993684,20.536749996495
19,Визовый сервис,"площадь Победы, 4, этаж 1",54.720830002204,20.499880016083
20,Северо-запад,"ул. Богдана Хмельницкого, 59, этаж 1, офис 130",54.697310004708,20.509430021285
21,Документально-визовый центр,"ул. Энгельса, 52А, стр. 1",54.721810014323,20.460460009268
22,Помощь в оформлении виз и загранпаспортов,"Пролетарская ул., 131Е, офис 1",54.724664370245,20.515134530837
23,Амстердам Трэвел,"площадь Победы, 4, подъезд 1, этаж 3, комната 24",54.720830002204,20.499880016083
24,Помощь в оформлении виз и загранпаспортов,"ул. Олега Кошевого, 11",54.675209985429,20.514639960842
25,Единый Визовый центр,"Благовещенская ул., 26, Вологда, офис 201",59.220989998067,39.880800014306
26,Визовый центр Греции,"ул. Тимирязева, 28В, Алматы, БЦ Алатау Гранд, этаж 1, офис 104",43.35831,77.14119
27,Юсвит,"ул. Младшего Лейтенанта Ротко, 1А, этаж 2",54.698650019569,20.507270004836
28,Первый Визовый центр,"ул. Народного Ополчения, 43, корп. 2, Москва, этаж 2, офис 24",55.792530000113,37.490349960276
29,Единый визовый центр,"Кутузовский просп., 36, стр. 3, Москва, этаж 3, офис 450",55.740790020554,37.524590034748
30,Vfs Global,"ул. Фрунзе, 1, корп. 4, Омск, этаж 7, офис 713",54.712036134811,20.520555233691
31,Единый визовый центр,"Варварская ул., 14, Нижний Новгород, этаж 1",56.3236800145,44.010000025858
32,Визовый центр Континент,"Кировоградская ул., 9, корп. 4, Москва, этаж 2, комната 223",54.754969996752,20.459879981568
33,Визовый центр Германии,"Киевская ул., 2, Москва, подъезд 5",54.68293001162,20.459410008257
34,Региональный визовый центр,"просп. Ленина, 12Б, Чебоксары, офис 310, этаж 3",56.127939986125,47.247309967525
35,Единый визовый центр,"ул. Новый Арбат, 36, стр. 3, Москва, этаж 1",55.753710011837,37.576939965401
36,Визовый центр Испании,"Калужская площадь, 1, корп. 2, Москва, ТЦ Европа, этаж 1",55.727860012896,37.613840036846
37,Твой тур,"ул. Генделя, 5, офис 218, этаж 2",54.721810014323,20.496100029208
38,Визовый сервисный центр VFS Global,"Пролетарская ул., 93, Барановичи",53.143829988848,26.007470007058
39,Объединенный визовый центр,"ул. В.И. Ленина, 9, Волгоград, собственный вход",48.705870000974,44.513809990377
40,Vfs Global,"ул. Гоголя, 6, Петрозаводск",61.785139991802,34.365700005724
41,VisaMetric,"ул. Радищева, 6А, Екатеринбург",56.831190002538,60.598849989753
42,Септима,"Больничная ул., 30",54.712210011069,20.50342002907
43,Business Travel,"площадь Победы, 10, офис 515, этаж 5",54.719599999822,20.503890002381
44,Vfs Global,"ул. Карла Либкнехта, 13, Мурманск",68.976980009571,33.090829967098
45,Визовый центр Польши и Литвы,"ул. имени Н.И. Вавилова, 38/114, Саратов",51.5352900054,46.010169976396
46,Vfs Global,"ул. Академика Павлова, 64, Центральный внутригородской округ, микрорайон Дубинка, Краснодар, этаж 1",45.021340011163,39.005599990024
47,VFS Global,"Московская ул., 38, Ростов-на-Дону, этаж 1",47.216470012076,39.704660018768
48,Мульти Визовый центр,"Московская ул., 208А, Брест, ТЦ Домус, этаж 1",52.096879990817,23.742280036091
49,"Польский, Эстонский, Венгерский, Литовский сервисный визовый центр","ул. Александра Невского, 1, Симферополь",44.952909986001,34.09979996928
50,Многофункциональный визовый центр,"Большой Овчинниковский пер., 16, Москва, этаж 2",55.744500018537,37.630139988675
51,Vfs Global,"просп. Чайковского, 27/32, Тверь, этаж 3, офис 319А",54.723969988862,20.492200013479
52,Единый туристическо-визовый центр,"Куркинское ш., с2, Химки, БЦ Аэро Сити",54.70907,20.50928
53,Визовый центр,"Социалистическая ул., 79, Ростов-на-Дону",47.220019999528,39.71247002469
54,Первый визовый центр,"ул. Бабура, 74, Ташкент",56.31405,55.40758
55,Визовый центр Korea,"Комсомольский просп., 7/1, Люберцы, ТЦ Малина, этаж 2",55.68783,37.89865
56,Единый Визовый центр,"Литейный просп., 30, Санкт-Петербург",59.940570015433,30.348820011294
57,Единый визовый центр,"ул. Нукус, 29, Ташкент",56.31405,55.40758
58,Объединенный Визовый центр,"ул. Крисанова, 26, Пермь, этаж 2",58.004189994188,56.214929975669
59,Первый Визовый Туристический центр,"Литейный просп., 26, Санкт-Петербург, офис 106А",59.941900013919,30.348929981864
60,Визовый центр Португалии,"Советская ул., 21А, корп. 1, Кострома, этаж 1, офис 112",54.716530296364,20.590814791019
61,Визовый центр,"просп. Мира, 40, Москва, этаж 4",54.71945,20.48748
62,Виза Про,"ул. Кирова, 29, Новосибирск, офис 901, этаж 9",54.725379992614,20.490620024731
63,Первый Визовый центр - Новосибирск,"ул. Веры Хоружей, 1А, Минск, этаж 4, офис 407",53.916299982889,27.579599967031
64,Визовый Минск,"ул. Суворова, 306, Гродно, оф. 2",53.650881078117,23.787002927031
65,VFS Global,"ул. Карла Маркса, 25, Минск, офис 3",53.897619116295,27.556643342374
66,Визовый центр Гродно,"Каширское ш., 3, корп. 2, стр. 4, Москва, БЦ Сириус Парк, этаж 2",55.672500015084,37.631489978
67,Визовая поддержка Vashavisa.by Вашавиза,"Чистопрудный бул., 5, Москва",55.763709999511,37.642359965314
68,Vfs Global,"Стремянная ул., 21/5, Санкт-Петербург, этаж 3-4",59.930289988374,30.354049983599
69,VisaProfCenter,"Ставропольская ул., 124А, Центральный округ, микрорайон Черёмушки, Краснодар",45.019888088781,39.00185422107
70,Визовый центр Китая,"Новинский бул., 11, Москва, офис 111",55.7534500052,37.582070025421
71,Vfs Global,"Москва, поселение Московский, Киевское шоссе, 22-й километр, 4, стр. 2, корп. Г, павильон 364Г",55.623080020595,37.407529967561
72,Многофункциональный Визовый центр,"ул. Бурхониддина Аль-Маргинони, 55, Фергана",54.70907,20.50928
73,Визовый центр США,"ул. Ирчи Казака, 4Б, Махачкала",42.966500019173,47.501420018962
74,Первый визовый центр,"Каширское ш., 3, корп. 2, стр. 4, Москва",55.672500015084,37.631489978
75,Главный Визовый Иммиграционный центр,"Новороссийская ул., 72, Армавир",44.992349983655,41.075520031655
76,Единый Визовый центр,"ул. Большакова, 70, Екатеринбург, офис 601, этаж 6",56.818980000363,60.613340037229
77,Визовый центр Болгарии,"Адмиралтейская ул., 15, Астрахань, этаж 3",46.351260001003,48.030390026062
78,Первый визовый центр,"Коллонтаевский пер., 89А, Азов, офис 303",47.105354470327,39.43096884367
79,Британский визовый центр,"ул. Красных Партизан, 152, Краснодар, офис 112, этаж 1",45.05065999229,38.958199992291
80,Первый визовый центр,"ул. Маркова, 43, Алматы, этаж 3, офис 135",43.229589980668,76.930639975206
81,Первый Визовый центр,"ул. Щепкина, 8, Москва, подъезд 1",54.670659995019,20.437599960918
82,Многофункциональный Визовый центр,"ул. Гагарина, 73, Липецк",52.620209982908,39.577609980282
83,Evisa Travel,"Большая Советская ул., 32, Кингисепп",59.379400005275,28.611400010349
84,МФЦ Визовый центр,"Московский просп., 40, Калининград, офис 216, этаж 2",54.709370012725,20.502689965303
85,Единый визовый центр,"2-й Сыромятнический пер., 1, Москва, БЦ Дельта Плаза",55.753869980459,37.662030028953
86,Сервисно-визовый Центр Эстонии,"Бобруйская ул., 6, Минск, этаж 5",53.89021001006,27.554149994419
87,БОН Шанс-Тур,"ул. Щепкина, 8, Москва",54.670659995019,20.437599960918
88,TLScontact,"Петровская ул., 106, Таганрог",47.221020002487,38.920860038568
89,Визовый центр Польши,"Нагатинская ул., 1, Москва",55.68245997917,37.625219979149
90,Визовый центр Визатейк,"ул. Земляной Вал, 36, Москва, этаж 2, офис 246",55.755839979162,37.656729983937
91,Первый Визовый центр,"Первомайская ул., 176А, Пинск",52.141589984364,26.098439975688
92,Визовый центр в Москве Vis.Online,"ул. Радюка, 2А, Лида",53.881380010341,25.299549971381
93,Генеральный визовый центр,"ул. Платонова, 13, Воронеж",51.657879991298,39.201729986445
94,Визовый сервис центр,"Астраханская ул., 114, Саратов",51.535379985131,46.009969984186
95,Визовый Сервис центр,"ул. Максима Горького, 87Б, Гродно",53.702697877556,23.818074282091
96,Единый визовый центр,"Троллейбусная ул., 24/2, Ростов-на-Дону, этаж 2",47.26773000195,39.761740025022
97,Визовый центр Дании,"ул. Сыганак, 47, Астана, офис 1509, этаж 15",51.122522424443,71.434140029568
98,Визовый центр,"Рязанский просп., 10, стр. 2, Москва, этаж 2, офис 217",55.725229981227,37.760159986913
99,Vfs Global,"6-я линия Васильевского острова, 31/29Б, Санкт-Петербург",59.944629999783,30.280629960019
100,Единый Визовый центр,"просп. Мира, 64, Москва, этаж 3",54.71945,20.48748
101,Первый Визовый центр,"Ветошный пер., 9, Москва, офис VSC, этаж 5",55.755609979739,37.621830002229
102,Единый Визовый центр,"ул. Горького, 68, Анапа",54.723170020023,20.593549963363
103,Визовый центр Франции,"ул. Жуковского, 102, Новосибирск, офис 504, этаж 5",55.056070003219,82.89001002111
104,Центр Визовых Услуг,"ул. Амангельды Иманова, 19, Астана, оф 59, этаж 11",51.164730005509,71.441840031856
105,Многофункциональный визовый центр,"ул. Белинского, 34, Екатеринбург, офис 203, этаж 2",56.831450009174,60.615259995971
106,Визаметрик,"Ставропольская ул., 87, Краснодар",54.748155916263,20.476686969939
107,Global Visa,"Курская ул., 4А, Подольск, этаж 1",55.428109995754,37.56106003074
108,Галант-Виза,"Советская ул., 49, Иваново, офис 20, этаж 2",54.716530296364,20.590814791019
109,Единый Визовый Центр,"4, микрорайон Купелинка, квартал Северный, д. Сапроново",54.735593022102,20.366432660833
110,Единый Визовый центр,"Ставропольская ул., 132, Краснодар, этаж 3",45.019930007411,39.003190025223
111,Первый Визовый центр,"ул. Чернышевского, 28, Пермь, офис 214, этаж 2",54.727750017647,20.473910030198
112,Единый Визовый центр,"ул. Фрунзе, 50, Омск",54.712900009338,20.529390014955
113,Визовый центр World Visa,"Молодёжная ул., 66, Барнаул, этаж 1",54.738869776667,20.516269807224
114,Первый визовый центр,"Первомайский просп., 56, Рязань, офис 210, этаж 2",54.629399992819,39.718989971894
115,Единый Визовый центр,"ул. Ленина, 30, Ижевск, офис 308, этаж 3",56.843879994398,53.213889958902
116,Единый визовый центр,"Девическая ул., 9, Владимир",56.128959979922,40.400540037267
117,Сервисно-визовый центр,"ул. Гикало, 5, Минск, офис 103, этаж 1",53.915060006042,27.591500006426
118,Визовый центр Ижевск,"Набережночелнинский просп., 54, Набережные Челны",55.716579982879,52.37024997937
119,Сервисно-Визовый центр Чехии,"ул. Большая Лубянка, 5, Москва",55.762380001025,37.627790038301
120,VisaVisa,"3-я Хорошёвская ул., 18, корп. 1, Москва",55.789329999028,37.502619976878
121,Единый Визовый центр,"ул. Святослава Храброго, 38А, Днепр",48.462759982079,35.03654998496
122,Визовый центр Греции,"ул. Овечкина, 1, Курск, этаж 1",51.722470015158,36.173190035007
123,Визовый центр,"просп. Толбухина, 8/75, Ярославль",57.620619981373,39.858719985866
124,Национальный визовый центр,"Коммунистическая ул., 4, Сыктывкар, офис 208, этаж 2-й",54.680019982476,20.482169976682
125,Visa One,"наб. имени В.И. Ленина, 1, Ялта",44.5023,34.15693
126,Паспортно-визовый центр,"Гражданский просп., 32, Белгород, этаж 1",50.594200007894,36.59885995863
127,Визовый центр Европа,"просп. Октябрьской Революции, 10/12А, Ставрополь",45.044009999858,41.973870034317
128,Многофункциональный визовый центр,"Первомайская ул., 53, Ярославль",54.734777845704,20.514335926321
129,Первый Визовый центр,"ул. Вардананц, 4, Ереван",54.70907,20.50928
130,Многофункциональный визовый центр,"ул. Льва Толстого, 7, Санкт-Петербург",59.965309998936,30.314859976207
131,Единый Визовый центр,"Галактионовская ул., 157, Самара",53.19823000729,50.106839989362
132,TLS Contact,"ул. Грибоедова, 110, Грозный",54.735021715267,20.527636298287
133,Единый Визовый Центр,"ул. Мустая Карима, 50, Уфа",54.735220011666,55.949009990296
134,Областной визовый центр,"Красная ул., 176лит1/1, Краснодар, этаж 3",45.046340001303,38.980039963024
135,Многофункциональный визовый центр,"Будённовский просп., 59, Ростов-на-Дону",47.226910007758,39.703610017758
136,Единый Визовый центр,"ул. Мясищева, 1, Жуковский",55.600750001893,38.106789988515
137,Многофункциональный визовый центр,"ул. Свободы, 34, Ярославль, офис 21, этаж 2",57.625819988375,39.874950032623
138,Виза-Юг,"Меридианная ул., 4, Ново-Савиновский район, Казань",55.817160013047,49.118610000759
139,Единый Визовый центр,"ул. Карла Маркса, 18, Ульяновск, офис 21, этаж 2",54.729219993916,20.480840020106
140,Визовый центр Union Travel,"Комсомольский просп., 3, Москва",55.733080010737,37.593270008263
141,Первый визовый центр,"Октябрьская ул., 39, Черкесск",54.702430006444,20.518309977147
142,Ульяновский визовый центр,"Озёрная ул., 25, Центральный внутригородской округ, микрорайон Дубинка, Краснодар, офис 105, этаж 1",45.022169987216,39.00616995944
143,Многофункциональный визовый центр,"Новослободская ул., 45Б, Москва, этаж 1",55.784619998087,37.595590035243
144,Единый Визовый центр,"просп. Победителей, 17, Минск, офис 1216, этаж 12",53.910330014262,27.547289993403
145,Южный Визовый центр,"ул. Обороны, 42Б, Ростов-на-Дону, этаж 3, офис 301",47.216069985747,39.708019988475
146,Визовый центр,"Первомайская ул., 43, Ярославль",54.734777845704,20.514335926321
147,Визовый центр,"просп. Сакена Сейфуллина, 498, Алматы, офис 501, этаж 5",43.251470016898,76.933650000456
148,Визовый центр Испании,"Демократическая ул., 54, жилой район Адлер, Сочи, офис 16, этаж 3",43.427079982789,39.927380010452
149,Визовый центр,"ул. Толстого, 2Б, Новороссийск, офис 305, этаж 3",44.712870006781,37.783390012469
150,Визовый центр Германии,"1-я Тверская-Ямская ул., 2, стр. 1, Москва",55.770049987254,37.596499974651
151,Единый Визовый центр Юг,"ул. Чапаева, 61, Рязань",54.719555799694,20.459654244986
152,Визовый центр № 1,"ул. Пожарского, 4, Владикавказ",43.058280014926,44.664570002195
153,Единый Визовый центр,"ул. Мира, 55, Стерлитамак, этаж 2, офис 204",53.619420013213,55.960569975879
154,Паспортно-визовый центр,"ул. Кузнецкий Мост, 19, стр. 1, Москва",55.76208001271,37.626039980737
155,Многофункциональный визовый центр,"Московский просп., 172, Санкт-Петербург",59.877250017541,30.320980022811
156,Единый Визовый центр,"просп. Луначарского, 15, корп. 1, Санкт-Петербург",60.042289984432,30.332930018349
157,Визовый центр Аавиза,"просп. Кирова, 52А, Пятигорск",44.03633084901,43.071374389661
158,Единый визовый центр,"ул. Арбат, 35, Москва, офис 448, этаж 4",55.749339980888,37.591560016196
159,Первый Визовый центр,"ул. Козлова, 29, Пятигорск, этаж 1",44.038710013981,43.062299975689
160,Многофункциональный визовый центр,"Крымская ул., 13, Феодосия",45.049889988755,35.370509985541
161,Визовые системы,"Деповская ул., 7Г, Барнаул, офис Б-211, этаж 2",53.349570004898,83.770870009331
162,Визовый Сервис-Центр,"Лесная ул., 43, Москва, этаж 3, офис 311",54.737210001208,20.514130005852
163,Многофункциональный визовый центр,"ул. Полярные Зори, 20, Мурманск",68.960600010567,33.083939958869
164,Алтайский визовый центр,"Восточно-Кругликовская ул., 22, Краснодар, офис 68, этаж 2",45.047440000366,39.027499975184
165,Визовик,"ул. Васенко, 17/2, Новороссийск",44.73962998704,37.772309974661
166,In. Visa,"ул. Коллонтай, 21, корп. 1, Санкт-Петербург",59.918400007262,30.467269965665
167,Паспортно-Визовый центр Евро-Азия,"Петровский бул., 14, Москва, этаж 2",55.767109992805,37.620029988522
168,Многофункциональный визовый центр,"бул. Дмитрия Донского, 8, Москва, этаж 1",55.568129981667,37.573519981268
169,Визовый центр,"просп. Пацаева, 7, корп. 1, Долгопрудный, помещение 53, БЦ «На Пацаева»",55.947169994911,37.505530006022
170,Visa 77,"ул. Радюка, 5А, Лида",53.8817999856,25.29946003356
171,Визовый центр Маст Групп,"Будапештская ул., 11В, Санкт-Петербург, офис 1/7, этаж 2",59.868520013927,30.368090006694
172,Единый Визовый центр,"ул. Нариманова, 72/52, Казань",55.779699988561,49.109719986613
173,Wizy.by визовая поддержка,"ул. Кирова, 39, Калуга",54.72575001173,20.489500034828
174,Петербургский Визовый центр,"ул. Ленинская Слобода, 26, стр. 5, Москва, этаж 1, офис vsc",55.709829994342,37.653960016395
175,Единый визовый центр,"ул. Суворова, 124, Калуга",54.51595001133,36.260540027293
176,Паспортно-визовый центр,"ул. Земляной Вал, 9, Москва, офис 4044",55.761820006073,37.658399994326
177,Центр Визовых Услуг,"просп. Димитрова, 7, Новосибирск, подъезд 3",55.034760020224,82.911670032382
178,Калужское визовое агентство,"ул. 70 лет Октября, 26, Омск, 323, этаж 3",54.981299990314,73.323839983588
179,Визовый центр Европа,"ул. Мира, 55, Волжский, этаж 1",54.675083669584,20.435384296668
180,Федеральный Визовый центр,"ул. Молодцова, 1, корп. 3, Сертолово, МФЦ, этаж 3, офис 301",60.140529996781,30.217820000936
181,Первый Визовый центр,"ул. Ушинского, 16, Батайск",47.13369000104,39.736540000763
182,Единый Визовый центр,"ул. Маркса, 38, Челябинск, офис 204, этаж 2",54.727130008269,20.476770019381
183,Первый Визовый центр,"ул. Энгельса, 78, Новороссийск",44.708819996896,37.782830017518
184,Многофункциональный визовый центр,"Галактионовская ул., 150, Самара, офис 219, этаж 2",53.202469993011,50.113769979269
185,Сервисно-визовый центр,"Промышленная ул., 2, Ханты-Мансийск, эт. 2, оф. 9",61.003260012252,69.000200018752
186,Городской визовый центр,"просп. Кунаева, 59, Шымкент",42.31757,69.60702
187,Региональный визовый центр,"Москва, Зеленоградский административный округ, площадь Юности, 2, стр. 1, офис 8/4",56.002110017465,37.210579969553
188,Первый Визовый центр,"Промышленная ул., 11, п. г. т. Яблоновский",44.989769991948,38.951430012915
189,Первый Визовый центр,"пр. Олой Бозори, 64, Ташкент",56.31405,55.40758
190,МСК Виза,"ул. Шевченко, 132, Центральный внутригородской округ, микрорайон Дубинка, Краснодар, этаж 2, офис 22",45.02180001001,39.010110040666
191,Многофункциональный визовый центр,"ул. Софьи Перовской, 17, Мурманск",68.969189994488,33.083590014411
192,Grand Viza Markazi,"ул. Кузнецкий Мост, 19, стр. 1, Москва",55.76208001271,37.626039980737
193,Объединённый визовый центр,"ул. Карла Либкнехта, 22, Екатеринбург, БЦ Консул, офис 511",56.840770014953,60.612400006788
194,Визовый центр Испании,"Сибирская ул., 57, Новосибирск",55.038089982717,82.913569958375
195,Визовый центр Болгарии,"Октябрьская ул., 47, Тамбов, этаж 2",54.701840004279,20.518399998787
196,Первый Визовый центр,"ул. Соловьиная Роща, 12/4, Москва",55.89440000518,37.399140017759
197,TLScontact,"ул. Ефимова, 1/4, Санкт-Петербург, этаж 3, офис 304",59.92637999818,30.319140027426
198,Диамонитирион,"Зубовский бул., вл13с1, Москва, этаж 3, офис 6",54.70907,20.50928
199,Первый Визовый центр,"ул. Республики, 59, Тюмень, этаж 1",57.14944998601,65.548489962494
200,Визовый центр Куркино,"просп. Ленина, 65А, Нальчик",43.488259996981,43.611849985836
201,Greenberg,"ул. Ленина, 28, Уфа, офис 101 А, этаж 1",54.794869993252,56.236169969773
202,Expert-visa,"Сущёвская ул., 21, Москва, этаж 2, офис 204",55.782229982215,37.600850014761
203,Единый визовый центр,"ул. Луначарского, 159, Геленджик",44.586660002631,38.053459961924
204,Многофункциональный визовый центр,"ул. Державина, 28, Новосибирск, этаж 6, офис 611",55.038989989571,82.927760017536
205,Генеральный Визовый центр,"Волжская ул., 4, микрорайон Мамайка, Сочи",43.635839998553,39.701640019054
206,Галант-Виза,"Трамвайная ул., 13/1, Краснодар",45.015500003945,39.06350997233
207,Многофункциональный визовый центр,"ул. Энтузиастов, 52, Волгодонск",47.527689993162,42.19669999657
208,Визовый центр Испании,"Молодёжная ул., 3, Гродно, офис 9",53.676939985564,23.835659969522
209,Многофункциональный визовый центр,"ул. Чкалова, 24, п. г. т. Энем",54.725880015048,20.460609961516
210,Виза Д' Вояж,"ул. Ленина, 196, Горячий Ключ",44.633530012627,39.135830038756
211,Многофункциональный визовый центр,"ул. Чкалова, 80, Керчь",54.729870010507,20.460590012586
212,Виза в Польшу,"просп. Мира, 28А, Златоуст, офис 8",54.720403518934,20.485220166595
213,Многофункциональный визовый центр,"ул. Чернышевского, 82, Уфа, офис 419, этаж 4",54.72488001209,20.460950015327
214,Первый Визовый центр,"Троллейбусная ул., 24/2, Ростов-на-Дону",47.26773000195,39.761740025022
215,Многофункциональный визовый центр,"ул. Парижской Коммуны, 26, Казань",55.780749989571,49.110100022103
216,Первый Визовый центр,"Таганская ул., 5, стр. 1, Москва, этаж 1",55.740980680999,37.658863203173
217,Официальный визовый центр Уфа,"ул. Фрунзе, 80, Новосибирск, офис 407, этаж 4",54.711709988635,20.532020004714
218,Online,"ул. Челюскинцев, 15Б, Новосибирск",55.039859989211,82.905319986355
219,Vfs Global,"ул. Галактионова, 6, Казань, этаж 2",55.792660003431,49.126269970614
220,Единый визовый центр,"Пушкинская ул., 268, Ижевск, этаж 2",56.86301998648,53.210120030311
221,Единый визовый центр,"Октябрьская ул., 47, Тамбов, этаж 2",54.701840004279,20.518399998787
222,VFS Global,"ул. Герцена, 60, Тюмень",54.751309996821,20.532470029095
223,Визовый центр Испании,"ул. Парижской Коммуны, 26, Казань",55.780749989571,49.110100022103
224,Единый Визовый центр,"Таганская ул., 5, стр. 1, Москва, этаж 1",55.740980680999,37.658863203173
225,Диамонитирион,"ул. Фрунзе, 80, Новосибирск, офис 407, этаж 4",54.711709988635,20.532020004714
226,Первый Визовый центр,"ул. Новый Арбат, 7, стр. 1, Москва, этаж 2, офис 204",55.752610012774,37.597489961236
227,Visard,"ул. Челюскинцев, 15Б, Новосибирск",55.039859989211,82.905319986355
228,Vfs Global,"ул. Галактионова, 6, Казань, этаж 2",55.792660003431,49.126269970614
229,Единый визовый центр,"Пушкинская ул., 268, Ижевск, этаж 2",56.86301998648,53.210120030311
230,Единый визовый центр,"ул. Маерчака, 16, Красноярск",56.021640019501,92.836879982071
231,Виза-5,"Советская ул., 28, Кострома, ТЦ Шкатулка, офис 5",54.716968706918,20.588555732835
232,VFS Global,"Московский просп., 9, Выборг, офис 8-Н",54.711180000897,20.496530020841
233,Визовый центр Испании,"ул. Челюскинцев, 36, Тюмень",57.156819983924,65.533539999991
234,Единый Визовый центр,"просп. Ленина, 55, Томск, офис 310-311, этаж 3",56.470380000058,84.951859966364
235,VFS Global,"ул. Воронина, 10, Севастополь, офис 409, этаж 4",44.612069993565,33.521470024028
236,Визовый центр Union Travel,"Тверская ул., 30/2с1, Москва, этаж 6, офис 24",54.70444786701,20.577283328369
237,VFS Global,"просп. Ломоносова, 81, Архангельск, этаж 1",64.533280010583,40.538480011997
238,Css & Co Legal Services,"ул. Герцена, 62/1, Тюмень, этаж 1",54.751450016513,20.532710002983
239,Биометрический Визовый центр,"Настасьинский пер., 1, Москва, этаж 2",55.76682999533,37.602939958499
240,Единый визовый центр,"ул. Грузинский Вал, 11, стр. 8, Москва, этаж 1",55.77347928893,37.577888103848
241,Визовый центр Allianz Visa,"просп. Мира, 64, Москва, этаж 3",54.71945,20.48748
242,Визовый,"ул. Максима Горького, 262, Нижний Новгород",56.32252000101,44.03311002256
243,VFS Global,"Красноказарменная ул., 9, Москва",55.758169980607,37.697729979501
244,Первый Визовый центр,"просп. Ленина, 55, Томск, офис 310-311, этаж 3",56.470380000058,84.951859966364
245,Китайский Визовый центр,"ул. Воронина, 10, Севастополь, офис 409, этаж 4",44.612069993565,33.521470024028
246,Визаход,"Тверская ул., 30/2с1, Москва, этаж 6, офис 24",54.70444786701,20.577283328369
247,Vfs Global,"просп. Ломоносова, 81, Архангельск, этаж 1",64.533280010583,40.538480011997
248,Визовый центр Испании,"ул. Герцена, 62/1, Тюмень, этаж 1",54.751450016513,20.532710002983
249,Многофункциональный визовый центр,"Настасьинский пер., 1, Москва, этаж 2",55.76682999533,37.602939958499
250,Единый визовый центр,"ул. Грузинский Вал, 11, стр. 8, Москва, этаж 1",55.77347928893,37.577888103848
251,Визовый центр Allianz Visa,"просп. Мира, 64, Москва, этаж 3",54.71945,20.48748
252,Визовый,"ул. Максима Горького, 262, Нижний Новгород",56.32252000101,44.03311002256
253,VFS Global,"ул. Ленина, 9, корп. 1, Нижневартовск",60.940279984353,76.56142996464
254,Первый Визовый центр,"Красноказарменная ул., 9, Москва",55.758169980607,37.697729979501
255,Китайский Визовый центр,"Московский просп., 11, корп. 1, Витебск",55.181560585128,30.208643633068
256,Визаход,"ул. Карла Маркса, 49, Новороссийск",44.713820011687,37.783069991406
257,Vfs Global,"просп. Сакена Сейфуллина, 498, Алматы, офис 305, этаж 3",43.251470016898,76.933650000456
258,Визовый центр Испании,"Ракетный бул., 16, Москва",55.817449984987,37.65569004121
259,Единый Визовый центр,"просп. Димитрова, 7, Новосибирск",55.034760020224,82.911670032382
260,Многофункциональный визовый центр,"ул. Гаппо Баева, 18, Владикавказ",43.022709983877,44.681700013895
261,Pony express,"ул. Исаева, 2А, Королёв, подъезд 2, этаж 1",55.923179982194,37.861689980077
262,Vfs Global,"бул. Гагарина, 1, Брянск, этаж 2",54.71615998294,20.590879991926
263,Визовый центр Италии,"Каширское ш., 3, корп. 2, стр. 9, Москва, БЦ Сириус Парк",55.67199999265,37.631630039602
264,Виза в Великобританию,"просп. Дмитрия Яворницкого, 22, Днепр, 2-й пов, БЦ Атріум",48.457940010567,35.060029958868
265,Федеральный Визовый центр,"Октябрьский просп., 104, Киров",58.588940016268,49.659249964011
266,Единый визовый центр,"14Б, 11-й комплекс, Набережные Челны, этаж 2, офис 2",55.731789993929,52.395789973622
267,Визовый центр,"Оборонная ул., 35, Тула, этаж 2",54.184719996613,37.625809981313
268,Первый визовый центр,"Певческий пер., 4, стр. 4, Москва",55.752159988392,37.641910024752
269,Визовый центр Нидерландов,"Каширское ш., 3, корп. 2, стр. 9, Москва, БЦ Сириус Парк",55.67199999265,37.631630039602
270,Визовый центр посольства Венгрии,"просп. Дмитрия Яворницкого, 22, Днепр, 2-й пов, БЦ Атріум",48.457940010567,35.060029958868
271,Визовый центр Глобус,"Октябрьский просп., 104, Киров",58.588940016268,49.659249964011
272,Визовый центр РФ,"14Б, 11-й комплекс, Набережные Челны, этаж 2, офис 2",55.731789993929,52.395789973622
273,Единый Визовый центр,"Оборонная ул., 35, Тула, этаж 2",54.184719996613,37.625809981313
274,Индийский визовый центр,"Певческий пер., 4, стр. 4, Москва",55.752159988392,37.641910024752
275,Визовый центр Нидерландов,"ул. Немига, 40, Минск, помещение 60",53.899660019157,27.543020000468
276,Визовый центр посольства Венгрии,"Торжковская ул., 5, Санкт-Петербург, по предварительной записи, коворкинг Пушкин, БЦ Оптима, этаж 1",59.98785,30.30886
277,Визовый центр Глобус,"просп. Ленина, 21В, Челябинск, этаж 2",55.160400013048,61.426280039095
278,Визовый центр РФ,"Стремянный пер., 33, Москва",55.726739981084,37.628330000503
279,Единый Визовый центр,"ул. Короленко, 5, Екатеринбург, этаж 3",56.852369982215,60.61739997967
280,Индийский визовый центр,"Будённовский просп., 3, Ростов-на-Дону, этаж 1",47.215500016331,39.70919001834
281,"Визовый центр Италии, Великобритании","наб. канала Грибоедова, 56-58, Санкт-Петербург, этаж 2",59.926299992914,30.31567000333
282,Первый Визовый центр,"Пресненская наб., 10блокС, Москва, этаж цокольный",54.70907,20.50928
283,Либерти,"ул. Карла Маркса, 20А, Екатеринбург",56.830580009534,60.614630012128
284,Европейский визовый центр,"ул. Андропова, 13, Петрозаводск",61.790480018496,34.363249975426
285,Первый визовый центр,"ул. Кузьмы Чорного, 4А, Минск, помещение 1-2",53.92451001514,27.600369987823
286,Донской визовый центр,"ул. Маяковского, 1А, Рязань, этаж 1, офис 108",54.727433800696,20.47268511989
287,Многофункциональный визовый центр,"Яузская ул., 5, Москва",55.749519982259,37.645130016676
288,VisaVik,"Крестовая ул., 105, Центральный микрорайон, Рыбинск, этаж 2, офис 6",58.051730011614,38.836879990453
289,Единый Визовый центр,"ул. 60 лет СССР, 72А, Ноябрьск, этаж 2",63.199199998378,75.430860005054
290,Визовый центр Петрозаводск,"Ленинский просп., 95А, Москва",54.703350195075,20.505549551411
291,Виза. бай,"ул. Будённого, 114, Центральный внутригородской округ, микрорайон Центральный, Краснодар",54.172175131276,37.62542699669
292,VFS Global,"1-й Тверской-Ямской пер., 18, Москва, офис 10",55.773570009402,37.599249993264
293,Многофункциональный визовый центр,"Свободная ул., 10, Калининград",54.718819979913,20.486559998471
294,Единый Визовый центр,"ул. 60 лет СССР, 72А, Ноябрьск, этаж 2",63.199199998378,75.430860005054
295,Визовый центр Ямала,"Ленинский просп., 95А, Москва",54.703350195075,20.505549551411
296,Визовый отдел Федеративной Республики Германия,"ул. Будённого, 114, Центральный внутригородской округ, микрорайон Центральный, Краснодар",54.172175131276,37.62542699669
297,Единый Визовый центр,"1-й Тверской-Ямской пер., 18, Москва, офис 10",55.773570009402,37.599249993264
298,Дольче виза,"Свободная ул., 10, Калининград",54.718819979913,20.486559998471
299,Парк тур,"Малый Толмачёвский пер., 6, стр. 1, Москва",55.742077723037,37.618906209256
300,Визовый центр Ямала,"ул. Кирова, 1А, микрорайон Центральный, Домодедово, офис 203, этаж 2",55.442560019643,37.747640021959
301,Визовый отдел Федеративной Республики Германия,"Чкаловский просп., 7, Санкт-Петербург, этаж 2",59.959400002826,30.289029968106
302,Единый Визовый центр,"Мамонтовская ул., 11, Нефтеюганск",61.0851499909,72.63394003391
303,Дольче виза,"ул. 45-я Параллель, 7А, Ставрополь, офис 11, этаж 2",44.99912000494,41.920379997194
304,Парк тур,"ул. Дохтурова, 3, Смоленск",54.775990007807,32.042199984212
305,Визовый центр Италии,"ул. Чайковского, 5А, Ступино, БЦ Ступинский, эт. 3, оф. 6",54.883410006242,38.075100024266
306,Единый Визовый центр,"Гамсоновский пер., 2, стр. 1, Москва, офис 022, этаж 1",55.707629996216,37.625769999635
307,VFS Global,"ул. Маерчака, 18, Красноярск, офис 409, этаж 4",56.022129983652,92.836760037037
308,Первый Визовый центр,"ул. Ломоносова, 6Б, Орёл, ТЦ Утес, этаж 3, офис 7",54.739658091264,20.456355312388
309,Discovery,"ул. Красного Текстильщика, 10-12Д, Санкт-Петербург, этаж 2",59.941629990908,30.395620032398
310,Визовый центр,"ул. Маркса, 54, Челябинск, БЦ Капитал, офис 111",54.726579987782,20.473160017502
311,Первый Визовый центр,"Бобруйская ул., 6, Минск, этаж 6",53.89021001006,27.554149994419
312,Визовый центр Visapeople,"Плехановская ул., 9, Воронеж, этаж 1",51.662470005295,39.198409998416
313,ВЦ Либерти,"Красноармейская ул., 100, Брянск, этаж 2",53.240239980277,34.34659999532
314,Орловский визовый центр,"ул. 1812 года, 126, Калининград, этаж 2",54.711149993684,20.536749996495
315,Паспортно-визовый центр,"ул. Есенина, 32, корп. 1, Санкт-Петербург, ФОТО-КОПИЦЕНТР",60.052449982638,30.33998003711
316,Визовый центр - Челябинск,"ул. Валентины Терешковой, 16, Липецк",52.621434080856,39.569512675057
317,Визовый центр Дании,"Австрийская ул., 4, корп. 1, Кудрово, 14-Н",59.902899982362,30.510320007107
318,Единый Визовый центр,"Тверская ул., 20/1с1, Москва, этаж 2",54.704640020944,20.577099975467
319,Визовый отдел,"ул. Есенина, 32, корп. 1, Санкт-Петербург, ФОТО-КОПИЦЕНТР",60.052449982638,30.33998003711
320,Другие места,"ул. Валентины Терешковой, 16, Липецк",52.621434080856,39.569512675057
321,Восточный Дракон,"Австрийская ул., 4, корп. 1, Кудрово, 14-Н",59.902899982362,30.510320007107
322,Визовый центр,"Тверская ул., 20/1с1, Москва, этаж 2",54.704640020944,20.577099975467
323,Единый визовый центр,"просп. Зои Космодемьянской, 86, Азов",54.684949607262,20.532566474947
324,Китайский визовый центр,"ул. Крайнего, 49, Пятигорск, офис 904, этаж 9",44.036999980005,43.071749984786
325,Восточный Дракон,"ул. Фридриха Энгельса, 8, Тула, офис 11, этаж 2",54.194029986017,37.614289977408
326,Визовый центр,"Бобруйская ул., 6, Минск, этаж 6",53.89021001006,27.554149994419
327,Единый визовый центр,"Ленинский просп., 2А, Москва",54.716082644971,20.50298365673
328,Китайский визовый центр,"Красная ул., 155/1, Краснодар, этаж 1",45.049600016814,38.977499994904
329,Многофункциональный визовый центр,"ул. Маяковского, 14А, микрорайон Железнодорожный, Балашиха, этаж 3, офис 308",55.74562000844,37.99501999188
330,Первый визовый центр,"ул. Бурденко, 14, корп. А, Москва, этаж 3, офис 315",55.738870019903,37.58102002441
331,Uway,"Кооперативный пер., 7, Томск, офис 2, этаж 2",56.490181606959,84.945621738321
332,Визовый центр Венгрии,"ул. Суворова, 91Г, Ростов-на-Дону",47.226611038248,39.73314714135
333,Китайский визовый центр,"ул. Королёва, 6, стр. 2, Жуковский, подъезд 4, офис 6, этаж 2",55.609170176139,38.092848774396
334,Единый Визовый центр,"ул. 9 Января, 30, Воронеж, этаж 1",51.661400013446,39.192909961191
335,Паспортно-Визовый центр,"Лиговский просп., 52К, Санкт-Петербург, офис 11, этаж 2",59.925116922273,30.358661876795
336,Джазл АльДжазира,"Большая Садовая ул., 5, Москва, офис 144",54.748680007061,20.4494699931
337,Визовый центр,"ул. Кирова, 37, Новокузнецк, Левое крыло",54.725650015625,20.489730034252
338,TLScontact,"ул. Расковой, 16/26к2, Москва, этаж 1, помещение 1, офис 4",55.787299985898,37.572490013005
339,Первый визовый туристический центр,"Чкаловский просп., 7, Санкт-Петербург, секция 200, этаж 2",59.959400002826,30.289029968106
340,Первый визовый центр,"Литейный просп., 26, Санкт-Петербург, офис 210, этаж 2",59.941900013919,30.348929981864
341,Тревел сервис,"Бобруйская ул., 6, Минск, этаж 6",53.89021001006,27.554149994419
342,Виза Мира,"Партизанская ул., 86, Самара, офис 545, этаж 5",54.723618536622,20.509639270814
343,Визовый центр Новокузнецка,"Можайское ш., 165, стр. 1, рабочий посёлок Новоивановское, офис 14",55.686920868934,37.310084926821
344,VisaNS,"Литейный просп., 26, Санкт-Петербург, офис 210, этаж 2",59.941900013919,30.348929981864
345,Сервисно-визовый центр Швеции,"Бобруйская ул., 6, Минск, этаж 6",53.89021001006,27.554149994419
346,TLScontact,"Партизанская ул., 86, Самара, офис 545, этаж 5",54.723618536622,20.509639270814
347,Визовый центр Ирландии,"Можайское ш., 165, стр. 1, рабочий посёлок Новоивановское, офис 14",55.686920868934,37.310084926821
348,Визовый центр Испании,"Казанская ул., 1/25, Санкт-Петербург, офис 504Б, этаж 5",59.93538999927,30.323580005357
349,Первый визовый центр,"Садовая-Самотёчная ул., 13, стр. 1, Москва",55.77419001878,37.617969968178
350,TLScontact,"Театральная ул., 10, Кстово",54.71613209932,20.502608733394
351,Визовый центр Ирландии,"Краснопрудная ул., 7-9, Москва, подъезд 6, офис 145",54.709939982141,20.568510033455
352,Визовый центр Испании,"бул. Султана Дудаева, 1В, Грозный, этаж 2, офис 1",43.322319981327,45.723190040199
353,Первый визовый центр,"Верхняя Луговая ул., 24, Курск, этаж 1",54.744690011602,20.513059972093
354,Визовый центр Германии,"Красный просп., 182, Новосибирск, офис 404, этаж 4",55.05702998259,82.913910012186
355,Визовый Менеджер,"Шафарнянская ул., 18, Минск",53.948390015377,27.67888998039
356,Первый Визовый Центр,"Комсомольская ул., 13, микрорайон Центральный, Сочи",54.722750103745,20.47891554239
357,Московский Визовый центр,"ул. Красный Путь, 101, Омск, офис 414, 415, этаж 4",55.003040006851,73.349060040596
358,Первый Визовый центр,"ул. Восход, 16, Казань",55.832280002456,49.074000003316
359,Единый Визовый центр,"Бобруйская ул., 6, Минск, этаж 6",53.89021001006,27.554149994419
360,Сибирь-виза,"просп. Дмитрия Яворницкого, 22, Днепр",48.457940010567,35.060029958868
361,Мвиза,"2-й Сыромятнический пер., 1, Москва",55.753869980459,37.662030028953
362,Centre commun de demande de visa,"просп. Мира, 106, стр. 2, Красноярск, этаж 2",54.722170017065,20.468440000186
363,Vfs Global Indian Visa and Consular Application Centre,"Рождественский бул., 9, стр. 1, Москва, подъезд 1",55.766899984221,37.625839988527
364,Вивас,"ул. Маерчака, 10, Красноярск, офис 10-01, 10-06, этаж 10",56.01962999721,92.83854999246
365,Единый Визовый центр,"Комсомольская ул., 8, Волгоград, этаж 2, офис 9",54.721930001267,20.479630008563
366,Визовый центр Спутник,"Киевская ул., 160, Симферополь, офис 217, этаж 2",44.984740011853,34.083670002447
367,Визовый центр Хорватии,"Комсомольская ул., 8, Волгоград, этаж 2, офис 9",54.721930001267,20.479630008563
368,Визовый центр Польши,"Киевская ул., 160, Симферополь, офис 217, этаж 2",44.984740011853,34.083670002447
369,ВикиВиза,"ул. Болеслава Берута, 3Б, Минск, офис 305, этаж 3",53.905429995575,27.502710003174
370,Экспресс-виза,"Семёновский пер., 15, Москва, этаж 6",55.782730004649,37.715579996684
371,Виза. Store,"Плехановская ул., 53, Воронеж, этаж 5, офис 503",51.674250015837,39.184699970849
372,Первый визовый центр,"ул. Карла Маркса, 25, Минск, офис 2",53.897619116295,27.556643342374
373,Visa-Region,"Пресненская наб., 12, Москва",55.749419986154,37.537019978062
374,Первый Визовый центр,"ул. Героев Труда, 6, Харьков, пов. 2",50.026369988931,36.327389979887
375,Visa-Region,"Тверская ул., 20/1с1, Москва, офис 205",54.704640020944,20.577099975467
376,Первый Визовый центр,"ул. Щербакова, 15, Нижний Новгород, этаж 1",56.349480015388,43.871050031796
377,Make travel,"ул. Большакова, 70, Екатеринбург, этаж 6, офис 601",56.818980000363,60.613340037229
378,Виза Трейд,"ул. Щербакова, 15, Нижний Новгород, этаж 1",56.349480015388,43.871050031796
379,Воронежский визовый центр,"ул. Янки Купалы, 2, Витебск, этаж 2",55.196959988771,30.206569978132
380,V1za.by,"ул. Тухачевского, 30, Ставрополь, этаж цокольный",45.016400010798,41.898800033098
381,Европейский визовый центр,"ул. Фридриха Энгельса, 25Б, Воронеж, БЦ БИК-3, эт. 2, оф. 205",51.669480000469,39.20549002439
382,Centre dé Demandes dé Visa Arabie Saoudite,"просп. Кирова, 36, Томск, офис 216",54.72777998295,20.48521998361
383,Визовый центр,"ул. Чернышевского, 82, Уфа, офис 320Б, этаж 3",54.72488001209,20.460950015327
384,Визовый центр ВизаМосква,"ул. Тимирязева, 28В, Алматы, БЦ Алатау-гранд, этаж 1, офис 104",43.35831,77.14119
385,Визовый центр Норвегии,"Литейный просп., 26, Санкт-Петербург, этаж 1",59.941900013919,30.348929981864
386,TLScontact,"ул. 10 лет Октября, 17, Ижевск, этаж 2",56.87250000279,53.21518001762
387,Vfs Global,"Кирочная ул., 7, Санкт-Петербург, подъезд 2",59.943809998196,30.353599959218
388,Vfs Global,"Большая Серпуховская ул., 44, Москва, офис 421, этаж 4",55.722790009213,37.626759986219
389,Единый Визовый центр,"ул. 50-летия Октября, 4, Уфа",54.735190004453,55.961640009639
390,Многофункциональный визовый центр,"Мясницкая ул., 30/1/2с1, Москва, этаж 4",55.76556503859,37.638718103176
391,Объединенный Визовый центр,"Большая Серпуховская ул., 44, Москва, офис 421, этаж 4",55.722790009213,37.626759986219
392,Златан,"ул. 50-летия Октября, 4, Уфа",54.735190004453,55.961640009639
393,Визовый центр Болгарии,"Мясницкая ул., 30/1/2с1, Москва, этаж 4",55.76556503859,37.638718103176
394,Визовый центр Индии,"Молодёжная ул., 48, Одинцово, этаж 2",54.738869776667,20.516269807224
395,Ижевский визово-туристический центр,"Красный просп., 200, Новосибирск, эт. 3, оф. 304",55.063359995868,82.912500008434
396,Инпредсервис,"ул. Юрия Гагарина, 7, Ивангород",54.716039995996,20.537130031985
397,V-viza,"ул. Ломоносова, 41, Северодвинск",64.557360003031,39.826289983385
398,Глобус,"Первомайская ул., 78, Липецк, этаж 3, офис 304",54.734357928707,20.512635889075
399,Демократический визовый центр,"Лиговский просп., 50Ф, Санкт-Петербург, офис 15, этаж 2",59.925206862566,30.357598444035
400,V-viza,"ул. Куйбышева, 44Д, Екатеринбург, этаж 2",56.828498911324,60.616496336185
401,Глобус,"ул. Чернышевского, 28, Пермь, этаж 2, офис 205",54.727750017647,20.473910030198
402,Демократический визовый центр,"ул. Щербакова, 7А2, Нижний Новгород, этаж 2, офис 1",54.70907,20.50928
403,Единый Визовый центр,"ул. Мичурина, 78, Самара",54.680912009914,20.571323859527
404,Первый визовый центр,"ул. Шухова, 14, Москва, офис 314",55.71685000589,37.613130005828
405,Vfs Global,"Рижский просп., 60, Псков",57.814559996042,28.299179984396
406,Первый визовый центр,"Первомайская ул., 40, Липецк, этаж 3",54.734357928707,20.512635889075
407,Липецкий Визовый центр,"просп. Маршала Жукова, 39, корп. 1, Москва, офис 6, этаж 2",55.775319983147,37.471230000943
408,Первый Визовый центр,"ул. Щербакова, 15, Нижний Новгород, этаж 1",56.349480015388,43.871050031796
409,VFS Global,"Невский просп., 109, Санкт-Петербург, подъезд 6",59.92890001737,30.369809973226
410,VFS Global,"Тверская ул., 18, корп. 1, Москва, редакция газеты Известия, этаж 5, офис 514",54.704860003993,20.577180022643
411,НН виза,"Тверская ул., 20/1с1, Москва, этаж 3, офис 301",54.704640020944,20.577099975467
412,Ирландский визовый центр,"Сысольское ш., 1/3, Сыктывкар, 20",61.658640015711,50.834430004859
413,VizaWe,"Ленинский просп., 2А, Москва, этаж 3",54.716082644971,20.50298365673
414,VFS Global,"Ставропольская ул., 81, Краснодар",54.748155916263,20.476686969939
415,Липецкое Визовое агентство,"ул. Мичурина, 78, Самара, этаж 2",54.680912009914,20.571323859527
416,Смартвиза,"Баррикадная ул., 8, стр. 5А, Москва, этаж 5, офис 414",55.762119994388,37.582119981564
417,Визовый центр Литвы,"Трёхпрудный пер., 4, стр. 1, Москва",55.764874191426,37.598209276949
418,"Визовый центр Болгарии, Италии, Франции","ул. Кузнецкий Мост, 21/5, Москва, 2), офис 650",55.762649982126,37.626729979006
419,ЭкспертВиз,"Маленковская ул., 32, стр. 3, Москва, 2",55.786839987052,37.675030025502
420,Калинка Сервис,"ул. Республики, 143/1, Тюмень, офис 503",57.140220001871,65.566220034643
421,Первый Визово-Туристический центр,"ул. Маросейка, 7/8, Москва, оф. 306",55.757490547988,37.632809970141
422,Vfs France,"Канатная ул., 22, Одесса",46.479750008546,30.747970012365
423,Единый визовый центр,"Введенский канал, 7, Санкт-Петербург, БЦ Фарватер",59.956519980895,30.30143996249
424,VFS Global,"ул. Щербакова, 15, Нижний Новгород, этаж 1",56.349480015388,43.871050031796
425,Все Визы,"ул. Евгения Коновальца, 36Д, Киев, пов. 2, БЦ Волна, офис 23",50.423729992669,30.534670022565
426,Visa4You,"Большая Санкт-Петербургская ул., 130, Великий Новгород, этаж 4",58.565089981335,31.280000000857
427,Визовый центр Германии,"просп. Мира, 25Б, Набережные Челны",55.731850008355,52.395830039119
428,VISA-Бутик,"просп. Мира, 101, стр. 1, Москва, этаж 4, офис 424",54.721919984893,20.458650021096
429,Визовый центр,"бул. Гусева, 46, Тверь, офис 23, этаж цокольный",56.816300012551,35.89028999018
430,Визовый центр и Миграция,"ул. Мира, 3, Санкт-Петербург, этаж 2, офис 205А",59.739960017493,30.337430010707
431,Визовый центр Чехии,"ул. Челюскинцев, 15А, Новосибирск, этаж 1",55.039419981204,82.904429995876
432,VISA-SPb,"ул. Карла Маркса, 17, Ханты-Мансийск, этаж 4, офис 401",61.005510008431,69.017130038243
433,Визовый центр Мальты,"просп. Исмоила Сомони, 3/2, Душанбе",38.6026,68.79321
434,Визовое агентство World Visa,"Новослободская ул., 16А, Москва",55.782179984163,37.599990031496
435,Визовый центр Испании,"ул. Горького, 96, Центральный внутригородской округ, микрорайон Центральный, Краснодар, офис 207, этаж 2",51.740055221088,36.197422349435
436,Первый Визовый центр,"Калужская ул., 4, Обнинск",54.728440015916,20.50120997266
437,ГеоЛайтТрэвел,"Университетская ул., 3, Сургут, этаж 1",54.713690003713,20.508380020274
438,Магазин виз,"Бобруйская ул., 6, Минск, этаж 6",53.89021001006,27.554149994419
439,Визовый центр Аврора,"ул. Типанова, 19, Санкт-Петербург",59.852769998765,30.334080015465
440,Global,"Ленинский просп., 153, Санкт-Петербург",59.850049987366,30.304149999425
441,Первый Визовый центр Хм,"ул. Ворошилова, 16, Воронеж, этаж 1",51.655560006227,39.1774099782
442,Международный визовый центр,"ул. Шишкина, 12, Прокопьевск, этаж 1",54.677229982185,20.565130030999
443,ПрофДок,"Заводская ул., 9, Щёлково",54.715109981929,20.558830024935
444,Федеральный визовый центр,"Новослободская ул., 26, стр. 1, Москва, под. 1, эт. 3, оф. 356",55.783100476651,37.59777627474
445,Первый визовый центр,"Старопортофранківська вулиця, 103А, Одеса",46.474819982645,30.724669997918
446,Первый визовый центр,"Канатная ул., 22, Одесса",46.479750008546,30.747970012365
447,Визовый центр Литвы,"Трёхпрудный пер., 11/13с2, Москва, этаж цокольный, офис 1",55.765863868578,37.596440968767
448,Эксперт групп,"Октябрьский просп., 28, Кемерово, офис 310, этаж 3",55.349479990708,86.124410017451
449,Визовый центр,"Семёновская площадь, 1А, Москва, БЦ Соколиная гора",55.782790019076,37.717770020346
450,VFS Global,"Воронцовская ул., 6, стр. 2, Москва, офис 11",55.739829999274,37.655089980762
451,Первый Визовый центр,"ул. Гиляровского, 40, Москва, 40",55.783129989069,37.632729996756
452,Визовый центр Щелково,"Институтская ул., 9А, Прокопьевск, оф. 13",53.867380010834,86.645610000307
453,NKvisa,"ул. Карла Маркса, 25, Минск, офис 2, 3",53.897619116295,27.556643342374
454,Визовый центр,"Лубянский пр., 27/1, Москва, БЦ ""Китай Город"", этаж 5, офис 534",55.754129987096,37.635759970935
455,Визовый центр посольства Королевства Нидерландов,"Al Raqah Street, 61, El Murakkabat, Deira, Emirate of Dubai",25.314321849704,55.34688890807
456,Visa Helper,"Лиговский просп., 43-45Б, Санкт-Петербург, офис 410",59.930430008066,30.359239974226
457,Кемеровский визовый центр,"Кремлёвская ул., 19, Йошкар-Ола, Россия, РМЭ, Йошкар-Ола, ул. Кремлевская 19, ТЦ ""21 век"", этаж 4",56.638449983037,47.892750039647
458,Британское визовое агентство,"ул. Сурб Григора Лусаворича, 8, Ереван",54.70907,20.50928
459,ВизаГлобалЦентр,"ул. Героев Труда, 7, Харьков, 2 поверх, ТЦ Караван",50.028870017281,36.328339984793
460,Московский визовый центр МСК,"ул. Некрасова, 2, Белгород",54.734289997599,20.529769966626
461,Единый визовый центр,"ул. Розы Люксембург, 2, Ставрополь, этаж 2",45.047630018111,41.980259978203
462,Shengenviza.by,"ул. Тургенева, 22А, Орёл, помещение 10, этаж 1",54.735159997239,20.520149972532
463,Easy-Visa,"Сущёвская ул., 19, стр. 4, Москва, офис 211, этаж 2",55.781871499573,37.601628335656
464,Dubaivisa.com,"Вспольный пер., 3, Москва, офис 205",55.759789992943,37.586709995562
465,Паспортно-Визовый центр,"Вспольный пер., 3, Москва, офис 205",55.759789992943,37.586709995562
466,Первый визово-туристический центр,"Кальварийская ул., 42, Минск, офис 211, этаж 2",53.908349999184,27.516130016891
467,Посольство Французской Республики в Республике Армения,"Спортивная площадь, 1А, Киев, ТРЦ Гуливер",50.438640015404,30.522909960953
468,Визовый центр Чехии,"просп. Рахимжана Кошкарбаева, 10/1, Астана, блок G, офис 29",51.127449982393,71.468739989898
469,Трэвэл Профи клуб,"Сенная площадь, 4, Санкт-Петербург, офис 308",59.926340016502,30.318789999149
470,ТВК Групп,"просп. имени В.И. Ленина, 54Б, Волгоград",48.725929990749,44.541430037721
471,Единый Визовый центр Орел,"ул. Комиссаржевской, 10, Воронеж, », БЦ Премьер, офис 610",51.67147,39.20323
472,Канадский визовый центр,"просп. Ленина, 50, Октябрьский",54.482409993411,53.496920007047
473,Visabg. online,"Чкаловский просп., 7, Санкт-Петербург, этаж 2",59.959400002826,30.289029968106
474,Ист Групп,"ул. Немига, 40, Минск, этаж 5, офис 510",53.899660019157,27.543020000468
475,Ист Групп,"ул. Карла Маркса, 156/13, Тамбов, напротив сквера ""Детского Мира"", этаж 1",54.723309997806,20.460620019799
476,Pony Express,"Невский просп., 108В, Санкт-Петербург",59.932610015353,30.35771002544
477,"VFS Global, сервисно-визовый центр","ул. Восстания, 7, Санкт-Петербург, подъезд 1",59.933079988665,30.360530032944
478,Evisa Travel,"ул. Истикбол, 14, Ташкент, BLS International Tashkent, магазин Zara",39.89688,37.75796
479,Восточный Дракон,"Сибирская ул., 57, Новосибирск",55.038089982717,82.913569958375
480,Сервисно-визовый центр,"Ставропольская ул., 176, Краснодар, офис 16, этаж 1",45.019719998827,39.009030032442
481,Визовый центр,"наб. Северной Двины, 55, Архангельск, блок В, этаж 6, комната 605",64.530939992764,40.527529977508
482,ОдинМир,"просп. Гагарина, 50, корп. 9, Нижний Новгород, этаж 1, офис 102",56.290710007907,43.982799995683
483,Сервисно-визовый центр Хорватии,"ул. Кузнецкий Мост, 21/5, Москва, 2), офис 650",55.762649982126,37.626729979006
484,Viza,"ул. 60 лет Октября, 80А, Нижневартовск, ТЦ Мандарин, офис 421",60.92287,76.59573
485,Визовый центр,"ул. Куйбышева, 44, Екатеринбург, этаж 1",56.827590017034,60.616070023093
486,Visateka,"ул. Ленина, 9, Минск, подъезд 2",53.900159999682,27.560259982739
487,Международный центр въездного туризма,"просп. Дмитрия Яворницкого, 22, Днепр, БЦ Атріум",48.457940010567,35.060029958868
488,Визовый центр Испании,"ул. Володарского, 20, Оренбург, офис 509, этаж 5",54.675743343449,20.543270237171
489,Визовый центр Бельгии,"просп. Дмитрия Яворницкого, 22, Днепр, БЦ Атріум",48.457940010567,35.060029958868
490,Клуб Путешественников Вивас,"ул. Володарского, 20, Оренбург, офис 509, этаж 5",54.675743343449,20.543270237171
491,Визовый центр Италии,"Сумська вулиця, 37Б, Харків, офис 24",50.003509982491,36.233349971582
492,Visa Travel,"Спортивная площадь, 1А, Киев, 8 поверх, БЦ Гулівер",50.438640015404,30.522909960953
493,Canada Visa Application CenterAbidjan,"просп. Амира Темура, 88, Ташкент",54.721010003575,20.473639965278
494,Визовый центр Финляндии,"ул. Декабристов, 23, Красноярск, этаж цокольный",56.009630009536,92.845969988427
495,Визовый центр,"просп. Октября, 113, Уфа",54.786139989638,56.03359001504
496,Виза 96,"ул. Карла Либкнехта, 22, Екатеринбург, офис 305, этаж 3",56.840770014953,60.612400006788
497,VisaLand,"просп. Победы, 35, Тверь, 20, этаж 1",54.715749982146,20.467610024134
498,Визовый центр Чехии,"Бобруйская ул., 6, Минск, этаж 6",53.89021001006,27.554149994419
499,Виза-партнер,"просп. Мира, 75, стр. 1, Москва",54.71945,20.48748
500,Визовый центр Чехии,"ул. Степана Кувыкина, 19А, Уфа",54.702499995335,55.995829960329
501,Виза-партнер,"ул. Ленинская Слобода, 19, Москва",55.70841999059,37.653149989272
502,Центр визовой поддержки,"Чкаловский просп., 7, Санкт-Петербург, этаж 2",59.959400002826,30.289029968106
503,Визовый центр Чехии,"Кирилловская ул., 60, Киев",50.474069984851,30.495510022387
504,Vfs Global,"Советская ул., 18А, Ноябрьск",54.716662101576,20.590413130094
505,Единый Визовый центр,"Налесный пер., 4, стр. 4, Москва",55.778380006449,37.682610032001
506,ТВК групп,"ул. Большая Лубянка, 5, Москва, 2), подъезд 4, офис 650",55.762380001025,37.627790038301
507,Помощь в оформлении виз и загранпаспортов,"12, микрорайон Самал, Астана",51.153340004922,71.429289975869
508,Визовый центр Испании,"ул. Мира, 13, Юрга, этаж 1",54.773929987463,20.449249968142
509,Паспортно-визовый центр,"Гжельский пер., 13А, стр. 3, Москва",55.747855960677,37.678486425061
510,Визовый центр Таиланда,"Рижский просп., 60, Псков",57.814559996042,28.299179984396
511,Столичный Визовый центр,"12, микрорайон Самал, Астана",51.153340004922,71.429289975869
512,Первый Визовый центр,"ул. Мира, 13, Юрга, этаж 1",54.773929987463,20.449249968142
513,Российский визовый центр,"Гжельский пер., 13А, стр. 3, Москва",55.747855960677,37.678486425061
514,Visa4UK - британское визовое агентство,"Рижский просп., 60, Псков",57.814559996042,28.299179984396
515,Сервисно-визовый центр Бельгии,"ул. Рождественка, 5/7с1, Москва, 1А",55.7612175321,37.623468264901
516,Визовый центр,"Фролов пер., 1, Москва, подъезд 11, этаж 2, офис 206",54.70907,20.50928
517,Визовый центр,"Литейный просп., 26, Санкт-Петербург, офис 106 А",59.941900013919,30.348929981864
518,Арго-виза,"Джерельная ул., 18, Львов",49.847619994473,24.020800033594
519,Визовый центр Италии,"ул. Герцена, 6, Магнитогорск, БЦ Альфа-Центр, оф. 109",53.430090003382,58.972990018769
520,Визовый центр Канады,"ул. 8-й Воздушной Армии, 6А, Дзержинский район, район Семь Ветров, Волгоград, Вывеска ""Турагентство ""Шенген"", этаж цокольный",48.7457599811,44.5134599621
521,Единый визовый центр,"ул. Богдана Хмельницкого, 32, Шевченковский район, Киев, офис 1",50.446709986053,30.510770031489
522,VFS Tasheel International,"Бобруйская ул., 6, Минск, этаж 6",53.89021001006,27.554149994419
523,Визовый центр Private Visa,"ул. Академика Павлова, 64, Центральный внутригородской округ, микрорайон Дубинка, Краснодар",45.021340011163,39.005599990024
524,Объединенный визовый центр,"Селезнёвская ул., 11А, стр. 2, Москва, этаж 5, офис 501",55.780185599365,37.604397184735
525,Визовый центр Канады,"Кудринский пер., 3Б, стр. 2, Москва, этаж 2",55.758219004936,37.582453926111
526,Единый визовый центр,"Настасьинский пер., 1, Москва, 202",55.76682999533,37.602939958499
527,VFS Tasheel International,"Красноармейская ул., 5, Минск",53.901391269705,27.565106747786
528,Визовый центр Private Visa,"бул. Штефан чел Маре ши Сфынт, 131, Кишинёв",54.70907,20.50928
529,Объединенный визовый центр,"ул. Кузнецкий Мост, 19, стр. 1, Москва, этаж 1",55.76208001271,37.626039980737
530,Визовый сервис СтарВиза,"Садовая-Самотёчная ул., 13, стр. 1, Москва",55.77419001878,37.617969968178
531,VisaClick,"просп. Ленина, 245/2, Ростов-на-Дону, офис 7",47.24903999234,39.755020001789
532,Визовый центр Испании,"бул. Штефан чел Маре ши Сфынт, 131, Кишинёв",54.70907,20.50928
533,Компания VFS Global,"ул. Кузнецкий Мост, 19, стр. 1, Москва, этаж 1",55.76208001271,37.626039980737
534,Единый Визовый центр,"Садовая-Самотёчная ул., 13, стр. 1, Москва",55.77419001878,37.617969968178
535,Шенген,"просп. Ленина, 245/2, Ростов-на-Дону, офис 7",47.24903999234,39.755020001789
536,Визовый центр Info-Visa,"Садовая ул., 35, Санкт-Петербург",59.998629991896,30.137320035201
537,Визовый центр Норвегии,"Владимирская ул., 40/2, Киев, парадна 1, пов. 2",50.449698631481,30.514730616759
538,ТВК Групп,"Кирилловская ул., 60, Киев",50.474069984851,30.495510022387
539,Виза групп,"Пятницкая ул., 43, стр. 3, Москва, офис 5, этаж 1",55.73756207758,37.628226659889
540,Единый Визовый центр,"Настасьинский пер., 1, Москва, Ул. Сущёвская 19 стр.4",55.76682999533,37.602939958499
541,VFS Global China Visa Application Centre,"Капушанська вулиця, 92, Ужгород",48.614780003491,22.275759960653
542,Allvisa,"ул. Кузнецкий Мост, 21/5, Москва, 2), офис 650",55.762649982126,37.626729979006
543,Московский Визовый центр,"ул. Гоголя, 60, Уфа, офис 220",54.73208955316,20.521940831115
544,Beleurovisa,"Бухарестская ул., 78, Санкт-Петербург",59.869139981395,30.383369964726
545,Визовый центр Венгрии,"Глубочицкая ул., 16, Киев",50.460900003305,30.489040031326
546,Болгария Эксперт,"Невский просп., 30, Санкт-Петербург, этаж 4, офис 4.5",59.935570000641,30.327610024404
547,Русская Европа,"ул. Чернышевского, 82, Уфа, этаж 3, офис 301",54.72488001209,20.460950015327
548,Русвиза,"Зубовский бул., вл13с1, Москва, офис 24, комната 2, этаж 5",54.70907,20.50928
549,Единый Визовый центр,"إمارة دبي, ديره, بور سعيد, طريق آل مكتوم, 74",25.25706393695,55.333036934698
550,Визовый центр Венгрии,"ул. Земляной Вал, 27, стр. 2, Москва, подъезд 8",55.759039980247,37.658379961577
551,Болгария Эксперт,"Казанская ул., 1/25, Санкт-Петербург, офис 502B, этаж 5",59.93538999927,30.323580005357
552,Русская Европа,"Нижний Кисельный пер., 5/23с1, Москва, офис 214, этаж 2",55.765679998214,37.625790032384
553,Русвиза,"Сырковское ш., 2А, Великий Новгород",58.552720010538,31.266110013829
554,Единый Визовый центр,"9Г, Яккасарайский район, массив Башлык, Ташкент",56.31405,55.40758
555,Санкт-Петербургский центр Визирования,"Вокзальная магистраль, 16, Новосибирск, БЦ На Вокзальной, этаж 2, офис 202",55.03135998502,82.914200026036
556,Визовый центр Hot visa,"Зубовский бул., вл13с1, Москва, офис 24, комната 2, этаж 5",54.70907,20.50928
557,Визовый центр Посольства Федеративной Республики Германия,"إمارة دبي, ديره, بور سعيد, طريق آل مكتوم, 74",25.25706393695,55.333036934698
558,Визовый центр стран Азии,"ул. Земляной Вал, 27, стр. 2, Москва, подъезд 8",55.759039980247,37.658379961577
559,Первый визовый центр,"Казанская ул., 1/25, Санкт-Петербург, офис 502B, этаж 5",59.93538999927,30.323580005357
560,Визовый центр Польской Республики,"Нижний Кисельный пер., 5/23с1, Москва, офис 214, этаж 2",55.765679998214,37.625790032384
561,Визовый центр Франции,"Сырковское ш., 2А, Великий Новгород",58.552720010538,31.266110013829
562,Флагман,"9Г, Яккасарайский район, массив Башлык, Ташкент",56.31405,55.40758
563,Эксперт групп,"Вокзальная магистраль, 16, Новосибирск, БЦ На Вокзальной, этаж 2, офис 202",55.03135998502,82.914200026036
564,Визовый центр UKvisa,"ул. Октябрьской Революции, 7, Смоленск",54.776480013866,32.044439964017
565,Евротур,"Спортивная площадь, 1А, Киев, ТЦ Гулливер, этаж 8",50.438640015404,30.522909960953
566,VFS Global,"ул. Арбат, 54/2с6, Москва",55.746995351782,37.583241398541
567,Falcon company,"Большая Переяславская ул., 11, Москва, вход со двора",55.784429980342,37.640969994311
568,Pioneer Migration,"просп. Циолковского, 19, Дзержинск",56.234070009661,43.445780008773
569,Планета-Тур,"наб. Александра Невского, 22/2, Торговая сторона, Великий Новгород",58.521379990746,31.28400001269
570,Визовый центр Италии,"Пушкинская ул., 5, Мурманск",68.970389989657,33.082349995655
571,Визовый центр Оргвиза,"Мельницкий пер., 1, Москва, офис 316",55.753860005994,37.658350038183
572,Визовый центр,"ул. Кузнецкий Мост, 21/5, Москва, 2), этаж 2, офис 650",55.762649982126,37.626729979006
573,Voyage deluxe,"ул. Рыленкова, 40, Смоленск",54.75887001248,32.10220996854
574,"Visa Travels, многопрофильный визовый центр","Малый Кисловский пер., 9, стр. 1, Москва",55.756329985222,37.602109982447
575,Falcon company,"Новинский бул., 11, Москва, офис 111",55.7534500052,37.582070025421
576,Pioneer Migration,"Милютинский пер., 18А, Москва, офис 19В",55.764670020791,37.633010036141
577,Планета-Тур,"Межевая ул., 21, Всеволожск, офис 15",60.024299989466,30.63483996812
578,Визовый центр Италии,"Бобруйская ул., 6, Минск, этаж 6",53.89021001006,27.554149994419
579,Визовый центр Оргвиза,"Державинская ул., 4, Тамбов",52.724651049274,41.454136626469
580,Визовый центр,"Малый Кисловский пер., 9, стр. 1, Москва",55.756329985222,37.602109982447
581,Voyage deluxe,"Новинский бул., 11, Москва, офис 111",55.7534500052,37.582070025421
582,"Visa Travels, многопрофильный визовый центр","Милютинский пер., 18А, Москва, офис 19В",55.764670020791,37.633010036141
583,Визовый Центр,"Межевая ул., 21, Всеволожск, офис 15",60.024299989466,30.63483996812
584,Визовый центр посольства Греции,"Бобруйская ул., 6, Минск, этаж 6",53.89021001006,27.554149994419
585,Sa visa,"Державинская ул., 4, Тамбов",52.724651049274,41.454136626469
586,Многофункциональный визовый центр,"Шлюзовая наб., 2А, Москва, подъезд 1, этаж 2",55.730919994289,37.644029975703
587,Визовый центр,"просп. Независимости, 58, Минск, офис 412, этаж 4",53.918617668751,27.590334846902
588,Pony Express,"Воронцовская ул., 20, Москва, подъезд 2, этаж 3",55.737230016728,37.657489971098
589,Магазин Виз,"Раковская ул., 12, Минск, офис 104-106, этаж 1",53.904700015627,27.549889975949
590,Лондон Виза,"ул. Маросейка, 7/8, Москва, оф. 206",55.757490547988,37.632809970141
591,Визовый центр,"ул. Пид Дубом, 7Б, Львов, 2 поверх, ТРЦ Форум Львів",49.84441,24.02543
592,Сервисно-визовый центр Vfs Global,"1, 27 Street Port Saeed, Deira, Dubai, Office 111",25.254244364987,55.334815019877
593,Шенген,"1-й Тверской-Ямской пер., 18, Москва",55.773570009402,37.599249993264
594,Загранпаспорт срочно,"ул. 50 лет Города, 6А, Киселёвск",54.001910017804,86.555660025475
595,Американский визовый центр,"Гимназическая наб., 18А, Харьков, этаж 2, офис 205",49.983560005195,36.239430036507
596,Визовый центр - центр туризма,"ул. Бакулина, 4А, Шевченковский район, Харьков, офис 22, этаж 2",50.016246345473,36.325257447527
597,Визовый центр Греции в Минске,"Пролетарская ул., 82, Калининград, офис 3, этаж 2",54.719439989291,20.514099998639
598,Тамбовский Визовый центр,"Бобруйская ул., 6, Минск, этаж 6",53.89021001006,27.554149994419
599,Паспортно-визовый сервис,"Канавинская ул., 2А, Нижний Новгород, офис 705, этаж 7",56.322389997692,43.950980028115
600,Шенген,"ул. Скосырева, 5, Волгоград, офис 23, этаж 1",48.71002998143,44.495959973194
601,Загранпаспорт срочно,"ул. Достык, 18, Астана, этаж 5",51.124669998477,71.434590020885
602,Американский визовый центр,"Большой просп. Петроградской стороны, 100, Санкт-Петербург, БЦ Большой 100",59.96667,30.3
603,Визовый центр - центр туризма,"Бобруйская ул., 6, Минск, этаж 6",53.89021001006,27.554149994419
604,Визовый центр Греции в Минске,"Канавинская ул., 2А, Нижний Новгород, офис 705, этаж 7",56.322389997692,43.950980028115
605,Тамбовский Визовый центр,"ул. Скосырева, 5, Волгоград, офис 23, этаж 1",48.71002998143,44.495959973194
606,Паспортно-визовый сервис,"ул. Достык, 18, Астана, этаж 5",51.124669998477,71.434590020885
607,Американ Фокс,"Большой просп. Петроградской стороны, 100, Санкт-Петербург, БЦ Большой 100",59.96667,30.3
608,Viza5.by,"просп. Гагарина, 2, Смоленск",54.716120001262,20.590470033041
609,Api group of companies,"Московская ул., 5Б, Назрань, эт. 2, оф. 211",43.223789997037,44.76656996867
610,Visa-russian.ru,"Тверская ул., 18, корп. 1, Москва, 625), офис 629",54.704860003993,20.577180022643
611,Go Global,"Рабочая ул., 64А, Херсон",46.643565663253,32.594085085569
612,Визовый центр,"Глубочицкая ул., 4, Киев",50.4602199795,30.487189977657
613,Визовый центр Чехии,"ул. Ленина, 6, Рязань, офис 7, этаж 2",54.622890020079,39.755099965145
614,Gateway Visa Solution,"Страстной бул., 11, Москва, этаж 1",55.767459293422,37.609598085064
615,Канадский центр виз и иммиграции,"ул. Льва Толстого, 99, Благодарный",45.098920015199,43.438790004439
616,Единый визовый центр,"Малый Афанасьевский пер., 14/34с1, Москва",55.750740517591,37.598129975882
617,Сервисвиза,"просп. Независимости, 177, Минск, секция 2, офис 18, этаж 5",53.945869996187,27.682759988905
618,Визовый центр Вокруг Света,"ул. Батырая, 11, Махачкала, офис 324",42.979249983551,47.498519964283
619,Тропиканка,"Ленинградская ул., 23, Чебоксары",54.734430017292,20.524300020432
620,Визовый центр Австрии,"ул. Щепкина, 28, Москва, этаж 4",54.670180005333,20.441469969433
621,Магазин виз,"21, 9-й квартал, Ангрен",54.73110538001,20.329712595957
622,Паспортно-визовый центр,"ул. Урицкого, 24, Рязань",54.723255408281,20.361303790027
623,Tls contact,"просп. Дмитрия Яворницкого, 22, Днепр, 2-й пов, БЦ Атріум",48.457940010567,35.060029958868
624,Абориген,"Каменноостровский просп., 21, Санкт-Петербург, этаж 2",59.962350013648,30.316459997704
625,Визовый центр Австрии,"Бусловская ул., 17, Киев",50.408579996046,30.557020032106
626,Магазин виз,"ул. Щепкина, 28, Москва, этаж 4",54.670180005333,20.441469969433
627,Паспортно-визовый центр,"21, 9-й квартал, Ангрен",54.73110538001,20.329712595957
628,Tls contact,"ул. Урицкого, 24, Рязань",54.723255408281,20.361303790027
629,Абориген,"просп. Дмитрия Яворницкого, 22, Днепр, 2-й пов, БЦ Атріум",48.457940010567,35.060029958868
630,Визовый центр Испании,"Каменноостровский просп., 21, Санкт-Петербург, этаж 2",59.962350013648,30.316459997704
631,Первый визовый центр Назрань,"Бусловская ул., 17, Киев",50.408579996046,30.557020032106
632,Аркада,"Марксистская ул., 5, Москва, этаж 2",55.737250007567,37.66375996995
633,Американский визовый центр,"Торжковская ул., 5, Санкт-Петербург",59.987849984312,30.308859958457
634,Визовый центр посольства Великобритании в Украине,"площадь Рынок, 14, Ивано-Франковск",48.921836828283,24.710389968057
635,Евро-Азия,"Цветной бул., 34, Москва, этаж 4, офис 410",55.7732453419,37.621776440253
636,Citivisa,"Орловская ул., 40А, Минск, офис 15, этаж 4",53.932670007428,27.555060017647
637,Visa Assistance Maroc,"Бобруйская ул., 6, Минск, этаж 6",53.89021001006,27.554149994419
638,Паспортно-визовый сервис,"ул. Красного Текстильщика, 10-12Д, Санкт-Петербург, этаж 1",59.941629990908,30.395620032398
639,Консульский отдел посольства Туркменистана,"ул. Восстания, 9, Санкт-Петербург, этаж 1, помещение 9Н",59.933400009728,30.360410004091
640,Homo Touristus,"Октябрьская ул., 59, Невинномысск",44.618189998259,41.952099968657
641,Лингво центр,"Спортивная площадь, 1А, Киев, ТЦ Гулівер",50.438640015404,30.522909960953
642,Первый визовый центр,"Большая Санкт-Петербургская ул., 39, стр. 18, Великий Новгород",58.539009982971,31.263350020751
643,АГлобус,"ул. Дзорапа, 48, Ереван",54.70907,20.50928
644,Первый визовой центр,"Бобруйская ул., 6, Минск, этаж 6",53.89021001006,27.554149994419
645,Визовый центр Болгарии,"Невский просп., 104, Санкт-Петербург, БЦ Tempo, офис 218",59.93166,30.35639
646,Первый визовый центр,"площадь Свободы, 23, Минск, этаж 2, офис 29",53.903449980497,27.55752002241
647,Визовый центр Посольстава Германии,"Глубочицкая ул., 4, Киев",50.4602199795,30.487189977657
648,Городской визовый центр и центр путешествий,"Варварская ул., 33, Нижний Новгород",56.319569990188,44.013989979408
649,Посольство Литовской Республики,"Спортивная площадь, 1А, Киев, ТЦ Гулівер",50.438640015404,30.522909960953
650,АГлобус,"Большая Санкт-Петербургская ул., 39, стр. 18, Великий Новгород",58.539009982971,31.263350020751
651,Первый визовой центр,"ул. Дзорапа, 48, Ереван",54.70907,20.50928
652,Визовый центр Болгарии,"Бобруйская ул., 6, Минск, этаж 6",53.89021001006,27.554149994419
653,Первый визовый центр,"Невский просп., 104, Санкт-Петербург, БЦ Tempo, офис 218",59.93166,30.35639
654,Визовый центр Посольстава Германии,"площадь Свободы, 23, Минск, этаж 2, офис 29",53.903449980497,27.55752002241
655,Городской визовый центр и центр путешествий,"просп. Героев Сталинграда, 45, Харьков",49.944610013601,36.279620004948
656,Посольство Литовской Республики,"Глубочицкая ул., 4, Киев",50.4602199795,30.487189977657
657,Каролина тур,"Варварская ул., 33, Нижний Новгород",56.319569990188,44.013989979408
658,Визовый Экспресс,"Делегатская ул., 4, Пятигорск",44.041769995374,43.011070034937
659,Визовый центр Чехии,"Большая Нижегородская ул., 88Б, Владимир, этаж 1",56.14617954813,40.451185449014
660,Единый визовый центр,"Большая Васильковская ул., 111/113, Киев, офис 3",50.419420018056,30.522009996009
661,Визовый центр,"бул. Леси Украинки, 26, Киев",50.426849988488,30.538680008863
662,Визовый центр Эстонии,"ул. Щипок, 2, Москва",55.726669992193,37.628829981028
663,Единый центр документов,"ул. Будённого, 48А, Гродно, офис 3, этаж 1",53.684120007644,23.844860030266
664,Атолл,"Рижский просп., 26, Псков, этаж 4",57.817069998857,28.308720015133
665,Паспортно-визовый сервис,"Казарменный пер., 6, стр. 1, Москва, этаж 3, офис 6",55.756609982698,37.650610021153
666,Визовый центр Посольства Финляндии,"Кожевническая ул., 7, стр. 1, Москва, этаж 4, офис 614",55.729796905101,37.644938068545
667,Волна,"ул. Кропоткина, 1И, Санкт-Петербург",59.959146448955,30.311385456078
668,Визовые центры иностранных государств,"Чкаловский просп., 7, Санкт-Петербург, сек. 200, этаж 2",59.959400002826,30.289029968106
669,Визовый центр Финляндии,"ул. Чернышевского, 82, Уфа, офис 321, этаж 3",54.72488001209,20.460950015327
670,Евротур,"ул. Куйбышева, 44Д, Екатеринбург, БО Панорама, этаж 2",56.828498911324,60.616496336185
671,Тут-Трэвел,"Лучников пер., 4, стр. 2, Москва, этаж 2, офис 29",55.758539999723,37.631559966892
672,Centre dé Demande dé Visa,"Рижский просп., 26, Псков, этаж 4",57.817069998857,28.308720015133
673,Визовый центр Швейцарии TLScontact,"Казарменный пер., 6, стр. 1, Москва, этаж 3, офис 6",55.756609982698,37.650610021153
674,Визы и отдых,"Кожевническая ул., 7, стр. 1, Москва, этаж 4, офис 614",55.729796905101,37.644938068545
675,Визовый центр Посольства Финляндии,"ул. Кропоткина, 1И, Санкт-Петербург",59.959146448955,30.311385456078
676,Волна,"Чкаловский просп., 7, Санкт-Петербург, сек. 200, этаж 2",59.959400002826,30.289029968106
677,Визовые центры иностранных государств,"ул. Чернышевского, 82, Уфа, офис 321, этаж 3",54.72488001209,20.460950015327
678,Визовый центр Финляндии,"ул. Куйбышева, 44Д, Екатеринбург, БО Панорама, этаж 2",56.828498911324,60.616496336185
679,Евротур,"Лучников пер., 4, стр. 2, Москва, этаж 2, офис 29",55.758539999723,37.631559966892
680,Тут-Трэвел,"Чкаловский просп., 7, Санкт-Петербург, сек. 200, этаж 2",59.959400002826,30.289029968106
681,Центр визовой поддержки и трудоустройство Raido,"1-й Люсиновский пер., 3Б, Москва, БЦ Доходный дом Шервуд, офис 516",55.727559982672,37.621649958948
682,Centre dé Demande dé Visa,"ул. Ромашина, 2А, Брянск",53.216020010047,34.658290033535
683,Визовый центр Швейцарии TLScontact,"Неглинная ул., 17, стр. 2, Москва",54.717300005591,20.590849984712
684,Визы и отдых,"просп. Ленина, 109/3, Ростов-на-Дону",47.247770008281,39.719839980695
685,Паспортно-визовый сервис,"ул. Луначарского, 131, Пермь, подъезд 4, этаж 1",58.002419987695,56.214309966291
686,Центр Документов,"Спортивная площадь, 1А, Киев, ТРЦ Гулливер, этаж 8",50.438640015404,30.522909960953
687,Визовый Центр,"ул. Антоновича, 164, Киев",50.415719994537,30.520859998893
688,Визовый центр,"ул. Свободы, 69А, Воронеж, офис 500/3, этаж 5",51.765062598057,33.464328089183
689,Фаворит Консалтинг,"Невский просп., 71/1, Санкт-Петербург",59.931530007129,30.354920025149
690,АкацияТрэвел,"ул. Большая Полянка, 42, стр. 1, Москва, 106",55.733104465792,37.619457076135
691,Визовый центр Эстонии,"Степной пер., 8, Промышленный район, микрорайон № 26, Ставрополь",45.026720019536,41.942049982931
692,Визовый центр,"Советская ул., 31/21, Серпухов",54.716530296364,20.590814791019
693,Арт-Вояж,"Захарьевская ул., 25, Санкт-Петербург, офис 404, Z-25, этаж 4",59.947569994231,30.358820040877
694,Visa2Day,"Круглоуниверситетская ул., 3/5, Киев",50.443279985545,30.522790015919
695,Визовый центр Нидерландов,"Спортивная площадь, 1А, Киев, ТРЦ Гулливер, этаж 8",50.438640015404,30.522909960953
696,Capago International,"ул. Антоновича, 164, Киев",50.415719994537,30.520859998893
697,Странотека,"ул. Свободы, 69А, Воронеж, офис 500/3, этаж 5",51.765062598057,33.464328089183
698,Визовый центр Чехии,"Невский просп., 71/1, Санкт-Петербург",59.931530007129,30.354920025149
699,Amellie,"ул. Большая Полянка, 42, стр. 1, Москва, 106",55.733104465792,37.619457076135
700,Визовый центр Эстонии,"Степной пер., 8, Промышленный район, микрорайон № 26, Ставрополь",45.026720019536,41.942049982931
701,Визовый центр,"Советская ул., 31/21, Серпухов",54.716530296364,20.590814791019
702,Арт-Вояж,"Захарьевская ул., 25, Санкт-Петербург, офис 404, Z-25, этаж 4",59.947569994231,30.358820040877
703,Visa2Day,"Круглоуниверситетская ул., 3/5, Киев",50.443279985545,30.522790015919
704,Визовый центр Нидерландов,"ул. Земляной Вал, 59, стр. 2, Москва, этаж 6",55.749039992573,37.65734001885
705,Capago International,"Лиговский просп., 92Д, Санкт-Петербург, этаж 5",59.920270009861,30.356730013321
706,Странотека,"ул. Карла Маркса, 52/1, Чебоксары",54.726581258288,20.474870574237
707,Визовый центр Чехии,"إمارة دبي, ديره, بور سعيد, شارع 30, 35",25.251929990599,55.335330038953
708,Amellie,"ул. Мельникайте, 105, Тюмень",57.136859990254,65.568990002186
709,Сервисно-визовый центр Болгарии,"Казанская ул., 1/25, Санкт-Петербург",59.93538999927,30.323580005357
710,Якет klavdy.ru,"просп. Энгельса, 124, корп. 1, Санкт-Петербург",60.040239980463,30.324330018053
711,Visup,"Малый Козловский пер., 12/9, Москва",55.764339983354,37.648849989124
712,VisaVezde,"Варшавское ш., вл132/2, Москва, этаж 2, павильон 25.2",55.699520001979,37.621879958372
713,Эпико,"ул. Краснолесья, 14, корп. 5, Екатеринбург",56.779830016559,60.548859983938
714,Первый пермский визовый центр,"Баррикадная ул., 1, Днепр",48.462350741937,35.051609394588
715,Визовый центр посольства Литвы,"просп. Карла Маркса, 198, Магнитогорск",53.366670009385,58.977150041134
716,Визовый центр Польская виза,"ул. Улофа Пальме, 4, Москва",55.718620012383,37.514150039067
717,Tlscontact Centre de Visa,"6-й пр. Мироншаха, 47, Мирабадский район, Ташкент",56.31405,55.40758
718,Паспортно-визовый центр,"Круглоуниверситетская ул., 3/5, Киев",50.443279985545,30.522790015919
719,Питертоп,"ул. Земляной Вал, 59, стр. 2, Москва, этаж 6",55.749039992573,37.65734001885
720,Пронто-Виза,"Лиговский просп., 92Д, Санкт-Петербург, этаж 5",59.920270009861,30.356730013321
721,Паспортно-визовый сервис,"ул. Карла Маркса, 52/1, Чебоксары",54.726581258288,20.474870574237
722,Визовый центр,"إمارة دبي, ديره, بور سعيد, شارع 30, 35",25.251929990599,55.335330038953
723,Испалайф,"ул. Мельникайте, 105, Тюмень",57.136859990254,65.568990002186
724,Визовый центр Италии Vms,"Казанская ул., 1/25, Санкт-Петербург",59.93538999927,30.323580005357
725,Визовый центр посольства Литвы,"просп. Энгельса, 124, корп. 1, Санкт-Петербург",60.040239980463,30.324330018053
726,Визовый центр Польская виза,"Малый Козловский пер., 12/9, Москва",55.764339983354,37.648849989124
727,Tlscontact Centre de Visa,"Варшавское ш., вл132/2, Москва, этаж 2, павильон 25.2",55.699520001979,37.621879958372
728,Паспортно-визовый центр,"ул. Краснолесья, 14, корп. 5, Екатеринбург",56.779830016559,60.548859983938
729,Питертоп,"Баррикадная ул., 1, Днепр",48.462350741937,35.051609394588
730,Пронто-Виза,"просп. Карла Маркса, 198, Магнитогорск",53.366670009385,58.977150041134
731,Паспортно-визовый сервис,"ул. Улофа Пальме, 4, Москва",55.718620012383,37.514150039067
732,Визовый центр,"6-й пр. Мироншаха, 47, Мирабадский район, Ташкент",56.31405,55.40758
733,Испалайф,"ул. Героев Труда, 14, Харьков, пов 1, ТЦ Joker",50.024939994339,36.33044996128
734,Визовый центр Италии Vms,"1-я Брестская ул., 35, Москва, офис 301",55.773110010556,37.588259977097
735,Объединенный визовый центр,"1-я Брестская ул., 35, Москва, офис 301",55.773110010556,37.588259977097
736,Просто,"ул. Саксаганского, 28, Киев",50.436219992319,30.512729971908
737,Визово-туристический центр,"Ставропольская ул., 118, микрорайон Черёмушки, Краснодар",45.019529981082,39.000869998243
738,Sweetescape,"Большой Каретный пер., 22, стр. 1, Москва, этаж 2, офис 9",55.772377096472,37.616261098114
739,Загран-Центр,"Малый Козловский пер., 12/9, Москва",55.764339983354,37.648849989124
740,Виза менеджмент сервис,"Варшавское ш., вл132/2, Москва, этаж 2, павильон 25.2",55.699520001979,37.621879958372
741,Единый центр документов,"ул. Краснолесья, 14, корп. 5, Екатеринбург",56.779830016559,60.548859983938
742,Изобилие,"Баррикадная ул., 1, Днепр",48.462350741937,35.051609394588
743,НТА Тревел,"просп. Карла Маркса, 198, Магнитогорск",53.366670009385,58.977150041134
744,Грандмессе,"ул. Улофа Пальме, 4, Москва",55.718620012383,37.514150039067
745,Визовый центр Италии,"6-й пр. Мироншаха, 47, Мирабадский район, Ташкент",56.31405,55.40758
746,Магнитогорский визовый центр,"ул. Героев Труда, 14, Харьков, пов 1, ТЦ Joker",50.024939994339,36.33044996128
747,Canada Visa Connection,"1-я Брестская ул., 35, Москва, офис 301",55.773110010556,37.588259977097
748,Посольство Объединенных Арабских Эмиратов,"1-я Брестская ул., 35, Москва, офис 301",55.773110010556,37.588259977097
749,Grand Consult Service,"ул. Саксаганского, 28, Киев",50.436219992319,30.512729971908
750,Визовый центр Италии Vms,"Ставропольская ул., 118, микрорайон Черёмушки, Краснодар",45.019529981082,39.000869998243
751,Объединенный визовый центр,"Большой Каретный пер., 22, стр. 1, Москва, этаж 2, офис 9",55.772377096472,37.616261098114
752,Просто,"Киевская ул., 77, Житомир",50.266169994262,28.686430029891
753,Визово-туристический центр,"ул. Комарова, 24, Абакан, этаж цокольный",53.744350016929,91.439829958342
754,Sweetescape,"Пушкінська вулиця, 77, Одеса",46.47066000219,30.741340010772
755,Загран-Центр,"ул. Шарафа Рашидова, 20А, Ташкент",56.31405,55.40758
756,Виза менеджмент сервис,"Дмитрівська вулиця, 56А, Шевченківський район, Київ",50.452130018013,30.490049966839
757,Единый центр документов,"ул. Улофа Пальме, 4, Москва",55.718620012383,37.514150039067
758,Изобилие,"6-й пр. Мироншаха, 47, Мирабадский район, Ташкент",56.31405,55.40758
759,НТА Тревел,"ул. Льва Толстого, 6А, Киев",50.360168342656,30.678578227906
760,Грандмессе,"ул. Героев Труда, 14, Харьков, пов 1, ТЦ Joker",50.024939994339,36.33044996128
761,Визовый центр Италии,"Красная ул., 20, село Донское",54.722869989799,20.475120041741
762,Магнитогорский визовый центр,"1-я Брестская ул., 35, Москва, офис 301",55.773110010556,37.588259977097
763,Canada Visa Connection,"1-я Брестская ул., 35, Москва, офис 301",55.773110010556,37.588259977097
764,Посольство Объединенных Арабских Эмиратов,"ул. Саксаганского, 28, Киев",50.436219992319,30.512729971908
765,Grand Consult Service,"Ставропольская ул., 118, микрорайон Черёмушки, Краснодар",45.019529981082,39.000869998243
766,Визовый центр Finexpert,"Большой Каретный пер., 22, стр. 1, Москва, этаж 2, офис 9",55.772377096472,37.616261098114
767,VFS Global Visa Application Center,"Киевская ул., 77, Житомир",50.266169994262,28.686430029891
768,Centre Commun dé Demande dé Visa,"ул. Комарова, 24, Абакан, этаж цокольный",53.744350016929,91.439829958342
769,Единый Визовый центр,"Пушкінська вулиця, 77, Одеса",46.47066000219,30.741340010772
770,South Africa Visa,"ул. Шарафа Рашидова, 20А, Ташкент",56.31405,55.40758
771,Единый Визовый центр,"Дмитрівська вулиця, 56А, Шевченківський район, Київ",50.452130018013,30.490049966839
772,Визовый центр One2dream,"Неманская ул., 3, Киев, під`їзд 1, офис 2",50.417110007451,30.545500028201
773,Визовый центр,"ул. Нисора Мухаммада, 57/46, Душанбе",38.53575,68.77905
774,Руссо Туристо,"1-я Брестская ул., 35, Москва, офис 301",55.773110010556,37.588259977097
775,Изобилие,"1-я Брестская ул., 35, Москва, офис 301",55.773110010556,37.588259977097
776,НТА Тревел,"ул. Саксаганского, 28, Киев",50.436219992319,30.512729971908
777,Грандмессе,"Ставропольская ул., 118, микрорайон Черёмушки, Краснодар",45.019529981082,39.000869998243
778,Визовый центр Италии,"Большой Каретный пер., 22, стр. 1, Москва, этаж 2, офис 9",55.772377096472,37.616261098114
779,Магнитогорский визовый центр,"Киевская ул., 77, Житомир",50.266169994262,28.686430029891
780,Canada Visa Connection,"ул. Комарова, 24, Абакан, этаж цокольный",53.744350016929,91.439829958342
781,Посольство Объединенных Арабских Эмиратов,"Пушкінська вулиця, 77, Одеса",46.47066000219,30.741340010772
782,Grand Consult Service,"ул. Шарафа Рашидова, 20А, Ташкент",56.31405,55.40758
783,Визовый центр Finexpert,"Дмитрівська вулиця, 56А, Шевченківський район, Київ",50.452130018013,30.490049966839
784,VFS Global Visa Application Center,"Неманская ул., 3, Киев, під`їзд 1, офис 2",50.417110007451,30.545500028201
785,Centre Commun dé Demande dé Visa,"ул. Нисора Мухаммада, 57/46, Душанбе",38.53575,68.77905
786,Единый Визовый центр,"Туркестанская ул., 161, Оренбург, этаж 1, офис 2",51.7770699839,55.14400999767
787,South Africa Visa,"Парковая ул., 8Б, Усинск, этаж 2",54.649600660288,20.339368059844
788,Единый Визовый центр,"Клочков пер., 10, Санкт-Петербург",59.920810013973,30.463069961622
789,Визовый центр One2dream,"ул. Саксаганского, 28, Киев",50.436219992319,30.512729971908
790,Визовый центр,"Ставропольская ул., 118, микрорайон Черёмушки, Краснодар",45.019529981082,39.000869998243
791,Руссо Туристо,"Большой Каретный пер., 22, стр. 1, Москва, этаж 2, офис 9",55.772377096472,37.616261098114
792,Визовый центр Европа Плюс,"Киевская ул., 77, Житомир",50.266169994262,28.686430029891
793,Vfs Global,"ул. Комарова, 24, Абакан, этаж цокольный",53.744350016929,91.439829958342
794,Tout Service,"Пушкінська вулиця, 77, Одеса",46.47066000219,30.741340010772
795,Визовый центр,"ул. Шарафа Рашидова, 20А, Ташкент",56.31405,55.40758
796,Global Visa Traduction,"Дмитрівська вулиця, 56А, Шевченківський район, Київ",50.452130018013,30.490049966839
797,Визовый центр Италии Vms,"Красная ул., 197, село Красногвардейское",45.836330016999,41.512360014726
798,Визовый центр королевства Таиланд,"Неманская ул., 3, Киев, під`їзд 1, офис 2",50.417110007451,30.545500028201
799,Визовый центр Материк,"ул. Нисора Мухаммада, 57/46, Душанбе",38.53575,68.77905
800,Посольство Объединенных Арабских Эмиратов,"Туркестанская ул., 161, Оренбург, этаж 1, офис 2",51.7770699839,55.14400999767
801,Grand Consult Service,"Парковая ул., 8Б, Усинск, этаж 2",54.649600660288,20.339368059844
802,Визовый сервис,"Клочков пер., 10, Санкт-Петербург",59.920810013973,30.463069961622
803,Визовый центр Finexpert,"Рижский просп., 60, Псков",57.814559996042,28.299179984396
804,Паспортно-визовый сервис,"Киевская ул., 77, Житомир",50.266169994262,28.686430029891
805,VFS Global Visa Application Center,"ул. Комарова, 24, Абакан, этаж цокольный",53.744350016929,91.439829958342
806,Centre Commun dé Demande dé Visa,"Пушкінська вулиця, 77, Одеса",46.47066000219,30.741340010772
807,Единый Визовый центр,"ул. Шарафа Рашидова, 20А, Ташкент",56.31405,55.40758
808,South Africa Visa,"Самсун, Илькадым, улица Саадет, 117",54.70907,20.50928
809,Единый Визовый центр,"Дмитрівська вулиця, 56А, Шевченківський район, Київ",50.452130018013,30.490049966839
810,Визовый центр One2dream,"Красная ул., 197, село Красногвардейское",45.836330016999,41.512360014726
811,Визовый центр,"Неманская ул., 3, Киев, під`їзд 1, офис 2",50.417110007451,30.545500028201
812,Руссо Туристо,"ул. Нисора Мухаммада, 57/46, Душанбе",38.53575,68.77905
813,Centre Ukrainien Alger,"Туркестанская ул., 161, Оренбург, этаж 1, офис 2",51.7770699839,55.14400999767
814,Визовый центр Европа Плюс,"Парковая ул., 8Б, Усинск, этаж 2",54.649600660288,20.339368059844
815,Vfs Global,"Клочков пер., 10, Санкт-Петербург",59.920810013973,30.463069961622
816,Tout Service,"Рижский просп., 60, Псков",57.814559996042,28.299179984396
817,Визовый центр,"Гімназійна набережна, 18А, Харків",49.983560005195,36.239430036507
818,Global Visa Traduction,"просп. Дмитрия Яворницкого, 22, Днепр, пов. 2, БЦ Атріум",48.457940010567,35.060029958868
819,Визовый центр Италии Vms,"ул. Байзакова, 303, Алматы",43.230009997836,76.914809996688
820,Visa Services,"Пушкінська вулиця, 77, Одеса",46.47066000219,30.741340010772
821,Визовый центр королевства Таиланд,"ул. Шарафа Рашидова, 20А, Ташкент",56.31405,55.40758
822,Визовый центр Материк,"ул. Михаил Когэлничану, 62, Кишинёв",54.70907,20.50928
823,Служба визовой поддержки,"Самсун, Илькадым, улица Саадет, 117",54.70907,20.50928
824,Визовый центр,"Дмитрівська вулиця, 56А, Шевченківський район, Київ",50.452130018013,30.490049966839
825,VFS Global Visa Application Center,"Красная ул., 197, село Красногвардейское",45.836330016999,41.512360014726
826,Centre Commun dé Demande dé Visa,"Неманская ул., 3, Киев, під`їзд 1, офис 2",50.417110007451,30.545500028201
827,Единый Визовый центр,"ул. Нисора Мухаммада, 57/46, Душанбе",38.53575,68.77905
828,South Africa Visa,"Туркестанская ул., 161, Оренбург, этаж 1, офис 2",51.7770699839,55.14400999767
829,Единый Визовый центр,"Парковая ул., 8Б, Усинск, этаж 2",54.649600660288,20.339368059844
830,Визовый центр One2dream,"Клочков пер., 10, Санкт-Петербург",59.920810013973,30.463069961622
831,Визовый центр,"Большая Васильковская ул., 9/2, Киев, під. 7, офис 81",50.440452472341,30.519400238291
832,Руссо Туристо,"Рижский просп., 60, Псков",57.814559996042,28.299179984396
833,Centre Ukrainien Alger,"Гімназійна набережна, 18А, Харків",49.983560005195,36.239430036507
834,Визовый центр Европа Плюс,"просп. Дмитрия Яворницкого, 22, Днепр, пов. 2, БЦ Атріум",48.457940010567,35.060029958868
835,Vfs Global,"ул. Байзакова, 303, Алматы",43.230009997836,76.914809996688
836,Tout Service,"Самсун, Илькадым, улица Саадет, 117",54.70907,20.50928
837,Визовый центр,"Дмитрівська вулиця, 56А, Шевченківський район, Київ",50.452130018013,30.490049966839
838,Global Visa Traduction,"Красная ул., 197, село Красногвардейское",45.836330016999,41.512360014726
839,Визовый центр Италии Vms,"Неманская ул., 3, Киев, під`їзд 1, офис 2",50.417110007451,30.545500028201
840,Visa Services,"ул. Нисора Мухаммада, 57/46, Душанбе",38.53575,68.77905
841,Визовый центр королевства Таиланд,"Туркестанская ул., 161, Оренбург, этаж 1, офис 2",51.7770699839,55.14400999767
842,Визовый центр Материк,"просп. Соборности, 15, Киев",50.438070004079,30.614809985559
843,Служба визовой поддержки,"Парковая ул., 8Б, Усинск, этаж 2",54.649600660288,20.339368059844
844,Визовый центр,"Клочков пер., 10, Санкт-Петербург",59.920810013973,30.463069961622
845,Статус,"Большая Васильковская ул., 9/2, Киев, під. 7, офис 81",50.440452472341,30.519400238291
846,Turkish Visas Abidjan,"Рижский просп., 60, Псков",57.814559996042,28.299179984396
847,Первый визовый центр,"Гімназійна набережна, 18А, Харків",49.983560005195,36.239430036507
848,Эксперт,"просп. Дмитрия Яворницкого, 22, Днепр, пов. 2, БЦ Атріум",48.457940010567,35.060029958868
849,VFS Global Centro de pedidos de Visto da Bélgica,"ул. Байзакова, 303, Алматы",43.230009997836,76.914809996688
850,Bornpower GmbH,"ул. Симона Петлюры, 13/135, Киев, офис 24",50.443359990811,30.496720033929
851,Визовый центр One2dream,"ул. Ворошилова, 126А, Серпухов, офис 316",54.919730008077,37.433170041737
852,Визовый центр,"вулиця Героїв Майдану, 31, Чернівці",48.281640004498,25.932500001943
853,Руссо Туристо,"Клочков пер., 10, Санкт-Петербург",59.920810013973,30.463069961622
854,Centre Ukrainien Alger,"Большая Васильковская ул., 9/2, Киев, під. 7, офис 81",50.440452472341,30.519400238291
855,Визовый центр Европа Плюс,"Рижский просп., 60, Псков",57.814559996042,28.299179984396
856,Vfs Global,"Гімназійна набережна, 18А, Харків",49.983560005195,36.239430036507
857,Tout Service,"просп. Дмитрия Яворницкого, 22, Днепр, пов. 2, БЦ Атріум",48.457940010567,35.060029958868
858,Визовый центр,"ул. Байзакова, 303, Алматы",43.230009997836,76.914809996688
859,Global Visa Traduction,"ул. Симона Петлюры, 13/135, Киев, офис 24",50.443359990811,30.496720033929
860,Визовый центр Италии Vms,"ул. Ворошилова, 126А, Серпухов, офис 316",54.919730008077,37.433170041737
861,Visa Services,"вулиця Героїв Майдану, 31, Чернівці",48.281640004498,25.932500001943
862,Визовый центр королевства Таиланд,"Садова вулиця, 1, Миколаїв",49.519489984736,23.978339994316
863,Визовый центр Материк,"просп. Дмитрия Яворницкого, 22, Днепр, 2-й пов, БЦ Атріум",48.457940010567,35.060029958868
864,Паспортно-визовый сервис,"Єкатеринославський бул., 2, Дніпро",48.461210000543,35.049739999254
865,Служба визовой поддержки,"Канатна вулиця, 22, Одеса",46.479750008546,30.747970012365
866,Визовый центр,"ул. Байзакова, 303, Алматы",43.230009997836,76.914809996688
867,Статус,"ул. Симона Петлюры, 13/135, Киев, офис 24",50.443359990811,30.496720033929
868,Turkish Visas Abidjan,"Стамбул, Кягытхане, Султан Селим, улица Султан Селим, 14, K:4",,
869,Первый визовый центр,"ул. Ворошилова, 126А, Серпухов, офис 316",54.919730008077,37.433170041737
870,Эксперт,"вулиця Героїв Майдану, 31, Чернівці",48.281640004498,25.932500001943
871,Tour du Monde Travel,"Садова вулиця, 1, Миколаїв",49.519489984736,23.978339994316
872,VFS Global Centro de pedidos de Visto da Bélgica,"просп. Дмитрия Яворницкого, 22, Днепр, 2-й пов, БЦ Атріум",48.457940010567,35.060029958868
873,Сервисно-визовый центр чехии,"Єкатеринославський бул., 2, Дніпро",48.461210000543,35.049739999254
874,Tlscontact Kinshasa,"Канатна вулиця, 22, Одеса",46.479750008546,30.747970012365
875,Визовый центр Европа Плюс,"ул. Островского, 19, микрорайон Центральный, Сочи, офис 1, этаж 2",54.742560002367,20.526590040199
876,Vfs Global,"вулиця Мечникова, 103, Ірпінь",54.677577105544,20.564009379182
877,Tout Service,"вулиця Трансформаторників, 22, Запоріжжя",47.886089988931,35.052729991755
878,Визовый центр,"Зелёная ул., 76, Мурманск",54.739340010443,20.503569981318
879,Global Visa Traduction,"Большой просп. Петроградской стороны, 17, Санкт-Петербург, м. Спортивная",59.969798795684,30.269305021605
880,Визовый центр Италии Vms,"Велика Арнаутська вулиця, 125, Одеса",46.473350006376,30.727130002681
881,Visa Services,"ул. Островского, 19, микрорайон Центральный, Сочи, офис 1, этаж 2",54.742560002367,20.526590040199
882,Визовый центр королевства Таиланд,"вулиця Мечникова, 103, Ірпінь",54.677577105544,20.564009379182
883,Güneş Vize,"вулиця Трансформаторників, 22, Запоріжжя",47.886089988931,35.052729991755
884,Визовый центр Материк,"Зелёная ул., 76, Мурманск",54.739340010443,20.503569981318
885,Паспортно-визовый сервис,"Элеваторная ул., 2, Оренбург, офис 310, этаж 3",51.77376998671,55.074320004822
886,Служба визовой поддержки,"Большой просп. Петроградской стороны, 17, Санкт-Петербург, м. Спортивная",59.969798795684,30.269305021605
887,Визовый центр,"Велика Арнаутська вулиця, 125, Одеса",46.473350006376,30.727130002681
888,Статус,"Джерельная ул., 28Б, Львов, офис 34",49.849179992382,24.020649997527
889,Turkish Visas Abidjan,"Ленинский просп., 4А, Донецк",54.715799980199,20.502979979153
890,Первый визовый центр,"ул. Шовроян, 69/1, Ереван",54.70907,20.50928
891,Эксперт,"ул. Семьи Хохловых, 15, Киев, пов. 8",50.469380016657,30.457540001002
892,Tour du Monde Travel,"Проскуровская ул., 45/58, Хмельницкий",49.423370007157,26.987269980361
893,VFS Global Centro de pedidos de Visto da Bélgica,"Гімназійна набережна, 18А, Харків",49.983560005195,36.239430036507
